"name","lat","lng","address","detail_info"
"总部基地-十区",39.826559,116.286578,"北京市丰台区南四环西路188号十区19号楼","购物;便利店"
"711便利店(丰台1店)",39.829193,116.291099,"北京市丰台区中关村科技园区丰台园产业基地二期(西区)","购物;便利店"
"快客便利店(总部基地七区店)",39.828782,116.287856,"南四环西路188号七区17","购物;便利店"
"都市快客便利店no.009",39.834368,116.290091,"丰台区科学城海鹰路9号金汤大厦一层","购物;便利店"
"易捷便利店(西四环南路辅路)",39.843429,116.292464,"西四环南路辅路","购物;便利店"
"全时便利店(总部基地十区店)",39.827145,116.287582,"南四环西路188号十区8号楼01号","购物;便利店"
"看杨公寓便利店",39.828568,116.276153,"北京市丰台区","购物;便利店"
"英华商店",39.849049,116.263903,"人民村东羊圈67号","购物;便利店"
"易家快捷店",39.841971,116.292071,"北京市丰台区富丰路2号星火科技大厦1层","购物;便利店"
"日月百货商店",39.850165,116.291958,"丰台区丰台大桥南街12号(云南过桥米线)","购物;便利店"
"君凉冷饮批发",39.857062,116.292745,"文体路58号附近","购物;便利店"
"日用百货平价商店",39.849992,116.291946,"丰台区丰台大桥南街12号(近羊汤饭店)","购物;便利店"
"宝锋商店",39.844347,116.290266,"富丰园8号楼","购物;便利店"
"聚客隆超市",39.842011,116.281288,"看丹南路北50米","购物;便利店"
"皓宇商店",39.852888,116.274967,"花乡段庄68号(富丰桥西)","购物;便利店"
"便利店(看丹路)",39.845303,116.276971,"看丹路400号402号(中共花乡看丹村总支部委员会东北)","购物;便利店"
"顺天府超市(航天建筑设计院底商)",39.848443,116.291508,"西四环南路93号院","购物"
"果士多(幸福街店)",39.857718,116.289453,"西幸福街1号楼底商(奥尔黛丝、正阳桥北公交车站)","美食;小吃快餐店"
"中电润泽连锁超市",39.829062,116.287936,"南四环西路188号七区18","购物"
"穆赞斋丰寺牛羊肉店",39.856145,116.292381,"丰台区丰台镇电报局街5号(丰台清真寺)","购物"
"真佳诚便利店",39.891277,116.281807,"西四环中路100号302医院附近","购物;便利店"
"迪亚天天（望园店）",39.874225,116.291123,"望园西里20号楼底商","购物;便利店"
"北京文昌阁文艺印章商店",39.865176,116.2912,"北大街14号","购物;便利店"
"青苗儿童商店",39.861057,116.29234,"文体路9号附近","购物;便利店"
"日用百货(北油小区西)",39.867673,116.265104,"卢沟桥路附近","购物;便利店"
"东方烟酒食品超市",39.890099,116.277509,"岳各庄北路附近","购物;便利店"
"易捷便利店(祥龙物流商务楼西南)",39.874314,116.28786,"卢沟桥路(北京市丰台区渣土管理站东)","购物;便利店"
"昆仑好客(西四环中路辅路)",39.887802,116.28114,"岳各庄村社区卫生服务站附近","购物;便利店"
"丰昌伟云商店",39.866376,116.271464,"程庄路西50米","购物;便利店"
"福家乐平价超市",39.884063,116.281821,"西蜀小四川附近","购物;便利店"
"顺鑫食品店",39.878177,116.282128,"卢沟桥路19号附近","购物;便利店"
"靖轩商店",39.891165,116.280224,"天安街甲8附近","购物;便利店"
"百年义利(五里店店)",39.862663,116.264784,"北京丰台区五里店南里小区1号楼","购物;超市"
"(服务区)便利店",39.893616,116.280198,"西四环中路辅路","购物;便利店"
"丰利商店",39.87891,116.283897,"卢沟桥路19号附近","购物;便利店"
"惠民商店",39.873291,116.273921,"卢沟桥路(北京全邦快运有限责任公司东北)","购物;便利店"
"童心商店",39.861849,116.292646,"游泳场北路18号附近","购物;便利店"
"老田百货",39.884453,116.270096,"青塔西路甲1号附近","购物;便利店"
"京榕茶庄",39.882345,116.292162,"广安路813号附近","购物;便利店"
"喜乐客便利店",39.862523,116.292496,"丰台区北大地二里11号楼对面,惠乐人家对面(近文体路)","购物;便利店"
"小邓咸菜批发部",39.885876,116.289267,"岳各庄批发市场副食品批发区28号","购物;便利店"
"文铮商店",39.881908,116.291851,"丰台区广安路1772附近","购物;便利店"
"平价商店(北油小区东北)",39.867614,116.266361,"卢沟桥路13号(北京天纬众诚新科技有限公司东北)","购物;便利店"
"春辉生活超市(五里店分店)",39.862434,116.264822,"五里店南路与五里店路交叉口南100米","购物"
"顺心源达商贸中心",39.885644,116.290605,"岳各庄批发市场73号","购物"
"台湾商行",39.884433,116.284738,"西四环中路130号岳各庄批发市场1层甲2号","购物"
"天佑宏图商贸",39.885386,116.29027,"岳各庄批发市场21号","购物"
"福建特产超市",39.891075,116.275603,"天安街330号附近","购物"
"西餐泰餐中餐溢泽商行",39.883681,116.286265,"岳各庄批发市场南广场5号","购物"
"快客便利店(永定路)",39.912905,116.269366,"复兴路甲36号一层110号","购物;便利店"
"好邻居便利店(正大路店)",39.919032,116.27102,"永定路57号院临1","购物;便利店"
"航天长峰加油站-便利店",39.924122,116.27387,"北京市海淀区金沟河路","购物;便利店"
"全时便利店(国防大学店)",39.914413,116.264598,"复兴路83号(东九楼东侧一层全大叔烧烤旁)","购物;便利店"
"快客便利店(金沟河店)",39.924233,116.283825,"北京市海淀区金沟河东路9号金和嘉园底商","购物;便利店"
"好邻居便利店(靛厂路)",39.895454,116.28986,"靛厂路26号11楼底商","购物;便利店"
"圆梦园超市",39.895534,116.284146,"靛厂路50号院2号","购物;便利店"
"地球村便利店",39.907097,116.279796,"海淀区西四环中路甲59-1号(西四环沙窝桥西北角)","购物;便利店"
"完美全国统一专卖北京聚福志缘日用品店",39.90992,116.27357,"太平路27号院北门17号门市","购物;便利店"
"易捷便利店(百朗园社区西)",39.91307,116.268635,"复兴路甲38号嘉德公寓(北一门)附近","购物;便利店"
"易捷便利店(西翠路)",39.899625,116.282809,"岳家楼398号","购物;便利店"
"万寿园便利店",39.916721,116.290716,"北京市海淀区万寿路西街甲11号","购物;便利店"
"便利店",39.926748,116.265729,"采石北路","购物;便利店"
"利友商店",39.914126,116.275097,"复兴路81号","购物;便利店"
"月圆商店",39.916291,116.279265,"西四环中路41号附近","购物;便利店"
"社区便民服务网点",39.921249,116.279674,"北京市海淀区金沟河2号院910楼下","购物;便利店"
"亚松超市亚松食品店",39.912038,116.279903,"五棵松南站附近(近五棵松桥)","购物;便利店"
"便民综合商店",39.912124,116.276036,"北京市海淀区复兴路32号院","购物;便利店"
"非旭商店",39.91601,116.270978,"永定路83号北25米","购物;便利店"
"惠利商店",39.918709,116.290089,"万寿路西街甲11-13","购物;便利店"
"富源中泰便利店",39.924347,116.276781,"北京市海淀区金沟河路3号院2号附近","购物;便利店"
"敏日升商店",39.913917,116.263648,"复兴路83-28号","购物;便利店"
"英茂盛商店",39.906439,116.28664,"太平路与沙窝中路交叉口东150米","购物;便利店"
"food station便利店",39.924209,116.279059,"北京市海淀区","购物;便利店"
"润通祥商贸",39.899029,116.260176,"北京市丰台区小屯路辅路","购物;便利店"
"慧轩通综合商店",39.90976,116.26314,"北太平路18号","购物;便利店"
"四环商品店",39.908938,116.271481,"永定路100","购物;便利店"
"原好望角食品商店",39.927636,116.284059,"北京市海淀区五棵松路40号","购物;便利店"
"综合商店",39.899271,116.261743,"小瓦窑东里南路","购物;便利店"
"六建便民彩店",39.91214,116.275803,"北京市海淀区复兴路32号院","购物;超市"
"大成路九号-精品商场",39.896258,116.275409,"大成路9","购物"
"全时便利店(玲珑天地店)",39.938349,116.283781,"西四环北路160号1层一区106(宝莲堂大药房隔壁)","购物;便利店"
"阜石路加油站-便利店",39.929883,116.27305,"阜石路56","购物;便利店"
"二商食品(美丽园店)",39.944038,116.283263,"美丽园路","购物;便利店"
"24小时便利店",39.935422,116.276014,"北京市海淀区","购物;便利店"
"悦客超市",39.946493,116.285884,"彰化路138号院西荣阁2号楼底商","购物;便利店"
"易捷便利店(海淀凭祥店)",39.947003,116.287464,"车公庄西路13号","购物;便利店"
"常青园生活便利店",39.962671,116.278776,"常青园一区5号一门101","购物;便利店"
"易捷便利店(板井路)",39.95982,116.283384,"昆明湖南路37号","购物;便利店"
"快客便利店(田村店)",39.934785,116.27058,"永定路乙1号","购物;便利店"
"百年便利店",39.932984,116.259741,"玉泉路2号","购物;便利店"
"迷你岛韩品连锁便利店!(迷你岛韩品便利彰化店)",39.947123,116.286163,"彰化路138号院1号楼一层106","购物;便利店"
"好邻居便利店(诚品建筑店)",39.950952,116.283906,"四季青桥东诚品建筑小区内","购物;便利店"
"捌零后便利店",39.934912,116.285032,"西八里庄路62号院底商(地铁6号线五路站)","购物;便利店"
"福地天赐商店(恩济庄店)",39.933628,116.293451,"恩济庄18号","购物;便利店"
"每日超便利店",39.929896,116.26029,"北京市海淀区玉泉路6号院1号","购物;便利店"
"爱心便利店",39.95509,116.262964,"北京市海淀区杏石口路","购物;便利店"
"万鑫荣达便利店",39.935241,116.278426,"北京市海淀区田村路","购物;便利店"
"恩济北口社区服务商店",39.938102,116.292807,"恩济里1号楼","购物;便利店"
"栗栗香便利商店",39.935252,116.277644,"北京市海淀区田村路","购物;便利店"
"易捷便利店(半壁店二街)",39.937636,116.266838,"半壁店乙1号","购物;便利店"
"鑫鑫商店",39.95925,116.264474,"北京市海淀区","购物;便利店"
"国新便利店",39.935341,116.261493,"田村路43号永达逸家北门","购物;便利店"
"润华超市",39.947104,116.292608,"彰化路","购物"
"京辉超市",39.939018,116.274723,"永定河路西100米","购物"
"梵尼诗(爱家家居西四环商城店)",39.948905,116.278779,"西四环北路119号爱家家居F1层","购物"
"社区综合服务部",39.951987,116.286596,"紫竹院路128号","购物"
"日用百货",39.954809,116.263126,"世纪城西冉村","购物"
"时润利民百货店",39.93703,116.266562,"北京市海淀区","购物"
"爱家遮阳(爱家家居西四环商城店)",39.949165,116.27849,"西四环北路119号爱家家居F3层","购物"
"空指便利店",39.978472,116.287837,"北四环西路88-12号","购物;便利店"
"广场便利店",39.997168,116.286706,"北京市海淀区新建宫门路19号颐和园内","购物;便利店"
"环颖综合商店",39.985297,116.279755,"金河路附近","购物;便利店"
"中国石油加油站-便利店",39.977146,116.280526,"北京市海淀区","购物;便利店"
"友源商店",39.966365,116.279139,"昆明湖南11号东冉家园南门向西30米","购物;便利店"
"迪亚天天（晴园店）",39.972737,116.290555,"北京市海淀区蓝靛厂晴波园甲2号","购物;便利店"
"彩虹便利店",39.964581,116.273228,"北京市海淀区常润路11号","购物;便利店"
"易捷便利店(闵庄路)",39.979991,116.263715,"四季青","购物;便利店"
"平价便民商店",39.981876,116.267413,"北坞村路23号附近","购物;便利店"
"宇都澄商行",39.966497,116.288601,"老营房路时雨园甲1-1号","购物;便利店"
"颐和园-小卖部",39.996946,116.286017,"北京市海淀区新建宫门路19号颐和园内","购物;便利店"
"海龙公寓便利店",40.008307,116.271769,"万柳","购物;便利店"
"壳牌24小时便利店",40.02888,116.28838,"圆明园西路28号附近","购物;便利店"
"Happy+乐加北宫门站A1口地铁便利店",40.008912,116.283528,"北京市海淀区地铁4号线北宫门站西北口站前广场","购物;便利店"
"Happy+乐加安河桥北站A口地铁便利店",40.019161,116.275937,"北京市海淀区地铁4号线国家图书馆站西南口站前广场","购物;便利店"
"快客便利店(颐和园路)",40.004966,116.288428,"北京市海淀区颐和园路附近","购物;便利店"
"Happy+乐加安河桥北站B口地铁便利店",40.019333,116.276812,"北京市海淀区地铁4号线安河桥北站东北口站前广场","购物;便利店"
"Happy+乐加安河桥北站C口地铁便利店",40.018207,116.276018,"北京市海淀区地铁4号线安河桥北站东南口站前广场","购物;便利店"
"兴杰食品",40.030762,116.29102,"北京市海淀区圆明园西路2号","购物;便利店"
"壳牌便利店",40.01113,116.279576,"北京市海淀区香山路2号","购物;便利店"
"平价超市",40.011758,116.274109,"香山路34号62号","购物;便利店"
"煦煦百货店",40.01237,116.290608,"大有庄国际关系学院后门","购物;便利店"
"颐和园-商店",40.008222,116.280438,"北京市海淀区新建宫门路19号颐和园内","购物;便利店"
"颐和园旅游用品商店-办公室",40.000554,116.274167,"北京市海淀区新建宫门路19号颐和园内","购物;便利店"
"颐和园-小卖部",40.004855,116.285627,"北京市海淀区新建宫门路19号颐和园内","购物;便利店"
"颐和园-小卖部",40.003725,116.285837,"北京市海淀区新建宫门路19号颐和园内","购物;便利店"
"广场便利店",40.003594,116.288903,"北京市海淀区新建宫门路19号颐和园内","购物;便利店"
"颐和园-商店",40.007449,116.280644,"北京市海淀区新建宫门路19号颐和园内","购物;便利店"
"颐和园特色商品店",40.003627,116.286377,"北京市海淀区新建宫门路19号颐和园内","购物;商铺"
"乐加地铁便利",40.003624,116.28899,"北京市海淀区昆明湖路","购物;便利店"
"北海佳便利店",40.033531,116.28758,"北京市海淀区圆明园西路2号","购物;便利店"
"颐和园文昌院-商品部",40.003468,116.287607,"北京市海淀区新建宫门路19号颐和园文昌院内","购物;便利店"
"颐和园-商店",40.005928,116.280528,"北京市海淀区新建宫门路19号颐和园内","购物;便利店"
"颐和园-商店",40.003987,116.280815,"北京市海淀区新建宫门路19号颐和园内","购物;便利店"
"颐和园-商店",40.007276,116.274129,"北京市海淀区新建宫门路19号颐和园内","购物;便利店"
"文月阁经营部",40.004691,116.288012,"北京市海淀区新建宫门路19号颐和园附近","购物;便利店"
"颐和园-商店",40.004291,116.278102,"北京市海淀区新建宫门路19号颐和园内","购物;便利店"
"颐和园-商店",40.007089,116.279091,"北京市海淀区新建宫门路19号颐和园内","购物;便利店"
"颐和园-商店",40.004685,116.282863,"北京市海淀区新建宫门路19号颐和园内","购物;便利店"
"颐和园-小卖部",40.003282,116.286331,"北京市海淀区新建宫门路19号颐和园内","购物;便利店"
"二十四小时送货超市",40.025962,116.27532,"天秀花园安河园底商","购物"
"烟酒茶专营",40.034328,116.271373,"总参谋部总医院北门汇丰公寓","购物"
"日用百货",40.023714,116.293599,"圆明园西路与圆明园西路出口交叉口东150米","购物"
"商品屋",40.002463,116.288349,"二龙闸路附近","购物"
"全时便利店(总部基地6区11号楼店)",39.829664,116.294915,"南四环西路188号十八区25号楼01层101内112","购物;便利店"
"都市快客便利店NO.008",39.830239,116.299521,"南四环西路188号总部基地(近总部基地广场)","购物;便利店"
"好邻居便利店(首经贸店)",39.846553,116.328089,"北京市丰台区首经贸中街8号","购物;便利店"
"铭豪便利店",39.833386,116.307388,"汽车博物馆东路1号院","购物;便利店"
"全时便利店(丰台东路)",39.853912,116.32514,"北京市丰台区丰台东路18号","购物;便利店"
"好邻居便利店(樊家村店)",39.854464,116.322874,"樊家村甲4号东一层","购物;便利店"
"多多岛便利店",39.835501,116.305622,"北京市丰台区","购物;便利店"
"维迈(北京丰台万芳园店)",39.85065,116.32225,"丰台区万年花城万芳园二区13号楼03号","购物;便利店"
"购客便利店",39.830326,116.293966,"南四环西路188号五区16","购物;便利店"
"育综超市",39.855292,116.326557,"育芳园18号楼","购物;便利店"
"小梅阿怡的牛奶商店",39.839973,116.306462,"怡海花园内商业街3-11号(近花乡桥)","购物;便利店"
"金秋商店(育芳园西)",39.855126,116.326273,"新村育芳园附近","购物;便利店"
"台湾爱家食品便利店",39.833914,116.305833,"北京丰台区南四环西路128号诺德中心4号楼606","购物;便利店"
"鼎诺天地便利店",39.83541,116.305706,"北京市丰台区","购物;便利店"
"秀清小卖部",39.846709,116.312132,"北京市丰台区","购物;便利店"
"立宏食品店",39.843318,116.298156,"韩庄子三里8号楼","购物;便利店"
"碧海(副食)便利店",39.839956,116.306163,"丰台区南四环西路129号怡海花园商业街(副食)","购物;便利店"
"瑞驰利泽商贸",39.84988,116.312647,"丰台东路附近","购物;便利店"
"朋友商店",39.84993,116.30224,"丰台区造甲街22号158号(丰台医院(造甲村分院))","购物;便利店"
"呱呱公子全国连锁NO.589",39.839979,116.307208,"怡海花园商业街","购物;便利店"
"晓雪商店(建国街)",39.85352,116.299473,"建国街7号附近","购物;便利店"
"晓青食品店",39.841081,116.314785,"南四环西路123号北京市旧机动车交易市场","购物;便利店"
"京润华通红酒超市",39.832594,116.295592,"南四环西路188号二区9","购物"
"宝融・智慧社区",39.85392,116.324473,"万芳园一区3","金融;典当行"
"诚意超市",39.843742,116.32031,"北京市丰台区","购物"
"妞妞便民店",39.845196,116.294419,"西四环南路辅路附近","购物;便利店"
"乐宠(万年花城店)",39.850876,116.323391,"万芳园一区18号楼底商18-7室(首都经济贸易大学北门)","购物"
"怡海绿园时尚店",39.840125,116.3086,"北京市丰台区","购物"
"雯景超市",39.855547,116.326609,"北京市丰台区芳菲路","购物"
"全时便利店(太平桥西路店)",39.887977,116.323324,"华源西里甲7幢1层13#――F11室","购物;便利店"
"全时便利店(西局西路)",39.882381,116.310088,"西局西路58-49号","购物;便利店"
"物美便利超市东大街店",39.870708,116.300891,"东大街2-2","购物;便利店"
"全时便利店(威尔夏大道店)",39.886037,116.324404,"丰台区太平桥路华源四里西侧底商","购物;便利店"
"25便利店",39.890497,116.306319,"马官营南路风荷曲苑14号楼10单元2室","购物;便利店"
"鼎恒便利店",39.873042,116.306612,"丰台北路甲45号鼎恒中心","购物;便利店"
"都乐综合商店",39.881114,116.297749,"丰台区小井六队","购物;便利店"
"丰路百顺商店",39.884934,116.302196,"北京市丰台区广安路","购物;便利店"
"丰益翔云便利店",39.864544,116.318939,"北京市丰台区","购物;便利店"
"国富烟草商店",39.887429,116.317944,"北京市丰台区","购物;便利店"
"旺盛商店",39.880514,116.32449,"太平桥路东局25号","购物;便利店"
"华源便利店",39.887987,116.321665,"太平桥西路(如家酒店东侧)","购物;便利店"
"敦厚旺杰商店",39.894284,116.3094,"丰台区六里桥北里莲怡园东路15号楼","购物;便利店"
"利民食品店",39.892119,116.327232,"六里桥西客站南路9-3(北京首发物流枢纽有限公司北)","购物;便利店"
"易捷便利店(G4辅路)",39.885992,116.304316,"北京市丰台区广安路","购物;便利店"
"新发地便民菜店(NO.011)",39.864263,116.306878,"丰管路泥洼路路口附近","购物;便利店"
"百家乐便利店",39.862875,116.298538,"北京市丰台区东大街","购物;便利店"
"天兰天小卖部",39.875637,116.320503,"北京市丰台区","购物;便利店"
"雅彤超市",39.861316,116.29634,"丰台区游泳场北路","购物;便利店"
"馨艺商店",39.871544,116.30612,"丰台区泥洼路2号10号","购物;便利店"
"莲花池南里小区-服务部",39.893803,116.319865,"水口子街附近","购物;便利店"
"北京鸿运创天商贸中心",39.886378,116.294111,"莲花池西路","购物;便利店"
"伟凤商店",39.891025,116.323475,"北京市丰台区","购物;便利店"
"长乐综合商店",39.880818,116.324428,"太平桥路17-1附近","购物;便利店"
"顺隆商店(北京西站南路)",39.888039,116.327975,"北京市西站南路38号附近","购物;便利店"
"百年义利(太平桥店)",39.891069,116.319672,"广安路辅路太平桥西里小区(北三门)附近","美食;小吃快餐店"
"福客隆",39.863858,116.311968,"丰管路(近前泥洼)","购物"
"居然丽屋五金涂料超市(居然之家丽泽店)",39.877888,116.317062,"西三环南路甲27号居然之家F1层","购物"
"日用百货",39.880887,116.324501,"丰台区太平桥路北口","购物"
"八方仙客",39.888549,116.324188,"北京市丰台区","购物"
"烟酒茶超市",39.861702,116.298951,"游泳场北路9号","购物"
"北京天马客超市",39.861237,116.296196,"北京市丰台区","购物"
"711便利店(羊坊店路西侧店)",39.911449,116.327313,"海淀区海淀区羊坊店路3号幢1楼3―4号（近世纪坛）新华社宿舍楼前","购物;便利店"
"快客便利店(新兴桥北店)",39.915305,116.31848,"北京市海淀区复兴路21号","购物;便利店"
"好邻居便利店(复兴路店)",39.912698,116.308763,"复兴路甲18号","购物;便利店"
"好邻居便利店(羊坊店)",39.91126,116.327509,"羊坊路3-3平房","购物;便利店"
"全时便利店",39.915765,116.301004,"万寿路西街2号一层116室","购物;便利店"
"广亨商场",39.895558,116.308924,"莲香园1-1","购物;超市"
"易捷便利店(内江大厦东)",39.894868,116.316257,"丰台区西三环中路辅路","购物;便利店"
"喜来缘商店",39.914453,116.298237,"复兴路61号东14楼1层","购物;便利店"
"招虎山商店",39.907177,116.302878,"翠微路19号草青青自助(北门)附近","购物;便利店"
"便利店",39.898622,116.310857,"莲宝路18号","购物;便利店"
"彩虹山谷",39.895714,116.314275,"北京市丰台区六里桥北里9号院1-3","购物;便利店"
"万寿路西街副食商店",39.916267,116.298477,"万寿路西街","购物;便利店"
"文兴商店",39.91622,116.294572,"万寿路西街4号","购物;便利店"
"兴大食品店",39.905305,116.317351,"西三环中路18玉成川渝菜馆附近","购物;便利店"
"华宇时佳商店",39.915022,116.30121,"北京市海淀区万寿路甲6号院1","购物;便利店"
"便利店",39.91462,116.307308,"北京市海淀区复兴路47号天行建商务大厦1层","购物;便利店"
"昆仑好客(玉渊潭南路)",39.919491,116.309978,"玉渊潭南路","购物;便利店"
"湘兰欣欣商店",39.91425,116.298236,"复兴路61号院","购物;便利店"
"北里社区便利店",39.921729,116.305461,"万寿路","购物;便利店"
"百佳缘便利店",39.915378,116.302878,"万寿路18号院2号楼底商","购物;便利店"
"便民超市冷饮批发",39.921799,116.308984,"翠微路4号颐源居4号","购物;便利店"
"中央电视塔-便利店",39.925252,116.315769,"北京市海淀区西三环中路11号中央电视塔内","购物;便利店"
"祥能便利店",39.898594,116.310842,"莲花池西里24号附近","购物;便利店"
"太平洋海底世界博览馆-商店",39.924819,116.312624,"北京市海淀区西三环中路11号中央广播电视塔太平洋海底世界博览馆内","购物;便利店"
"万翠综合商店",39.914048,116.30601,"复兴路甲49复兴路甲49号院(南二门)附近","购物;便利店"
"北京玉兰花红商店",39.910437,116.328176,"羊坊店路2-2","购物;便利店"
"丰海方顺商店",39.91829,116.315734,"玉渊潭南路普顺丰旅馆附近","购物;便利店"
"西门商店",39.923841,116.317421,"北京市海淀区西三环中路辅路","购物;便利店"
"金翠食品店",39.916289,116.304936,"翠微路2号","购物;便利店"
"北京朋皖友食品店",39.894562,116.322892,"北京市丰台区莲花池南里7号","购物;便利店"
"陈量西食品店",39.921754,116.308589,"翠微路","购物;便利店"
"正成商店",39.916419,116.308295,"翠微路2号","购物;便利店"
"老谷食品店",39.916198,116.294229,"东翠路万寿路西街路口附近","购物;便利店"
"便民超市",39.927739,116.305524,"蓝靛厂南路附近","购物"
"烟酒食品部",39.903455,116.321864,"什坊院3号院1号","购物"
"樱花坞",39.924281,116.318948,"北京市海淀区","购物"
"711便利店(韦伯时代中心店)",39.959786,116.328514,"北京市海淀区中关村南大街17号韦伯时代中心C座一层106号商铺","购物;便利店"
"711便利店(航天桥东侧店)",39.931594,116.322984,"阜成路23号13号房(近工商大学东门)","购物;便利店"
"711便利店(紫竹院路店)",39.953246,116.304719,"紫竹院路81号北方地产大厦1楼(近十号名邸)","购物;便利店"
"711便利店(海淀嘉友国际大厦店)",39.952357,116.299305,"北京市海淀区蓝靛厂南路25号嘉友国际大厦首层101号","购物;便利店"
"好邻居便利店(板井店)",39.955245,116.295582,"车道沟桥进入板井路单行路直行300米","购物;便利店"
"全时便利店(岭南路西侧店)",39.934443,116.309182,"北京市海淀区西三环北路105号西一区44号楼1层101","购物;便利店"
"夕阳乐商店",39.948078,116.311231,"紫竹院路98号","购物;便利店"
"全时便利店(花园桥西国际财经店)",39.941923,116.315857,"北京市海淀区西三环北路87号1层103","购物;便利店"
"好邻居便利店(西三环北路二店)",39.939499,116.315903,"西三环北路91-1号国图文化大厦中间底商(近味多美（花园桥店）)","购物;便利店"
"中油首汽二号站便利店营业厅",39.944131,116.326038,"紫竹院南路甲3号","购物;便利店"
"全时便利店",39.959246,116.315607,"西三环北路21号1号楼首层局部102室","购物;便利店"
"好邻居便利店(紫竹院办公楼东南)",39.949692,116.317587,"广源闸路5-2号广源大厦","购物;便利店"
"全时便利店(豪柏大厦店)",39.94537,116.320267,"北京市海淀区西三环北路50号院8号楼1层105室","购物;便利店"
"首石缘加油站-便利店",39.944154,116.315939,"西三环北路71号金龙潭大饭店旁","购物;便利店"
"好邻居便利店(北洼南店)",39.936212,116.30797,"北洼路42号院大门北侧，首都师大附中东门对面","购物;便利店"
"好邻居便利店(航天桥店)",39.93111,116.31772,"海淀区西三环北路88号金玉大厦旁(航天桥东北侧)","购物;便利店"
"佳辉乐乐便利店",39.950511,116.311646,"紫竹桥西过街天桥下","购物;便利店"
"三石便利店",39.942515,116.312335,"北京市海淀区","购物;便利店"
"便利店",39.937988,116.29592,"玲珑路八里庄北里小区23号楼底商","购物;便利店"
"好邻居便利店(增光路店)",39.933958,116.318154,"北京市海淀区西三环北路82号院5号楼底商","购物;便利店"
"乐乐便利店",39.943448,116.295628,"彰化南路5号附近","购物;便利店"
"德国蜂蜜代理商",39.953157,116.298618,"紫竹院路116号嘉豪国际中心D座1605室(地铁10号线车道沟站D口出)(近牛顿)","购物;便利店"
"快客便利店(长智路)",39.948895,116.307904,"长智路5号长运财智会馆","购物;便利店"
"新海源通达便民超市",39.954391,116.30815,"半壁街南路1号院5","购物;便利店"
"福鑫便利店",39.947757,116.315207,"紫竹院路","购物;便利店"
"世纪便利店",39.935146,116.317427,"北京市海淀区西三环北路辅路72号世纪经贸大厦A座1层","购物;便利店"
"门雅光便利店",39.956709,116.323776,"民族大学西路法华寺8号","购物;便利店"
"法兰菲葡萄酒便利店NO.1店",39.951368,116.316091,"北京市海淀区","购物;便利店"
"北京石化便利店",39.944289,116.316175,"西三环北路和紫竹桥的交叉口附近","购物;便利店"
"冉星光食品店",39.931282,116.32821,"阜成路北二街131号附近","购物;便利店"
"日日和商店",39.963538,116.318899,"北京市海淀区","购物;便利店"
"潘庄便民商店",39.938882,116.315503,"西三环北路101","购物;便利店"
"吉祥服务部",39.963434,116.32028,"北京市海淀区中关村南大街5号北京理工大学校内","购物;便利店"
"脉动便利商店",39.949059,116.311767,"北洼路98号化工大学院内","购物;便利店"
"魏公村冷批",39.959998,116.323952,"北京市海淀区","购物;便利店"
"小小便利店(紫竹桥店)",39.941489,116.315626,"西三环北路87号国际财经中心102室(商业门口北侧)","购物;便利店"
"便利店",39.952042,116.302932,"北京市海淀区","购物;便利店"
"利明商店(法华寺路)",39.957522,116.321145,"法华寺路","购物;便利店"
"三石便利便当店",39.942459,116.312256,"北洼东街28号(近首都师范大学北校区)","购物;便利店"
"八里庄街道社区服务中心便民商亭2",39.943367,116.303779,"北京市海淀区北洼西路","购物;便利店"
"伟业众缘商店",39.944403,116.32839,"紫竹院路辅路附近","购物;便利店"
"新梅食品店",39.952933,116.305303,"紫竹院路79号附近","购物;便利店"
"紫玉商店",39.933915,116.318041,"西三环北路82号院5","购物;便利店"
"无休食品店",39.95238,116.31178,"紫竹院路33号美林花园(西门)附近","购物;便利店"
"年年有余食品店",39.95168,116.319577,"广源闸路延庆寺旁","购物;便利店"
"龙昌商店",39.942293,116.32079,"三虎桥南路8号院门口","购物;便利店"
"嘉紫竹商店",39.945574,116.321525,"昌运宫路附近","购物;便利店"
"北京方红玲商店",39.958118,116.310797,"厂洼中路1号","购物;便利店"
"昆鹏商店",39.952266,116.308124,"车道沟10号院","购物;便利店"
"民利达服务中心食品部",39.957384,116.327332,"中关村南大街27号民族大学校内","购物;便利店"
"茶先生",39.941193,116.31596,"西三环北路87号国际财经中心1楼(花园桥西北角)(近温莎楼上)","购物;超市"
"鲜花水果日用品",39.930489,116.311944,"阜成路49号院1","购物;超市"
"北京快客利餐饮管理有限公司",39.929424,116.304942,"海淀区阜成路40号","购物;便利店"
"恒鲜超市",39.959353,116.309983,"厂洼街与厂洼中路交叉口西","购物"
"惠多家文具店",39.952622,116.31116,"北京市海淀区车道沟路","购物"
"中国移动授权代理店兵兴源商店",39.952188,116.307809,"紫竹院路69号（中国兵器大厦西侧50米）","购物"
"日用百货",39.94826,116.312328,"北京市海淀区","购物"
"烟酒食品店",39.937988,116.318464,"车公庄西路38号院1","购物"
"嘉豪顺心食品店",39.957219,116.327527,"中关村南路27号中央民族大学内","购物"
"711便利店(金源店)",39.967295,116.294843,"蓝靛厂东路金源时代商务中心B座1D","购物;便利店"
"711便利店(中关村大街二分店)",39.987333,116.320997,"北京市海淀区中关村大街11号e世界财富中心","购物;便利店"
"711便利店(苏州街长远天地店)",39.983502,116.312998,"北京市海淀区苏州街18号院中关村长远天地B座底商近八一中学","购物;便利店"
"711便利店(左岸公社店)",39.990262,116.310592,"北京海淀区北四环西路68号左岸工社底商近海淀桥","购物;便利店"
"汇贤商店",39.978283,116.31939,"北京市海淀区中关村大街59号中国人民大学静园空地内(近当代商城)","购物;便利店"
"711便利店(豪景大厦店)",39.982537,116.32709,"北京市海淀区知春路113号银网中心B座108号","购物;便利店"
"711便利店(海淀黄庄东站店)",39.981461,116.32786,"海淀路甲108号豪景大厦西侧(近中关村大街)","购物;便利店"
"711便利店(海淀中关村大街西侧店)",39.978195,116.325063,"北京市海淀区中关村大街49号9号楼大华科技商厦B座1楼(近文化大厦)","购物;便利店"
"北京大学-小卖部",39.995965,116.318536,"北京市海淀区","购物;便利店"
"利民华明商店",39.996024,116.322858,"北京市海淀区中关村北大街128号","购物;便利店"
"好邻居便利店(丹棱街新店)",39.985396,116.319004,"北京市海淀区丹棱街3号中国电子大厦地下1层","购物;便利店"
"好邻居便利店(苏州街五店)",39.979441,116.312751,"苏州街工商局一层苏州街工商对面偏南","购物;便利店"
"好邻居便利店(厂洼路店)",39.964492,116.313037,"厂洼小区24号楼（北京电视台西门）","购物;便利店"
"好邻居便利店(中关村南大街店)",39.970199,116.321404,"西三环北路厂洼24号楼底商","购物;便利店"
"快客便利店(中关村北大街)",39.99343,116.322996,"海淀区中关村北大街中关村二小西门旁","购物;便利店"
"全时便利店(三义庙店)",39.970535,116.319815,"北京市海淀区北三环西路甲49号北京国都鼎盛大酒店一层大厅西侧101a","购物;便利店"
"711便利店(中关村大街一分店)",39.986371,116.320211,"北京市海淀区中关村大街15号中关村广场购物中心Ｂ区1层","购物;便利店"
"梦圆圆商店",39.990964,116.326526,"中关村南一街1","购物;便利店"
"全时便利店(万柳东路店)",39.967875,116.309523,"北京市海淀区长春桥路5号新起点嘉园8号楼110","购物;便利店"
"711便利店(海淀辉煌时代大厦店)",39.990405,116.318479,"北京市海淀区北四环西路56号辉煌时代大厦一层107号商铺","购物;便利店"
"711便利店(万柳亿城大厦店)",39.967101,116.308073,"北京市海淀区长春桥路11号万柳亿城大厦C座裙房1楼","购物;便利店"
"地铁便利店(巴沟站店)",39.980657,116.299254,"10号线巴沟站出口","购物;便利店"
"好邻居便利店(畅春园店)",39.995202,116.311206,"西苑草场5号","购物;便利店"
"北京理工大学-硕博商店",39.964706,116.317675,"北京市海淀区中关村南大街北京理工大学硕博公寓楼下","购物;便利店"
"快客便利店(长远天地大厦店)",39.984698,116.313638,"海淀区苏州街18号长远天地大厦C座(近丹棱街)","购物;便利店"
"南区商店",39.974135,116.320132,"北京市海淀区中关村大街59号中国人民大学内(近当代商城)","购物;便利店"
"Happy+乐加苏州街站A口地铁便利店",39.981816,116.312301,"北京市海淀区地铁10号线苏州街站西北口站前广场","购物;便利店"
"好邻居便利店(海淀桥店)",39.987324,116.311607,"大河庄苑4号楼1层0104室","购物;便利店"
"711便利店(海淀南路店)",39.98281,116.31738,"北京市海淀区海淀南路19号时代网络大厦地上第一层","购物;便利店"
"易捷便利店(万泉庄店)",39.969406,116.319106,"北京市海淀区北三环路62号中石化加油站内","购物;便利店"
"快客便利店(北大店)",39.992162,116.316237,"海淀路19号","购物;便利店"
"阿三便利店",39.994731,116.328039,"中关村北一街","购物;便利店"
"欣欣便利店",39.976766,116.303163,"万柳中路5号","购物;便利店"
"友谊蔬菜副食商店",39.973466,116.32327,"北三环西路47号院33号楼","购物;便利店"
"罗森便利店(海淀南路店)",39.982147,116.313244,"海淀区海淀南路亿方大厦一层","购物;便利店"
"中关园商品部",39.996026,116.326281,"北京市海淀区中关村北一街附近","购物;便利店"
"餐饮中心服务部",39.994946,116.314879,"北京市海淀区康博思西式快餐附近","购物;便利店"
"全时便利店(西屋国际店)",39.986669,116.312798,"北京市海淀区苏州街12号12-3号楼S105","购物;便利店"
"Happy+乐加中关村站B口地铁便利店",39.991087,116.323771,"北京市海淀区地铁4号线中关村站东北口站前广场","购物;便利店"
"Happy+乐加北京大学东门站-C口便利店",39.997818,116.323313,"北京市海淀区地铁4号线北京大学东门站东南口站前广场","购物;便利店"
"易捷便利店(万泉河路辅路)",39.999072,116.303814,"万泉河路24号(万泉河路辅路)","购物;便利店"
"寒来暑往超市",39.964991,116.311265,"北京市海淀区","购物;便利店"
"好邻居便利店(海淀南店)",39.982422,116.31927,"通惠寺3号七一棉织厂东一楼东侧","购物;便利店"
"易捷便利店(万城华府玺园北)",39.981043,116.297774,"巴沟路21号(万城华府玺园北)","购物;便利店"
"北京安枞商店",39.977635,116.325442,"北京市海淀区","购物;便利店"
"永盛商店",39.966913,116.321688,"北京市海淀区中关村南大街5号北京理工大学校内","购物;便利店"
"佳家便利店",39.981577,116.322133,"海淀南路2","购物;便利店"
"好邻居便利店(北三环店)",39.971808,116.325973,"北三环西路60号1层","购物;便利店"
"地铁便利",39.99881,116.321966,"北京市海淀区中关村北大街139号附近","购物;便利店"
"地铁便利",39.990981,116.323647,"北四环西路辅路附近","购物;便利店"
"Happy+乐加苏州街站B口地铁便利店",39.981826,116.313733,"北京市海淀区地铁10号线苏州街站东北口站前广场","购物;便利店"
"东云商店",39.981552,116.319101,"海淀南路6号楼底商(近海淀中街)","购物;便利店"
"绿源商店",39.997367,116.324871,"北京市海淀区成府路200号","购物;便利店"
"RAYMA CVS便利店",39.996167,116.326395,"北京市海淀区","购物;便利店"
"小旮旯便民服务店",39.969902,116.309418,"万柳东路怡秀园8号楼","购物;便利店"
"平价商店",39.98505,116.308236,"北京市海淀区","购物;便利店"
"地铁便利",39.974099,116.327777,"双榆树三街附近","购物;便利店"
"地铁便利(黄庄店)",39.982179,116.323526,"海淀区黄庄地铁站西北出口(近海淀医院)","购物;便利店"
"科源鑫溢商店",39.992029,116.326991,"北四环西路辅路美甲旁","购物;便利店"
"Rayma便利店",39.996051,116.32612,"北京市海淀区中关村北大街北京大学中关新园(方正大厦南侧小马路向东)","购物;便利店"
"北京多方彩艺便利店",39.970513,116.306525,"万柳中路新纪元家园5号楼一单元101","购物;便利店"
"Happy+乐加巴沟站C东南口地铁便利店",39.979863,116.299931,"北京市海淀区巴沟路","购物;便利店"
"万泉富海商店",39.978801,116.309871,"万泉河路109附近","购物;便利店"
"禹钧都商店",39.984056,116.308466,"万泉河路","购物;便利店"
"爱家台湾食品店",39.969804,116.303213,"泉宗路万柳蜂鸟家园4号楼29号(克丽缇娜旁边)","购物;便利店"
"吕延刊益便利店",39.969051,116.314034,"万泉河路111号金洲大厦(东门)附近","购物;便利店"
"Happy+乐加人民大学站C口地铁便利店",39.972557,116.328613,"北京市海淀区地铁4号线人民大学站东南口站前广场","购物;便利店"
"八三楼便民网点",39.98688,116.326143,"北京市海淀区中关村南路","购物;超市"
"友源便民超市",39.973656,116.322545,"北三环西路47号院内","购物"
"有机村(世纪城店)",39.974375,116.304446,"海淀区万柳阳春光华家园11号楼1层110","购物"
"烟酒茶商行",39.989792,116.316304,"北京市海淀区海淀北二街8号中关村SOHO1层","购物"
"烟酒副食平价商店",39.999313,116.310666,"北京市海淀区颐和园路与求知路交叉口北","购物"
"711便利店(颐和园路店)",40.004217,116.297471,"颐和园路西苑龙湖星悦荟103号1楼L1-25号(近中直路)","购物;便利店"
"Happy+乐加圆明园站B口地铁便利店",40.005962,116.317187,"北京市海淀区地铁4号线圆明园站东北口站前广场","购物;便利店"
"北体大校园综合商店",40.028557,116.328456,"信息路48北京体育大学内","购物;便利店"
"易捷便利店(清华开拓店)",40.006482,116.322184,"北京市海淀区清华大学中国石化清华开拓加油站内","购物;便利店"
"Happy+乐加西苑站C2口地铁便利店",40.004808,116.296342,"北京市海淀区地铁4号线西苑站西南口站前广场","购物;便利店"
"Happy+乐加西苑站C1地铁便利店",40.004425,116.297308,"北京市海淀区地铁4号线西苑站东南口站前广场","购物;便利店"
"梦瑶超市水站",40.011367,116.321479,"中关村北大街水磨西街13号","购物;便利店"
"Happy+乐加圆明园站A口地铁便利店",40.005478,116.315471,"北京市海淀区地铁4号线圆明园站西北口站前广场","购物;便利店"
"北京厢黄旗万树园便民商店",40.032204,116.296662,"镶黄旗万树园附近","购物;便利店"
"好健邻",40.004548,116.325783,"北京市海淀区近春路清华园住宅小区清华大学西楼内","购物;便利店"
"利民商店(中直路)",40.002445,116.29871,"中国中医研究院西苑医院宿舍区(西门)附近","购物;便利店"
"圆明园遗址公园-食品商店",40.012165,116.320932,"北京市海淀区清华西路28号圆明园遗址公园内","购物;便利店"
"超源便利店",40.009866,116.320942,"北京市海淀区中关村北大街","购物;便利店"
"平价商店(海淀区再生资源管理办公室西北)",40.002334,116.302037,"颐和园路21号(北京农商银行颐和园分理处北)","购物;便利店"
"只为旅游更便利",40.008275,116.316836,"北京市海淀区","购物;便利店"
"万家亲和商店",40.024047,116.325603,"中关村北大街2号","购物;便利店"
"流香渚商亭",40.016108,116.315478,"北京市海淀区清华西路28号圆明园遗址公园长春园景区内","购物;便利店"
"部队服务中心树村路店",40.029086,116.308096,"北京市海淀区","购物"
"华联生活",40.029708,116.315638,"北京市海淀区","购物"
"海树丰商店(上地店)",40.031134,116.30541,"海淀区农大南路33号1号楼106号","购物"
"食品饮料冷饮日用品",40.030694,116.315537,"正白旗路5号附近","购物"
"2元佳9块9超市",40.02887,116.315768,"北京市海淀区正白旗路","购物"
"广源百货",40.027755,116.315921,"北京市海淀区正白旗路","购物"
"京开市场豪侠小卖部",39.843642,116.346572,"京开五金建材批发市场南区M道38-1号","购物;便利店"
"溪丹便利店",39.837813,116.345162,"北京市丰台区康华街","购物;便利店"
"易捷便利店(草桥店)",39.857446,116.357222,"南三环西路57号附近","购物;便利店"
"(服务区)易捷便利店",39.835922,116.334859,"南四环西路辅路附近","购物;便利店"
"利民便利店",39.854741,116.3298,"北京市丰台区育芳园东里3号附近","购物;便利店"
"居家近食品便利店",39.851422,116.359819,"草桥欣园西四区1-1","购物;便利店"
"服务区-易捷便利店",39.83665,116.34446,"南四环西路21号","购物;便利店"
"玉泉营市场服务部",39.850187,116.347416,"玉泉营建材装饰市场(亿朋苑一区东)附近","购物;便利店"
"昆仑好客(南苑西路店)",39.828078,116.348464,"丰台区丰台南路12号(近南苑西路)","购物;便利店"
"易捷便利店(玫瑰花园小区西)",39.848719,116.354324,"未来上层(恋日上层)附近","购物;便利店"
"昆仑好客便利店",39.856691,116.332116,"南三环西路117号","购物;便利店"
"珍品园特色礼品精品展厅",39.834132,116.349747,"右安路9号附近","购物;便利店"
"水果蔬菜便利店",39.832671,116.341413,"商业街33-14","购物;便利店"
"开源便利店",39.833481,116.349477,"右安路9号","购物;便利店"
"明境缘便利店",39.825061,116.36213,"北京市丰台区南苑西路","购物;便利店"
"海桥商店",39.849566,116.333285,"纪家庙路夏家胡同内","购物;便利店"
"旺购超市",39.847106,116.344081,"玉泉营桥南亿苑三区龙威广场对面","购物"
"笑笑超市",39.854093,116.336304,"北京市丰台区丰台东路","购物"
"日用百货",39.853138,116.329173,"丰台区纪家庙路","购物"
"爱家生活超市",39.831488,116.359102,"新发地桥北天骄俊园","购物"
"华忆尚Τ市",39.831566,116.358185,"潘家庙路9号院17楼114","购物"
"711便利店(马连道南街店)",39.89003,116.335944,"马连道南街2号院8-1","购物;便利店"
"好邻居便利店(鸭子桥北店)",39.88646,116.355087,"北京市西城区南滨河路31号华亨大厦1层","购物;便利店"
"快客便利店(联华便利连锁NO.8369)",39.893366,116.347891,"西城区手帕口南街1号院3-3号(近郎琴园)","购物;便利店"
"好邻居便利店",39.874744,116.352483,"丽泽路与广安门南滨河路交叉口西北100米","购物;便利店"
"北京市甜心梅园超市",39.88449,116.363374,"北京市西城区白纸坊西街17号院7号楼103室","购物;便利店"
"易捷便利店(金泰地产西)",39.874338,116.346298,"丽泽路","购物;便利店"
"谢泽玉商店",39.8902,116.353471,"广安门外南街甲59附近","购物;便利店"
"益民食品店(广安门车站东街)",39.891339,116.351808,"广安门车站东街11号附近","购物;便利店"
"凤华便民超市",39.871068,116.339873,"丽泽路金都苑2号楼","购物;便利店"
"诚信百货",39.890437,116.340076,"北京市西城区红莲北里11号12","购物;便利店"
"昆仑好客(广安门车站西街)",39.888042,116.348584,"广安门车站西街甲5附近","购物;便利店"
"爱心商店",39.894283,116.341567,"北京市西城区马连道东街","购物;便利店"
"华兴惠自选商店",39.886493,116.360407,"菜园街22","购物;便利店"
"平价便利店",39.886048,116.353355,"广安门外南街63号","购物;便利店"
"雨政雁海食品超市",39.887934,116.351764,"车站东街15号","购物;便利店"
"北京烟酒食品超市",39.875481,116.36313,"右安门西街6号","购物;便利店"
"昆仑好客(马连道路5号院南)",39.892573,116.331649,"太平桥东里附近","购物;便利店"
"天缘商店",39.882542,116.358251,"北京市西城区广安门南街36号","购物;便利店"
"北京市余桂影商店",39.884491,116.360567,"白纸坊中里7-3号","购物;便利店"
"金舒雨食品超市",39.883477,116.354404,"西城区鸭子桥北里6号楼底商","购物;便利店"
"古澜茶轩",39.887682,116.336716,"茶马北街1号院2世纪茶贸中心1-2-150号","购物;便利店"
"小卖部",39.88961,116.349226,"西城区红居斜街","购物;便利店"
"兰杜鹃商店",39.886749,116.362264,"菜园东里8号楼","购物;便利店"
"北京利源商店",39.878292,116.336372,"三路居路121-19","购物;便利店"
"恒月苑便利店",39.88921,116.354858,"南滨河路23号院3","购物;便利店"
"北京大观园-小卖部",39.877199,116.363617,"北京市西城区南菜园街12号北京大观园内","购物;便利店"
"北京大观园-小卖部",39.876021,116.362938,"北京市西城区南菜园街12号北京大观园内","购物;便利店"
"连凤食品店",39.88375,116.362508,"北京市西城区白纸坊西街37号","购物;便利店"
"双喜生活超市",39.893634,116.335767,"马连道北街（北京液化气马连道供应站东南侧）","购物"
"华美茗粹",39.893216,116.331837,"马连道9号院黄山茶城一层B-13","购物"
"七色花超市",39.876174,116.35423,"北京市丰台区菜户营东街甲88号豪苑大厦A座1层","购物"
"爱鲜蜂百兴超市",39.887323,116.339223,"马连道东街（金新大药房红莲店东南侧）","购物"
"牛栏山专卖 烟酒商行",39.881778,116.35326,"鸭子桥路1号院6号楼底商","购物"
"爱鲜蜂社区便利超市(南运巷)",39.887867,116.357028,"南运巷3号楼底商,椿树馆公交站东边","购物"
"俊岩顺达食品店",39.887749,116.334759,"茶马西路（台湾状元茶业东侧30米）","购物"
"乐百氏水便利连锁店",39.887955,116.347981,"西城区广安门车站西街5号","购物"
"福美佳",39.916905,116.33363,"海淀区玉渊潭南路甲九号","购物;便利店"
"好邻居便利店(复兴门店)",39.91342,116.345031,"复兴门外大街丙25号(近木樨地地铁站)","购物;便利店"
"好邻居便利店(广义街店)",39.896674,116.363508,"西城区广安门内大街311号院2号楼祥龙大厦1楼","购物;便利店"
"好邻居便利店(南礼士路店)",39.919889,116.359444,"北京市西城区月坛南街5-2","购物;便利店"
"好邻居便利店(月北店)",39.924322,116.352528,"月坛北街11号楼7号","购物;便利店"
"好邻居便利店(甘家口店)",39.928317,116.342045,"北京市西城区阜城门外大街44-3号","购物;便利店"
"好邻居便利店(西便门店)",39.902027,116.361203,"西城区复兴门南大街1号","购物;便利店"
"北京祝友康医疗器械商店",39.912,116.346022,"复兴门外大街甲20复兴医院附近","购物;便利店"
"好邻居便利店(阜外大街店)",39.92914,116.346122,"阜成门外大街37-19号(近阜外西口车站)","购物;便利店"
"好邻居便利店(真武庙路四条)",39.908567,116.354202,"真武庙路四条18号","购物;便利店"
"好邻居便利店(月坛西街店)",39.922268,116.356121,"月坛西街乙4号(近月坛北街)","购物;便利店"
"好邻居便利店(木樨地店)",39.912579,116.346121,"西城区复兴门外大街甲22号","购物;便利店"
"张大食品店",39.915036,116.344496,"北京市西城区","购物;便利店"
"快客24便利店",39.911548,116.34257,"北京市西城区白云观街北里国宏大厦1层","购物;便利店"
"快客便利店(小马厂店)",39.899803,116.342081,"广安门外大街305号8区荣丰2008小区10号楼","购物;便利店"
"快客便利店(北蜂窝路)",39.911848,116.335732,"海淀区北蜂窝路2号","购物;便利店"
"罗森便利店(月坛北街店)",39.92443,116.361539,"北京市西城区月坛北街甲1号","购物;便利店"
"义乌商品",39.902744,116.35974,"北京市西城区槐柏树北里甲2号2","购物;便利店"
"黑龙江绿色有机食品专卖黑龙江省驻京办店",39.918761,116.362558,"复兴门北大街5-4","购物;便利店"
"点点乐民食品百货超市",39.90016,116.360117,"西便门内大街46附近","购物;便利店"
"北京诚河华便利店",39.906098,116.353091,"白云观北里西门外","购物;便利店"
"好邻居便利店(月南店)",39.919842,116.353497,"北京市西城区月坛南街甲1号","购物;便利店"
"好邻居便利店(白云里店)",39.905376,116.353783,"白云观街北里1-6天宁寺桥加油站斜对面","购物;便利店"
"天兴美丰食品店",39.913472,116.356134,"北京市西城区复兴门外大街9栋底商","购物;便利店"
"春晖恒旅馆小卖部",39.895187,116.334355,"机械大厦(北门)附近","购物;便利店"
"安童商店",39.91844,116.362147,"北京市西城区","购物;便利店"
"随缘便利店",39.909488,116.355237,"北京市西城区真武庙四里2号","购物;便利店"
"好邻居便利店(北滨河店)",39.906579,116.359044,"广安门外北滨河路2号院4号楼1层","购物;便利店"
"好邻居便利店(月坛北桥店)",39.924586,116.362554,"北京市西城区阜成门南大街9号10","购物;便利店"
"生源食品店",39.908013,116.355311,"真武庙五里三栋1门1号底商","购物;便利店"
"中国烟酒茶",39.904459,116.339861,"北蜂窝甲8号中雅大厦1楼","购物;便利店"
"西客隆(三里河店)",39.919397,116.351029,"月坛南街18号楼1室","购物;便利店"
"铁辰兴达食品店",39.924444,116.362232,"北京市西城区月坛北街甲1号1","购物;便利店"
"永嘉怡园食品店",39.91804,116.357561,"北京市西城区南里士路三条北里14栋底商","购物;便利店"
"乐仔娃便利店(NO.01008)",39.920332,116.355632,"月坛南街19号院-3号楼","购物;便利店"
"吉祥便利店",39.894512,116.333241,"北京市西城区马连道路6","购物;便利店"
"易捷便利店(白云观街)",39.905066,116.354543,"广安门北滨河路4号附近","购物;便利店"
"佳嘉百利超市",39.900623,116.347384,"小马厂路小马厂社区来京人员出租房屋服务站附近","购物;便利店"
"仁元益商店",39.904779,116.333949,"北蜂窝中路8号院5号楼","购物;便利店"
"零食盒子(华联商厦广安门外大街)",39.895052,116.344122,"广安门外大街180号F1层F1-09","购物;便利店"
"智点利商店",39.91002,116.349878,"真武庙三里7-2号","购物;便利店"
"天下客",39.903266,116.33807,"莲花池东路9号院-1号楼-1层","购物;便利店"
"豫北苑便利商店",39.905328,116.331291,"北蜂窝中路17号附近","购物;便利店"
"荣致食品店",39.927888,116.350909,"北京市西城区","购物;便利店"
"华惠商店",39.90988,116.335782,"复兴路乙6号(近北蜂窝路)","购物;便利店"
"小英商店",39.907918,116.359396,"北京市西城区西便门外大街10-7","购物;便利店"
"北京利君便利店",39.902457,116.328703,"北京市丰台区","购物;便利店"
"黄圣然食品店",39.928583,116.351793,"北京市西城区阜成门外大街甲22号3","购物;便利店"
"六合四方食品店",39.921145,116.345781,"三里河北街","购物;便利店"
"繁玲百货",39.903417,116.343552,"莲花池东路(近辅路)","购物;便利店"
"人有情食品店",39.912297,116.344328,"木樨地北里12-1号","购物;便利店"
"新月起航食品",39.903792,116.350757,"北京西城区白云观街莲花池东路辅路附近","购物;便利店"
"源椿园食品店",39.916609,116.359391,"北京市西城区南礼士路58号","购物;便利店"
"中国石油月坛加油站-便利店",39.922042,116.362636,"北京市西城区阜成门南大街辅路","购物;便利店"
"真珍兴隆食品店",39.903957,116.352475,"莲花池东路1号","购物;便利店"
"瑞祥商店",39.901618,116.331245,"莲花池东路116-2号瑞尔威写字楼A座1层","购物;便利店"
"昌凯华百货便利店",39.8951,116.336744,"广安门外三义里4号楼旭阳水文旅馆南17室","购物;便利店"
"广泽公司食品部",39.896741,116.359632,"广安门医院旁","购物;便利店"
"汇天宾馆食品部",39.911957,116.342662,"复兴门外大街26号","购物;便利店"
"物资便利店",39.926927,116.343641,"北京市西城区中平10-1","购物;便利店"
"月北顺通百货",39.925235,116.357605,"月坛北街5号楼1门2号月坛公园北门对面西行10米","购物;便利店"
"北京三兴中好食品店",39.928261,116.342904,"北京市西城区阜成门外大街44号","购物;便利店"
"广泽物业商品部",39.896805,116.359543,"北线阁街1号附近","购物;便利店"
"月坛社区便民店",39.923112,116.350182,"三里河一区18号楼附近","购物;便利店"
"纷型薇憷店",39.919888,116.355713,"北京市西城区","购物;便利店"
"宝马祥食品店",39.908558,116.341243,"会城门东路东双贝子坟路路口附近","购物;便利店"
"北京吉成利副食商店",39.917322,116.350156,"三里河东路9号西门附近","购物;便利店"
"四季日夜食品店",39.923865,116.354939,"月坛北街16博华堂平价医药超市(月坛北街店)附近","购物;便利店"
"东湖商店",39.920962,116.330716,"北京市海淀区玉渊潭南路11号","购物;便利店"
"东方宝峰食品店",39.927226,116.355114,"月坛北小街4-1附近","购物;便利店"
"仁荣食品店",39.926244,116.355578,"阜成门外大街13号附近","购物;便利店"
"北京春光阿明食品店",39.913847,116.353004,"北京市西城区二七剧场路东里新4号楼-2","购物"
"便利概念店",39.904888,116.360096,"北京市西城区","购物"
"北京特产(羊坊店东路)",39.907226,116.330132,"羊坊店路(近铁医路)","购物"
"平价超市",39.89778,116.352582,"西城区广安门外新居西里2号西侧","购物"
"蓝星食品店",39.925863,116.352797,"月坛北小街甲7附近","购物"
"果多香",39.907137,116.359623,"西便门外大街10号院1层25门2号","购物"
"秋林・里道斯食品",39.923764,116.348511,"观音寺街道朝阳门街道南小街1933号","购物"
"豪悦轩商贸中心",39.928214,116.359418,"南礼士路36-2附近","购物"
"烟酒百货",39.902162,116.362952,"北京市西城区","购物"
"金斗星商贸",39.925913,116.357612,"月坛北街(武警二院北)","购物"
"广源网络便民超市",39.897694,116.34032,"广安门外大街305号广源小区西区4号楼、6号楼底商一层108","购物"
"华会白云食品店",39.910974,116.350131,"白云路甲2号附近","购物"
"道成阁",39.904922,116.351307,"北京市西城区白云观街10号楼-4","购物"
"金福明食品店",39.90662,116.348116,"白云路西里21号楼北侧50米","购物"
"北京戈征食品店",39.927695,116.359724,"北京市西城区南礼士路甲1号院","购物"
"烟酒经销",39.905098,116.352811,"白云观街5号","购物"
"果之园(白云路店)",39.908961,116.348372,"白云路西里甲12号楼200-3","购物"
"永康食品店",39.905631,116.358036,"西便门东街8号","购物"
"日用百货营养礼品",39.899282,116.359836,"西便门内大街97号楼1楼(广安门医院北侧)","购物"
"日杂百货",39.898985,116.363244,"核桃园东街10号","购物"
"成慧瑾食品店",39.926736,116.360591,"万明园小区十号楼一门004号","购物"
"711便利店(阜成门西北侧店)",39.929616,116.359047,"北京市西城区阜成门外大街乙3号","购物;便利店"
"711便利店(大柳树路店)",39.960341,116.34196,"北京市海淀区大柳树15号院装饰公司办公楼02号一层从南向北数第三间","购物;便利店"
"全时便利店(地铁白石桥南店)",39.940343,116.332937,"首都体育馆路南路16号平房-2号","购物;便利店"
"好邻居便利店(榆树馆店)",39.942825,116.351464,"西直门外南路丙8号底商","购物;便利店"
"快客便利店(三里河店)",39.94027,116.34093,"朝阳庵一号楼一层9-10号","购物;便利店"
"好邻居便利店(阜成路店)",39.929485,116.333438,"阜成路11号院高层学生公寓对面新建平房","购物;便利店"
"好邻居便利店(大慧寺店)",39.957207,116.332227,"魏公村大慧寺路5号","购物;便利店"
"好邻居便利店(白石桥店)",39.950041,116.331945,"中关村南大街48号九龙商务中心C座","购物;便利店"
"晶晶综合商店",39.961135,116.339447,"大柳树路9号院附近","购物;便利店"
"好邻居便利店(百万庄店)",39.934341,116.350189,"北京市西城区展览馆路31-10号","购物;便利店"
"好邻居便利店(北京理工大学店)",39.964289,116.329099,"北京市海淀区中关村南大街7号","购物;便利店"
"好邻居便利店(宇宙红店)",39.931903,116.344208,"百万庄南街10号","购物;便利店"
"全时便利店(北礼士路店)",39.931969,116.359748,"北礼士路149号楼1层(阜成门地铁A口出,阜外心血管病医院东门往北100米)","购物;便利店"
"好邻居便利店(西直门北大街店)",39.95334,116.362409,"西城区北京市海淀区西直门北大街47号院2号楼北侧一层(近学院南路)","购物;便利店"
"兴宇商店",39.953853,116.331363,"中关村南大街36号","购物;便利店"
"好邻居便利店(四道口路二分店)",39.955147,116.355066,"四道口路净土寺32号东区41幢一层北部","购物;便利店"
"好邻居便利店(车西店)",39.937807,116.351356,"展览馆路14-3号","购物;便利店"
"全时便利店(西环广场店)",39.948568,116.359017,"高粱桥路6号5号楼01层A区(T4)01A2、A区(T4)01A3、A区(T4)01A4","购物;便利店"
"好邻居便利店(三里河路店)",39.939434,116.341118,"三里河路34号","购物;便利店"
"康维他(枫蓝国际购物中心)",39.959325,116.362747,"西直门北大街32号F1层","购物;便利店"
"好邻居便利店(交通大学路分店)",39.951798,116.356049,"北下关广通苑小区四号露一层北部","购物;便利店"
"好邻居便利店(学院南路店)",39.963353,116.349436,"海淀区大柳树路2号中国铁道科学院北区2号楼18号(中央财经大学对面)","购物;便利店"
"Happy+乐加魏公村站西南D口便利店",39.962976,116.329536,"北京市海淀区地铁4号线魏公村站西南口站前广场","购物;便利店"
"吉祥便利店",39.934995,116.353497,"百万庄大街乙21附近","购物;便利店"
"朝阳庵小卖部",39.940061,116.340957,"三里河路26号附近","购物;便利店"
"首汽五号站-便利店",39.96407,116.32891,"北京市海淀区中关村南大街","购物;便利店"
"鹏云飞平价商店",39.954175,116.351711,"交大东路31号院-4号楼","购物;便利店"
"Happy+乐加国家图书馆站C口便利店",39.948254,116.332109,"北京市海淀区地铁4号线国家图书馆站东南口站前广场","购物;便利店"
"中宇盛源便利店",39.955332,116.35253,"交通大学路交大嘉园1号院3-4号楼底商(近金绮妍丽美容美体SPA会馆)","购物;便利店"
"乐百氏便利(车公庄店)",39.940228,116.35583,"车公庄大街北里6号楼七号门102号","生活服务;家政服务"
"大熊猫馆-小卖部",39.945597,116.346812,"北京市西城区西直门外大街137号北京动物园熊猫馆内","购物;便利店"
"Happy+乐加国家图书馆站A口便利店",39.949443,116.331448,"北京市海淀区地铁4号线国家图书馆站西北口站前广场","购物;便利店"
"惠购超市",39.964023,116.342041,"北京市海淀区","购物;便利店"
"乐哈福便利超市二里沟分公司",39.932904,116.360228,"北京市西城区北礼士路70-3号","购物;便利店"
"三木便利店NO.33分店",39.950534,116.357729,"交大东路66号院2号楼","购物;便利店"
"北京市二里沟百货文化用品商店机关供应部",39.940933,116.340901,"朝阳庵1号楼-6","购物;便利店"
"大栓食品店",39.931994,116.363638,"阜成门北顺城街附近","购物;便利店"
"北京粮科院招待所商店",39.939873,116.359724,"北礼士路103号楼-6","购物;便利店"
"北京动物园北区-小卖部",39.949435,116.342222,"北京市海淀区西城区西直门外大街137号北京动物园内","购物;便利店"
"职工小卖部",39.940403,116.352733,"北京市西城区","购物;便利店"
"自信强食品店",39.963922,116.346223,"皂君东里30号楼","购物;便利店"
"芳芳食品店(百万庄大街)",39.934008,116.349778,"百万庄东口31号楼1楼10号","购物;便利店"
"老李超市",39.950596,116.361887,"西直门北大街与西直门北大街出口交叉口西100米","购物;便利店"
"易捷便利店(展览馆路店)",39.932758,116.351078,"北京市西城区展览馆路40号(中国石化加油站旁)","购物;便利店"
"久久鸭商店",39.944545,116.354111,"西直门外大街102-4附近","购物;便利店"
"华远・企业号便利店",39.948024,116.353852,"北展北街9地下2层","购物;便利店"
"心雨芳芳食品百货",39.930983,116.343805,"百万庄南街3-7号楼底商(近扣钟胡同)","购物;便利店"
"Happy+乐加魏公村站-B口地铁便利店",39.964251,116.329978,"北京市海淀区地铁4号线魏公村站东北口站前广场","购物;便利店"
"福缘得利便利店",39.958465,116.354165,"北京交通大学东门北","购物;便利店"
"小卖部",39.933437,116.333601,"北京市海淀区","购物;便利店"
"北京动物园西区-小卖部",39.947485,116.34056,"北京市西城区西直门外大街137号北京动物园内","购物;便利店"
"北京金欣悦食品店",39.944278,116.340975,"西城区西直门外大街(近辅路)","购物;便利店"
"久酒商店",39.950664,116.355775,"交大东路41号院1号楼底商","购物;便利店"
"金三角商店",39.945176,116.342683,"北京市西城区西直门外大街137号北京动物园内","购物;便利店"
"皂三副食超市",39.963988,116.343103,"学院南路53附近","购物;便利店"
"北京阜外医心健康科技有限公司商店",39.930129,116.359521,"北礼士路100附近","购物;便利店"
"北京动物园西区-小卖部",39.945605,116.340162,"北京市西城区西直门外大街137号北京动物园内","购物;便利店"
"文兴顺和百货店",39.941349,116.345916,"文兴街2-1号","购物;便利店"
"北京百西午食品店",39.936492,116.345907,"百万庄北街附近","购物;便利店"
"北京福安宁商店",39.951844,116.342394,"北京市海淀区高粱桥斜街甲18号院-4号楼","购物;便利店"
"百乐食品店",39.93406,116.350146,"展览馆路(万庄东口路东)","购物;便利店"
"甬上人家日用百货商店",39.931774,116.363664,"阜成门北顺城街附近","购物;便利店"
"书缘斋食品饮料",39.941346,116.345727,"北京市西城区文兴街2号3","购物;便利店"
"丰登府便利店",39.931893,116.357844,"北营房东里1号楼1层","购物;便利店"
"宝莱通冷饮",39.960871,116.341832,"大柳树13号院2","购物;便利店"
"鑫泰隆冷批(北京青连红食品店)",39.933265,116.34556,"百万庄大街(近图书大厦)","购物;便利店"
"海友天朋商店",39.95548,116.35504,"交通大学路8号附近","购物;便利店"
"北京动物园东区-小卖部",39.948184,116.345897,"北京市西城区西直门外大街137号北京动物园内","购物;便利店"
"都来顺食品店",39.946922,116.354854,"北京市西城区新兴西巷","购物;便利店"
"吉瑞祥福商店",39.964262,116.358067,"学院南路15号学院派1楼(近明光桥)","购物;便利店"
"艺海食品店",39.956902,116.354961,"交大东路36号","购物;便利店"
"北京动物园东区-小卖部",39.948618,116.349131,"北京市西城区西直门外大街137号北京动物园内","购物;便利店"
"昌盛食品店",39.942566,116.355052,"榆树馆西里1号","购物;便利店"
"路泽缘食品店",39.932915,116.349724,"扣钟胡同附近","购物;便利店"
"华文园晓爽食品店",39.937447,116.360307,"车公庄大街2-7号","购物;便利店"
"振春烟酒便利店",39.962936,116.341082,"学院南路66号","购物;商铺"
"LAWSON",39.946761,116.359457,"北京市西城区西直门外大街1号西环广场T31层","购物;超市"
"北京动物园西区-休闲广场",39.948084,116.342412,"北京市西城区西直门外大街137号北京动物园内","休闲娱乐;休闲广场"
"北京动物园-休闲广场",39.944961,116.348524,"北京市西城区西直门外大街137号北京动物园内","休闲娱乐;休闲广场"
"文昆顺鲜果园",39.955781,116.355311,"交大东路12号附近","美食;小吃快餐店"
"后勤集团芳华超市（南门店）",39.954819,116.347194,"西直门外上园村3号北京交通大学","购物"
"日用百货",39.951804,116.362535,"北京市西城区西直门北大街辅路","购物"
"西区便民服务站",39.963873,116.332706,"农科西大道11附近","购物"
"名烟名酒名茶",39.929571,116.330369,"阜成路白堆子社区附近(甘家口海军医院附近)","购物"
"红螺食品(动物园二十店)",39.943481,116.34387,"北京市西城区西直门外大街元沃天地地铁商城B1层","购物"
"711便利店(五道口华清嘉园店)",39.997619,116.343396,"北京市海淀区五道口华清嘉园12号楼5号房首层","购物;便利店"
"711便利店(北三环西路店)",39.972693,116.336419,"北京市海淀区北三环西路甲30号1楼商业用房双天大厦东","购物;便利店"
"711便利店(星规路店)",39.984555,116.344487,"北京市海淀区紫金数码园3号楼1层0103号房","购物;便利店"
"711便利店(中坤广场店)",39.971709,116.348872,"北三环西路23号大钟寺中坤广场(近大钟寺城铁站)","购物;便利店"
"711便利店(城铁知春路站东侧店)",39.982482,116.350013,"北京市海淀区大运村10号楼1楼103号知春路站F出口旁","购物;便利店"
"好邻居便利店(大钟寺东路店)",39.977187,116.34477,"大钟寺东路京仪大厦底商大钟寺东路9号1幢1层101-1","购物;便利店"
"全时便利店(学院派店)",39.96472,116.359244,"学院南路15号院10号楼0103室(近明光桥物美大卖场)","购物;便利店"
"全时便利店(骏马国际店)",39.986416,116.339262,"北京市海淀区中关村南路南1条甲一号骏马国际酒店北门一层103A号","购物;便利店"
"快客便利店(北航店)",39.988526,116.359283,"北京市海淀区学院路(近北京航空航天大学北门)","购物;便利店"
"711便利店(科学院南路)",39.988414,116.331247,"海淀区科学院南路21号","购物;便利店"
"好邻居便利店(皂君庙店)",39.966513,116.343517,"皂君庙14号院一号楼1层101室","购物;便利店"
"好邻居便利店(北四环店)",39.992085,116.338719,"北四环西路11号院","购物;便利店"
"好邻居便利店(科学院南路二店)",39.989806,116.331315,"北京市海淀区中关村新科祥园甲2号楼1层03室","购物;便利店"
"全时便利店",39.973799,116.3576,"北京市海淀区北三环西路7号","购物;便利店"
"好邻居便利店(科南店)",39.984563,116.33136,"海淀区科学院南路55号,中关村中学正对面","购物;便利店"
"好邻居便利店(蓟门里店)",39.976411,116.357497,"蓟门里小区北商业楼1幢号平房","购物;便利店"
"全时便利店(中科资源大厦店)",39.990668,116.334942,"北京市海淀区","购物;便利店"
"华光商厦(皂君庙便利店)",39.965753,116.341866,"皂君东里7号","购物;便利店"
"明光商店",39.971851,116.35518,"北京市海淀区","购物;便利店"
"易捷便利店(中关村东路)",39.996432,116.339295,"中关村东路(清华科技园科技大厦对面)","购物;便利店"
"沃美客便利(中关村东路店)",39.988557,116.340635,"中关村东路中科院中关村小区甲334号楼底商（全新大药房南10米）","购物;便利店"
"昆仑好客(志新路)",39.998846,116.362161,"院路30号北门西侧30米","购物;便利店"
"全时便利店(地铁知春路店)",39.982677,116.349693,"北京市海淀区知春路29号院-9-1","购物;便利店"
"快客便利店(北四环中路辅路)",39.991808,116.351355,"海淀区北航北门外东侧801楼5号","购物;便利店"
"有福来商店",39.969869,116.329851,"双榆树南里二区6","购物;便利店"
"711便利店(保福寺桥东北侧店)",39.993477,116.340431,"北京海淀区中关村东路18号财智国际大厦11-12号商铺","购物;便利店"
"Happy+乐加西土城站D口地铁便利店",39.981145,116.3594,"北京市海淀区地铁10号线西土城站西南口站前广场","购物;便利店"
"全时便利店(满庭芳园店)",39.973686,116.338677,"北三环西路43号满庭芳园东小二楼底商3号","购物;便利店"
"云月商店",39.974478,116.331208,"双榆树西里6号","购物;便利店"
"全时便利店(中电信息大厦店)",39.970402,116.330319,"海淀区中关村南大街六号中电信息大厦一层南门","购物;便利店"
"中国地质大学16楼-421小卖部",39.996337,116.35459,"北京市海淀区学院路29号","购物;便利店"
"北航平价商店",39.984999,116.353759,"北京市海淀区学院路37北京航空航天大学","购物;便利店"
"快客便利店(中关村知识产权促进局西)",39.982962,116.352034,"北京市海淀区知春路25-4号(近丽亭华苑酒店)","购物;便利店"
"萌萌便利店",39.979747,116.349644,"北京市海淀区","购物;便利店"
"双宇文慧商店",39.978995,116.334129,"北京市海淀区北青云路","购物;便利店"
"加百利便利店",39.993982,116.340647,"北京市海淀区中关村东路18号财智国际大厦C座1层","购物;便利店"
"学生便利店",39.97028,116.356918,"北京市海淀区明光东路","购物;便利店"
"Happy+乐加知春路站F1口地铁便利店",39.982674,116.348054,"北京市海淀区地铁10号线知春路站东北口（F1口）站前广场","购物;便利店"
"信泰和商店",39.97215,116.334632,"北三环西路34号青年公寓楼后","购物;便利店"
"Happy+乐加知春里站-D口地铁便利店",39.981884,116.33501,"北京市海淀区地铁10号线知春里站西南口站前广场","购物;便利店"
"旭照食品店",39.977658,116.340112,"中关村东路117-1","购物;便利店"
"知春旅馆-小卖部",39.98188,116.358512,"知春路2号院渝淮居私家菜附近","购物;便利店"
"烟酒茶便利店",39.975832,116.329925,"北京市海淀区","购物;便利店"
"宜强轩商店",39.970789,116.337638,"联想桥","购物;便利店"
"惟惟商店",39.990174,116.349185,"北京市海淀区学院路37号院211号楼","购物;便利店"
"兴隆商店",39.964337,116.356427,"明光东路10号附近","购物;便利店"
"晓月食品店",39.969969,116.330374,"中关村南大街甲10号银海大厦附近","购物;便利店"
"学友小卖部",39.965322,116.35181,"学院南路39号中央财经大学附近","购物;便利店"
"禾谷园社区便民菜店",39.979262,116.335663,"海淀区知春路甲82号商业楼1层东侧","购物;便利店"
"张玖食品商店",39.971303,116.332739,"北三环西路42号附近","购物;便利店"
"百家粼新疆特产",39.969313,116.348204,"四道口路10号附近","购物;便利店"
"后勤集团地大综合商店",39.99774,116.355165,"学院路29号地质大学校内","购物;便利店"
"皂一食品店",39.967546,116.342807,"皂君东里1号楼","购物;便利店"
"丽联兰君商店",39.973077,116.357289,"北京市海淀区北环西路3号","购物;便利店"
"北京运堂旺发商店",39.971752,116.33802,"凯迪双语艺术园附近","购物;便利店"
"芳子忱食品店",39.967279,116.342879,"北下关","购物;便利店"
"好来多便利店",39.980894,116.349167,"知春路36号五道口集贸市场中心门面房126号","购物;便利店"
"易成商店",39.96835,116.345623,"北京市海淀区","购物;便利店"
"北航后勤集团-商贸服务三部",39.991291,116.35381,"北京市海淀区北四环中路辅路附近","购物;超市"
"烟酒茶销售",39.986383,116.341011,"北京市海淀区中关村南四街331号","购物;商铺"
"永益商店",39.972953,116.344128,"大钟寺(近大钟寺公交车站、特价箱包)","购物;商铺"
"昊悦万家",39.966369,116.329717,"中关村南大街乙12号天作国际裙楼中财科技园二层C027室(地铁4号线魏公村站农科院)","购物"
"果香果美会员店No.16",39.988652,116.340479,"海淀区中关村东路(保福寺桥南公交站)","购物"
"朝辉润食品店",39.98883,116.349391,"北京市海淀区学院路37号北航院内","购物"
"日用百货副食店",39.98176,116.345027,"知春路与大钟寺东路交叉口厦门商务会馆旁","购物"
"宏华商店",39.99223,116.334062,"海淀区北四环西路(近保福寺桥)","购物"
"Emely Sweetie(尚客百货店)",39.972414,116.35045,"海淀区北三环西路23号大钟寺中坤广场D座HQ尚客百货(近地铁13号线大钟寺站)","购物"
"IN尚品",39.985499,116.344475,"中关村南四街18号紫金数码园3号楼1楼109(近知春路地铁站)","购物"
"烟酒粮油食品",39.967112,116.351269,"北京市海淀区","购物"
"纪元商店",39.970773,116.34588,"四道口路东50米","购物"
"青塔奶站",39.968767,116.34724,"皂君庙路乙4号","购物"
"长新德食品店",39.985062,116.350964,"北京市海淀区学院路37号","购物"
"晓月食品店",39.969976,116.330972,"双榆树南里二区6号附近(近华宇购物中心)","购物"
"优特全食品店",39.988772,116.347685,"北京市海淀区学院路37号北京兴航福利印刷厂附近","购物"
"711便利店(五道口店)",39.999686,116.339078,"北京市海淀区中关村东路1号清华科技园9号楼搜狐网络大厦1层底商","购物;便利店"
"711便利店(双清路店)",40.001902,116.341323,"北京市海淀区双清路88号华源世纪商务楼近清华东门","购物;便利店"
"好邻居便利店(车西店)",40.016587,116.358205,"学清路23号院东侧平房4号房间","购物;便利店"
"清华大学南楼-商店",40.002063,116.334896,"北京市海淀区双清路30号清华大学洁华幼儿园附近清华大学南楼内","购物;便利店"
"清东商店",40.00276,116.34201,"海淀区双清路西王庄小区综合服务楼","购物;便利店"
"好邻居便利店(朱房路分店)",40.033479,116.341819,"朱房路临66号楼3栋10号","购物;便利店"
"快客便利店(学清路店)",40.010109,116.359646,"清华东路17号西门附近","购物;便利店"
"北京海旭商贸中心",40.005912,116.352122,"东王庄10","购物;便利店"
"利捷便利超市",40.01986,116.357452,"学清路附近","购物;便利店"
"清华大学-小卖部",40.013549,116.334091,"北京市海淀区清华大学内","购物;便利店"
"24便利店",40.005843,116.360208,"北京市海淀区","购物;便利店"
"丰园商店",40.00329,116.354233,"北京市海淀区","购物;便利店"
"24小时便利店",40.005747,116.360184,"学院路富润家园内","购物;便利店"
"水果蔬菜便利店",40.017515,116.357164,"北京市海淀区学清路21号城华园小区6号楼","购物;便利店"
"乐购天天",40.02976,116.353668,"山西面食馆附近","购物;便利店"
"易捷便利店(东王庄社区卫生服务站东北)",40.00683,116.353984,"北京市海淀区清华东路35-1","购物;便利店"
"易捷便利店(城华园东南)",40.016639,116.358455,"城华园南门","购物;便利店"
"全天便利（学清路店）",40.010012,116.358727,"学清路37号静淑东里1号楼底商","购物;便利店"
"清华大学-小卖部",40.014475,116.333121,"北京市海淀区清华大学内","购物;便利店"
"好帮手蔬果便利",40.013822,116.354568,"林业大学北路11-2附近","购物;便利店"
"澜园冷饮批发",40.005589,116.332586,"北京市海淀区双清路30号清华大学","购物;便利店"
"语言大学第三食堂小卖部",40.00124,116.348361,"学院路15号语言大学家属区","购物;便利店"
"悦天便利店NO.2",40.008856,116.355897,"北京市海淀区六道口静淑苑路翰澜庭2号115","购物;便利店"
"水果冷饮平价店",40.01378,116.330213,"北京市海淀区清华大学二十号楼附近","购物;便利店"
"双林盛便利店",40.014551,116.354961,"北京市海淀区","购物;便利店"
"艳红顺百货店",40.021163,116.357157,"学清路马家沟103号","购物;便利店"
"意和食品店",40.007287,116.355725,"清华东路27号院","购物;便利店"
"社区便民店",40.013173,116.362265,"北京市海淀区清华东路17号中国农业大学东校区内","购物;便利店"
"德鑫长河苑",40.002061,116.334985,"北京市海淀区双清路30号清华大学","购物;便利店"
"老乡喜爱来百货店",40.033542,116.342879,"北京市海淀区朱房路","购物;便利店"
"芙蓉兴盛便利超市(朔朔便利店)",40.03226,116.335237,"朱房南街6号附近","购物;便利店"
"北京明信聚友日用品店",40.012697,116.353073,"北京市海淀区林业大学北路18号院1号楼1层0105号","购物;便利店"
"康艺海便利店",40.010175,116.358782,"静淑东里1号楼1层1号","购物;便利店"
"汇而惠便利店",40.017955,116.358226,"城华园1之3-4","购物;便利店"
"军嫂便利店",40.03372,116.344476,"北京市海淀区朱房路","购物;便利店"
"逸尘商店",40.031007,116.35515,"清河南大街11临附近","购物;便利店"
"照澜院-百货东店",40.005285,116.331912,"北京市海淀区照澜院内","购物"
"k-mart(西郊宾馆店)",40.003194,116.350315,"王庄路18号西郊宾馆8楼2楼(近五道口城铁)","购物"
"存车处便民店",40.011263,116.36142,"北京市海淀区","购物"
"首汽加油站-便利店",39.84048,116.385878,"马家堡路198号附近","购物;便利店"
"好邻居便利店(草桥欣园店)",39.85212,116.36493,"草桥欣园一区5号楼草桥综合楼底商","购物;便利店"
"全时便利店(公益西桥店)",39.843686,116.376862,"马家堡西路星河苑2号院18号楼底商04","购物;便利店"
"快客便利店(马家堡店)",39.858645,116.392925,"马家堡东路71号","购物;便利店"
"快客便利店(洋桥店)",39.857429,116.393647,"北京市丰台区角门北路甲81层","购物;便利店"
"易捷便利店(南苑西路)",39.824677,116.366394,"南苑西路55号附近","购物;便利店"
"Happy+乐加马家堡站-C口地铁便利店",39.858388,116.378119,"北京市丰台区地铁4号线马家堡站东南口站前广场","购物;便利店"
"汇隆便利店",39.85318,116.381093,"马家堡晨新园附近","购物;便利店"
"勤家便利(角门2店)",39.853399,116.381257,"马家堡西路马家堡角门西里13号乙1号","购物;便利店"
"易捷便利店(月桂树酒店东北)",39.848833,116.394194,"丰台区大红门(月桂树酒店东北)","购物;便利店"
"金都都便利店",39.855464,116.369315,"北甲地路6号院-5号楼","购物;便利店"
"1+1便利店(No.17463店)",39.846963,116.377712,"马家堡西路26号附近","购物;便利店"
"兴隆百货店",39.84843,116.385414,"北京市丰台区马家堡路67号附近","购物;便利店"
"Happy+乐加公益西桥站C口地铁便利店",39.841886,116.377499,"北京市丰台区地铁4号线公益西桥站东南口站前广场","购物;便利店"
"瑞羽便民日购",39.857063,116.39496,"海户西里34号","购物;便利店"
"爱家士多台湾食品便利店",39.857545,116.393067,"北京市丰台区","购物;便利店"
"永红卷烟冷批",39.853324,116.392723,"北京市丰台区马家堡东路85号(角门东里小区12号楼)","购物;便利店"
"嘉鑫便利店",39.858924,116.389374,"北京市丰台区","购物;便利店"
"烟酒便利店",39.839331,116.375763,"北京市丰台区马家堡西路城南大道商务中心1层","购物;便利店"
"勤家便利(角门005店)",39.856136,116.382799,"角门北路16-6","购物;超市"
"来伊份(北京华联马家堡西路店)",39.840373,116.37569,"城南嘉园益城园14号楼，华联公益西桥店三层F3-17（马家堡西路近南四环中路）","美食;中餐厅"
"嘿客e网打尽(No.02143店)",39.851656,116.384532,"北京市丰台区","购物"
"幸福生活便利超市",39.854154,116.392608,"北京市丰台区","购物"
"圣野蜂王浆",39.855939,116.365984,"草桥东路5号(近易初莲花)","购物"
"烟酒茶超市",39.856871,116.379641,"丰台区南三环西路6号(南三环西路辅路)","购物"
"日用百货",39.851515,116.384,"丰台区镇国寺北街","购物"
"便民坊",39.85623,116.387369,"北京市丰台区角门北路甲８北京市鑫华鑫星商场1层","购物"
"王帅陆海空经营部",39.85744,116.386622,"北京市丰台区马家堡路","购物"
"全家便利店(开阳路二店)",39.872123,116.384122,"北京市丰台区","购物;便利店"
"711便利店(里仁街店)",39.88173,116.379454,"育新街47号清芷园12号楼一层009号","购物;便利店"
"好邻居便利店(永安路店)",39.892296,116.394151,"北京市西城区永安路104-1号","购物;便利店"
"虎坊路百货",39.889792,116.392137,"西城区北纬路81号(近太平街口)","购物;超市"
"罗森便利店(永定门中海地产广场店)",39.876649,116.395377,"永定门西滨河路中海地产1楼商户(陶然亭公园向南)","购物;便利店"
"罗森便利店(陶然亭店)",39.887179,116.381351,"菜市口大街59号","购物;便利店"
"仁和金鑫隆便利店",39.887216,116.398417,"南纬路31号院西门附近","购物;便利店"
"便利店",39.893221,116.366956,"北京市西城区白广路6号-63号楼-1层","购物;便利店"
"福乐氏（天桥店）",39.886796,116.3972,"南纬路36号","购物;便利店"
"北京便民店",39.893756,116.369761,"牛街1-2号","购物;便利店"
"阳澄湖大闸蟹(马家堡西路店)",39.85951,116.378299,"丰台区马家堡西里31号楼底商(4号地铁马家堡站A口正对面)","购物;便利店"
"八通食品饮料配送",39.861063,116.39593,"西罗园南里24号附近","购物;便利店"
"便利店",39.874494,116.369751,"丰台区右安门外大街西头条2-5号(右安门桥西南角)","购物;便利店"
"西城区菜篮子工程便民店",39.888937,116.366415,"白广路与枣林前街交叉口","购物;便利店"
"港佳好邻居便利店(永定路店)",39.892402,116.393696,"宣武区永安路104号","购物;便利店"
"齐乐便利店",39.885148,116.370089,"右安门内大街39附近","购物;便利店"
"迪亚天天（翠林店）",39.864393,116.372668,"右安门外翠林小区3里8号1楼","购物;便利店"
"Happy+乐加陶然亭站C口地铁便利店",39.884294,116.381264,"北京市西城区地铁4号线陶然亭站东南口站前广场","购物;便利店"
"玉鑫食品便利店",39.873544,116.363853,"右安门外玉林里4号","购物;便利店"
"惠民便利店(右安门内大街)",39.888804,116.37109,"京鲁伊宾馆附近","购物;便利店"
"京城御食坊便利店",39.870635,116.384847,"永定门外大街北京南站2层","美食;蛋糕甜品店"
"Happy+乐加马家堡站-B口地铁便利店",39.860076,116.378307,"北京市丰台区地铁4号线马家堡站东北口站前广场","购物;便利店"
"北京城南安会副食综合商店",39.881463,116.374445,"半步桥街4之6-7号","购物;便利店"
"优选便利店",39.860668,116.374546,"南三环西路16号搜宝商务中心2号楼102室(近首地大峡谷)","购物;便利店"
"烟酒销售美欣怡便利店",39.882036,116.380344,"里仁街","购物;便利店"
"北京佳缘胜利食品店",39.894134,116.36427,"南马道17附近","购物;便利店"
"优尚乐选商店",39.878729,116.366439,"右安门内西街丙6号","购物;便利店"
"龙翔便利店",39.870155,116.386667,"永定门外大街北京南站地下1层","购物;便利店"
"喜洋洋便民店",39.869921,116.377347,"北京市丰台区","购物;便利店"
"金兰食品店",39.880481,116.369676,"右安西里1号楼","购物;便利店"
"陶然亭公园-商店",39.882206,116.390219,"北京市西城区太平街19号陶然亭公园内","购物;便利店"
"北京大观园-小卖部",39.878252,116.364129,"北京市西城区南菜园街12号北京大观园内","购物;便利店"
"燕君商店",39.892564,116.371314,"牛街输入胡同16号","购物;便利店"
"北京叉车一分厂劳动服务公司副食品综合商店",39.871052,116.369022,"北京市丰台区","购物;便利店"
"U加便利店",39.871838,116.379106,"北京市丰台区","购物;便利店"
"开阳里便利店",39.869582,116.376844,"北京市丰台区","购物;便利店"
"朗硕食品店",39.883858,116.374479,"光源利五巷与半步桥街口东南角","购物;便利店"
"传芳食品店",39.883537,116.374433,"半步桥街半步桥胡同路口附近","购物;便利店"
"缘来顺商店",39.884126,116.374433,"白纸坊东街半步桥街路口附近","购物;便利店"
"一家店(正信通店)",39.870293,116.368083,"右外西三条附近","购物;便利店"
"北京市春来商贸中心",39.888011,116.365401,"白广路甲27-1号附近","购物;便利店"
"张三宝百货",39.883563,116.374454,"半步桥街鑫达好五金建材对面","购物;便利店"
"浩瀚太平食品店",39.893508,116.374534,"法源寺西里教子胡同内","购物;便利店"
"便利店",39.885417,116.392228,"陶然亭路童趣屋旁","购物;便利店"
"桂馨斋便利店",39.889123,116.378135,"北京市西城区","购物;便利店"
"永鑫商店",39.8752,116.385097,"丰台区幸福三巷","购物;便利店"
"陶然亭公园-小卖部",39.883231,116.387785,"北京市西城区太平街19号陶然亭公园内","购物;便利店"
"盛源批发超市配送",39.861214,116.395861,"西罗园南里24号附近","购物;便利店"
"腾龙商店",39.869375,116.371337,"右安门外大街22-13","购物;便利店"
"天源便利店",39.867964,116.396032,"丰台区西罗园四区21号楼","购物;便利店"
"陶然亭公园-小卖部",39.878046,116.387291,"北京市西城区太平街19号陶然亭公园内","购物;便利店"
"立辰食品店",39.86001,116.365976,"北甲地路2号","购物;便利店"
"便利店",39.870466,116.385835,"永定门外大街北京南站2层","购物;便利店"
"汇智光华便利店",39.870155,116.386667,"永定门外大街北京南站地下1层","购物;便利店"
"红运食品店",39.865187,116.384968,"洋桥西里(西南门)附近","购物;便利店"
"陶然亭公园-小卖部",39.882235,116.390085,"北京市西城区太平街19号陶然亭公园内","购物;便利店"
"迪佳超市",39.871679,116.395082,"西革新里112-2","购物"
"右安门街道社区服务中心玉林西里分中心",39.869238,116.365792,"北京市丰台区右安门外玉林里小区37号楼(近玉林里38号楼)","政府机构;行政单位"
"世纪金点",39.870635,116.384847,"永定门外大街北京南站2层","购物"
"平价日用百货",39.889948,116.395473,"北纬路53号","购物"
"白路饮料食品店",39.886965,116.365283,"白广路31号附近","美食;小吃快餐店"
"诚海便民店",39.871465,116.373386,"丰台区开阳里二区5号楼(近开阳里三街)","美食;小吃快餐店"
"哈密巴扎",39.892414,116.373283,"西城区牛街东里清真牛羊肉市场对面","购物"
"宏霞日杂店",39.880318,116.374114,"北京市西城区","购物"
"日用百货陶然亭店",39.88706,116.390753,"南华里2","购物"
"2元起百货超市",39.870456,116.393857,"北京市丰台区马家堡东路","购物"
"昆仑好客",39.859798,116.364564,"中顶村654号","购物"
"2元起日用百货超市",39.87626,116.383824,"北京市丰台区右安门东滨河路辅路","购物"
"金辇酒店购物中心",39.864107,116.389529,"洋桥西里甲1号山西大厦A座1层","购物"
"云龙轩烟酒茶便利店",39.864517,116.384964,"海淀区南三环西路辅路(万利来宾馆东北)","购物"
"烟酒食品店",39.876595,116.38791,"北京市东城区","购物"
"纳风轩",39.883876,116.387988,"北京市西城区太平街19号陶然亭公园内","购物"
"便民商亭",39.866857,116.393047,"马家堡东路29-2","购物"
"洗衣百货",39.892612,116.374338,"输入胡同东口东50米","购物"
"兴旺食品店",39.893668,116.397457,"仁民路21号(仁民路国管局宿舍西南)","购物"
"京袁超市",39.894283,116.369305,"北京市西城区广安门内大街202-18","购物"
"好邻居便利店(二龙路店)",39.916003,116.373219,"北京市西城区二龙路甲41号","购物;便利店"
"罗森(金融街店)",39.922749,116.368882,"西城区金城坊街9号商业02地下一层","购物;便利店"
"好邻居便利店(辟才店)",39.920235,116.377521,"北京市西城区辟才胡同56号","购物;便利店"
"云南商店(大栅栏店)",39.904542,116.374971,"北京市宣武门西大街后八楼1层","购物;商铺"
"快客便利店(顺德楼北)",39.904196,116.370221,"西城区长椿街东里25号楼一层","购物;便利店"
"快客便利店(丰融国际店)",39.922857,116.371732,"西城区太平桥大街18号丰融国际大厦B1楼B108号","购物;便利店"
"吉祥洋洋超市",39.920695,116.372064,"二龙路","购物;便利店"
"好邻居便利店(民丰店)",39.926425,116.364425,"西城区金融街英蓝国际大厦地下1层","购物;便利店"
"好邻居便利店(灵境店)",39.92088,116.385751,"灵境胡同1-6","购物;便利店"
"好邻居便利店(西四东店)",39.928421,116.380991,"西安门大街甲150号","购物;便利店"
"快客便利店(no.8343)",39.921659,116.397599,"北长街127","购物;便利店"
"Happy+乐加西四站A口地铁便利店",39.895859,116.380578,"北京市西城区地铁4号线西四站西北口站前广场","购物;便利店"
"SWEQ(西单新一代商城)",39.917562,116.38187,"堂子胡同9号F5层","购物;便利店"
"天成益民便利店",39.929028,116.375242,"北京市西城区羊肉胡同31","购物;便利店"
"一家店(驿龙盛平店)",39.928816,116.37241,"北京市西城区太平桥大街戊4","购物;便利店"
"椿树三月百货商店",39.898827,116.381533,"西草厂街乙80附近","购物;便利店"
"东绒线胡同百货店",39.910518,116.390842,"西城区东绒线胡同乙84号","购物;便利店"
"培旺欣源食品店",39.909683,116.370445,"新文化街169号附近","购物;便利店"
"好邻居便利店(皇城根店)",39.923541,116.383903,"北京市西城区西黄城根南街45号8","购物;便利店"
"良森食品店",39.899297,116.371951,"下斜街59号楼底商(宣武医院东门北侧)","购物;便利店"
"好邻居便利店(长椿街店)",39.906863,116.374893,"佟麟阁路91号","购物;便利店"
"风顺精益蔬菜店",39.90972,116.37427,"北京市西城区新文化街戊50号","购物;便利店"
"门加油站便利店",39.90538,116.379681,"宣武门西大街2号楼东","购物;便利店"
"祥和日用百货",39.92468,116.380616,"北京市西城区大酱坊胡同西口","购物;便利店"
"金紫燕食品店",39.923763,116.379945,"北京市西城区西单北大街19号","购物;便利店"
"易捷便利店(宣武门店)",39.905896,116.385267,"宣武门东大街16号","购物;便利店"
"Happy+乐加菜市口站C口地铁便利店",39.894883,116.381226,"北京市西城区地铁4号线菜市口站东南口站前广场","购物;便利店"
"陕西巷诚信批发部",39.897943,116.396298,"陕西巷88号","购物;便利店"
"草帽人便利店",39.90904,116.384925,"新壁街19-1","购物;便利店"
"北京美英兴旺商店",39.911227,116.366666,"北京市西城区","购物;便利店"
"梦琳便利店",39.895196,116.396387,"大保吉巷临时36-2","购物;便利店"
"好邻居便利店(第二十一分店)",39.910357,116.39084,"北新华街88号","购物;便利店"
"佳静然食品店",39.912029,116.375022,"北京市西城区佟麟阁路甲28号","购物;便利店"
"辟才便民商场华艺伦店",39.915739,116.373701,"北京市西城区京畿道5-2号","购物;便利店"
"Happy+乐加宣武门站E口地铁便利店",39.906577,116.380412,"北京市宣武区地铁4号线宣武门站西北口站前广场","购物;便利店"
"宣武艺园便利店",39.901861,116.36588,"槐柏树街乙9附近","购物;便利店"
"永利食品店",39.924828,116.380563,"大酱坊胡同甲26附近","购物;便利店"
"椿树惠民商店",39.898921,116.386187,"西草厂街16-1号","购物;便利店"
"旭才食品店",39.925447,116.378969,"北京市西城区","购物;便利店"
"欣欣志成商贸中心",39.916076,116.384293,"西城区钟声胡同甲11号","购物;便利店"
"便利店",39.928628,116.386735,"北京市西城区","购物;便利店"
"宏图行商店",39.900933,116.398605,"北京市西城区大栅栏西街74号","购物;便利店"
"易捷便利店(太平桥大街)",39.918256,116.369363,"西城区太平桥大街113号","购物;便利店"
"春鹏红艺食品店",39.916407,116.384193,"钟声胡同3号","购物;便利店"
"棕榈食品店",39.91636,116.373112,"北京市西城区二龙路41号","购物;便利店"
"瑞达瑞商店",39.909194,116.372979,"东太平街22号附近","购物;便利店"
"联茂小卖部",39.89827,116.396414,"北京市西城区陕西巷46号","购物;便利店"
"北海公园-小卖部",39.929279,116.396417,"北京市西城区文津街1号(故宫北)北海公园内","购物;便利店"
"街邻食品店",39.922473,116.380635,"小酱坊胡同31号对面","购物;便利店"
"春海龙食品店",39.92661,116.387362,"北京市西城区光明胡同","购物;便利店"
"青梅食品商店",39.899211,116.376314,"老墙根街67号","购物;便利店"
"银海腾龙食品店",39.910936,116.371437,"文华胡同49号附近","购物;便利店"
"鑫悦食品店",39.900246,116.371581,"感化胡同3号楼底商","购物;便利店"
"田振平百货店",39.928206,116.380168,"北京市西城区西安门大街158号","购物;便利店"
"美华思佳百货",39.898844,116.386851,"北京市西城区魏染胡同","购物;便利店"
"宝塔福源食品店",39.928464,116.379251,"北京市西城区","购物;便利店"
"懿德丰缘超市",39.898727,116.393415,"铁树斜街105号附近","购物;便利店"
"永久食品店",39.895878,116.366334,"北京市西城区报国寺南街10号","购物;便利店"
"福万家便利店",39.924792,116.37579,"北京市西城区丰盛胡同27号","购物;便利店"
"团城-小卖部",39.928856,116.395387,"北京市西城区文津街1号(故宫北)北海公园团城内","购物;便利店"
"三棵槐食品",39.917569,116.383168,"北京市西城区力学胡同甲51号","购物;便利店"
"家乐食品店",39.909034,116.375129,"北京市西城区佟麟阁路甲46号","购物;便利店"
"新升便民店",39.922445,116.378003,"西斜街55号附近","购物;便利店"
"长顺来食品店",39.90419,116.37039,"长椿街甲2附近","购物;便利店"
"乐美园百货店",39.898873,116.386617,"北京市西城区西草厂街","购物;便利店"
"匡京食品店",39.905995,116.371198,"宣武门西大街117楼下","购物;便利店"
"安同乐食品店",39.926346,116.397277,"北长街43号","购物;便利店"
"同乐食品店",39.908253,116.39488,"北京市西城区西交民巷92号","购物;便利店"
"平价商店",39.897724,116.396228,"高家寨胡同3号(福州馆小学南)","购物;便利店"
"山峰得明食品店",39.929235,116.366864,"北京市西城区阜成门内大街356号","购物;便利店"
"彭彭食品店",39.925974,116.387416,"北京市西城区光明胡同","购物;便利店"
"全升宝食品店",39.905204,116.392701,"北京市西城区","购物;超市"
"北京市西城区星雅百货店",39.910185,116.379085,"新文化街23号附近","购物;商铺"
"国信水专卖店康泰高科饮品第三十二便利店",39.906175,116.396475,"前门西大街2","生活服务;家政服务"
"超",39.910595,116.394006,"东绒线胡同54号","购物"
"日用百货",39.929194,116.366853,"宫门口东岔13号","购物"
"日用百货",39.924756,116.378318,"北京市西城区","购物"
"全士和超市沙土园店",39.900263,116.39172,"南新华街小沙土园14号(近老浒记)","购物"
"巧工坊",39.90483,116.370476,"国华商场1楼(近京城黄金第一家)","购物"
"诚欣悦食品店",39.918564,116.382372,"北京市西城区","购物"
"紫薇麒轩超市",39.923451,116.380022,"西单北大街丙31","购物"
"穆清清真食品店",39.895595,116.377922,"广安门内大街53号","购物"
"平价超市",39.911907,116.386643,"北京市西城区","购物"
"幸福百货",39.909772,116.36732,"展览路街道复兴门地铁站C口新文化街213号","购物"
"木派客",39.923551,116.372997,"北京市西城区","购物"
"晨亮超市NO.C010-1303-122",39.896666,116.396395,"北京市西城区","购物"
"Emely Sweetie(君太店)",39.915738,116.379446,"西单北大街133号君太百货内","购物"
"隆兴泰来百货店",39.910421,116.38476,"西城区西绒线胡同甲41号","购物"
"芳林食品店",39.90028,116.391459,"北京市西城区小沙土园胡同22号","购物"
"文宇百货",39.895926,116.370421,"长椿街58-2号(宣武医院东侧)","购物"
"北京雅致文苑工艺品",39.900577,116.397587,"大栅栏西街108","购物"
"昌厚德食品店",39.899486,116.394837,"铁树斜街81号","购物"
"泰丰楼名酒名茶饮料超市",39.906185,116.397742,"前门西大街2号楼秦丰楼旁","购物"
"延寿福百货店",39.902183,116.39591,"北京市西城区延寿街118号","购物"
"宏汇强公司-百货经营部",39.921079,116.377026,"北京市西城区宏汇园小区8号楼","购物"
"顺可意食品店",39.898532,116.386995,"前孙公园胡同108号","购物"
"711便利店(平安里西大街店)",39.9375,116.364035,"平安里西大街28号中海国际中心1层(星巴克咖啡中海国际大厦店)","购物;便利店"
"好邻居便利店(冠英园店)",39.946307,116.37224,"西直门内大街132号乙(西直门天主教堂)","购物;便利店"
"北海东门食品部",39.932287,116.397378,"北京市西城区文津街1号(故宫北)北海公园内","购物;便利店"
"好邻居便利店(西什库店)",39.934161,116.386685,"西什库大街24号","购物;便利店"
"好邻居便利店(新德东店)",39.963791,116.384398,"德外德胜里一区14号楼德胜园区","购物;便利店"
"全时便利店(安德路)",39.957782,116.387838,"安德路与林家胡同交叉口西北50米","购物;便利店"
"快客便利店(西四北大街)",39.932185,116.379576,"北京市西城区阜成门内大街63号","购物;便利店"
"军人服务社",39.962414,116.378026,"新街口外大街16-6附近","购物;便利店"
"好邻居便利店(丰盛店)",39.94081,116.379533,"北京市西城区西四南大街111号","购物;便利店"
"好邻居便利店(文慧园店)",39.958266,116.370341,"文慧园路10号","购物;便利店"
"好邻居便利店(德内大街店)",39.954026,116.386677,"德胜门内大街6号","购物;便利店"
"北京人家商品部",39.951884,116.383123,"北京市西城区西海南沿45号","购物;便利店"
"快客便利店(西直门南大街)",39.945335,116.363843,"北京市西城区西直门南大街2号成铭大厦C座1层","购物;便利店"
"38便利店",39.941517,116.387776,"北京市西城区定阜街26号","购物;便利店"
"好邻居便利店(学院南路二分店)",39.963696,116.372503,"学院南路1号楼1层(市容监督所东侧)","购物;便利店"
"好邻居便利店(白云里店)",39.934198,116.373098,"白云里丙1号","购物;便利店"
"好邻居便利店(文慧园西路店)",39.956993,116.365348,"北京市海淀区文慧园西路30-2号","购物;便利店"
"东福寿食品店",39.940814,116.391051,"东福寿里1号附近","购物;便利店"
"全时便利店(新街口外大街店)",39.960186,116.378228,"新街口外大街28号4幢（德胜园区）","购物;便利店"
"好邻居便利店(新街口东街店)",39.952866,116.378974,"新街口北大街A18号","购物;便利店"
"燕春合食品店",39.943438,116.382683,"棉花胡同甲71附近","购物;便利店"
"好邻居便利店(德胜门店)",39.950297,116.39507,"鼓楼西大街249号","购物;便利店"
"好邻居便利店(新街口南大街店)",39.944226,116.379475,"新街口南大街48号","购物;便利店"
"好邻居便利店(半壁街店)",39.943645,116.36514,"葱店胡同2号院1号楼","购物;便利店"
"好邻居便利店(西四店)",39.929878,116.380643,"西四北大街158号","购物;便利店"
"好邻居便利店(赵登禹店)",39.934596,116.374053,"北京市西城区赵登禹路148","购物;便利店"
"金华胜便利店",39.93938,116.387008,"地安门西大街甲147","购物;便利店"
"全时便利店(文慧桥店)",39.957666,116.363755,"文慧园路29号","购物;便利店"
"好邻居便利店(西四北大街店)",39.932438,116.37996,"西四北大街5号平房","购物;便利店"
"立昂商店",39.963633,116.373247,"学院南路8-2号","购物;便利店"
"好邻居便利店(德内北店)",39.944097,116.386254,"德内大街232号","购物;便利店"
"好邻居便利店(小西天店)",39.961564,116.378532,"新街口外大街甲18-5号万方商厦4层","购物;便利店"
"鲁博食品店",39.930647,116.365175,"阜成门内北街5号","购物;便利店"
"好邻居便利店(官园店)",39.937974,116.366815,"官园南里三区1-1号","购物;便利店"
"北京市德美联食品店",39.950848,116.394279,"鼓楼西大街甲109附近","购物;便利店"
"三条便利店",39.933674,116.37573,"西四北三条甲30号","购物;便利店"
"京都海源便利店",39.939126,116.390191,"爱民街丙2","购物;便利店"
"快客便利店(冰窖口胡同)",39.955818,116.378778,"西城区北京市西城区冰窖口胡同8号院（新海苑小区西门）(积水潭地铁站A出口)","购物;便利店"
"好邻居便利店(德胜门内大街店)",39.948315,116.385419,"北京市西城区德胜门内大街169号","购物;便利店"
"金耀路牛羊肉鼓楼店",39.949464,116.395609,"北京西城区鼓楼西大街112号(三元牛奶公司对面)","购物;便利店"
"护中副食商店",39.941464,116.383096,"护国寺小吃街内(近鱼肉馅饺子)","购物;便利店"
"前海椿福便利店",39.942043,116.395751,"前海西街甲5附近","购物;便利店"
"平价商店",39.94117,116.382425,"四根柏胡同19号27号(赵登禹路)","购物;便利店"
"6号便利店",39.94655,116.37929,"什刹海街道新街口南大街6号","购物;便利店"
"幸福满天食品店",39.94223,116.375083,"赵登禹路56号","购物;便利店"
"别一家便利店",39.953429,116.367339,"文慧园西路与滨河路交叉口旁(太平湖菜市场旁)","购物;便利店"
"北京丹龙龙小卖部",39.952243,116.39843,"小石桥胡同12号附近","购物;便利店"
"鹤逸慈老年生活便利店(西直门店)",39.940437,116.365152,"西直门南小街国英园7号楼7-2底商","购物;便利店"
"玉辉新德便利店(NO.02)",39.964146,116.389791,"德外五路通街甲6号","购物;便利店"
"辉煌天宝便民店",39.942222,116.370751,"南草厂街72号","购物;便利店"
"清莲元吉食品店",39.940352,116.395933,"前海西街甲14号","购物;便利店"
"Happy+乐加新街口站A口地铁便利店",39.94705,116.373285,"北京市西城区地铁4号线新街口西北口站前广场","购物;便利店"
"超越发便利店",39.957507,116.390829,"德胜门外安德路122号楼","购物;便利店"
"好邻居便利店(德胜门店)",39.957477,116.390637,"德外安德路122号14号","购物;便利店"
"晶艺食品店",39.944585,116.370439,"西城区前半壁街1-6号","购物;便利店"
"皮鞋店华远杰旺商店",39.947791,116.382746,"四环胡同与罗儿胡同交叉口东50米","购物;便利店"
"北京伟毅望海食品店",39.949534,116.39384,"甘露胡同2号附近","购物;便利店"
"北京银海运综合商店",39.946499,116.390828,"柳荫街乙2","购物;便利店"
"诚成隆昌食品店",39.945682,116.379755,"北京市西城区正觉胡同甲20号附近","购物;商铺"
"易捷便利店(地安门西大街)",39.93914,116.3929,"地安门西大街教场口胡同26号","购物;便利店"
"云翔翔便利店",39.935316,116.374194,"赵登禹路甲138","购物;便利店"
"财福食品店",39.936295,116.388217,"爱民街33号","购物;便利店"
"便利店",39.937241,116.377001,"北京市西城区","购物;便利店"
"西天梵境-小卖部",39.938348,116.394467,"北京市西城区文津街1号(故宫北)北海公园西天梵境内","购物;便利店"
"易捷便利店(全国工商联办公楼北)",39.953219,116.375276,"德胜门西大街甲68号","购物;便利店"
"移动便利店",39.94777,116.370541,"如意里12号楼","购物;便利店"
"伊美欧食品店",39.940202,116.379584,"群力胡同乙23附近","购物;便利店"
"中影丽君商店",39.95981,116.3777,"新街口外大街25-20","购物;便利店"
"柳荫艺苑百货店",39.942616,116.39189,"北京市西城区柳荫街甲26号附近","购物;便利店"
"兴隆润发便利店",39.948759,116.383342,"水车胡同丙26号附近","购物;便利店"
"北岸食品部",39.938366,116.395339,"北京市西城区文津街1号(故宫北)北海公园内","购物;便利店"
"永顺成食品店",39.943993,116.379096,"新街口南大街甲67号","购物;便利店"
"滨海食品店",39.951523,116.387182,"德胜门内大街滨海胡同内","购物;便利店"
"德顺兴红百货",39.946923,116.38288,"北京市西城区四环胡同","购物;便利店"
"银花火树食品店",39.937315,116.379018,"西四北八条丙4号","购物;便利店"
"北门工艺食品部",39.939555,116.398492,"地安门西大街北海公园北门口东侧","购物;便利店"
"桃园欢乐食品店",39.947558,116.368796,"玉桃园三区12号","购物;便利店"
"永久食品店",39.952462,116.390966,"八步口胡同10号附近","购物;便利店"
"云程祥日用杂品",39.931991,116.37219,"苏罗卜胡同2号","购物;便利店"
"北京张思佳食品店",39.957731,116.388918,"安德路街道(办事处130号楼北侧)","购物;便利店"
"日福兴百货商店",39.933818,116.367951,"北京市西城区西廊下胡同53号附近","购物;便利店"
"万康食品店",39.956961,116.370503,"文慧园南路18号","购物;便利店"
"惠友食品店",39.940222,116.395868,"前海西街甲8号","购物;便利店"
"奥彩食品店",39.941135,116.392471,"龙头井街18号附近","购物;便利店"
"帅府兴源便利店",39.932508,116.378632,"西四北二条5号","购物;便利店"
"北京嘉勤玉铭食品店",39.959245,116.394005,"六铺炕二区18号","购物;便利店"
"健安美超市便利店",39.93955,116.39049,"地安门西大街甲123号","购物;便利店"
"超越发便利店",39.957477,116.390637,"北京市西城区","购物;便利店"
"东岸食品",39.933922,116.398123,"北京市西城区文津街1号(故宫北)北海公园内","购物;便利店"
"吉祥如意食品店",39.944349,116.390951,"柳荫街23号","购物;便利店"
"草原厨房二龙屯有机食品专营",39.951011,116.371759,"后英房胡同5号附近","购物;便利店"
"琼华岛-小卖部",39.932185,116.394207,"北京市西城区文津街1号(故宫北)北海公园内","购物;便利店"
"露露食品店",39.95131,116.393339,"鼓楼西大街第十三中学对面","购物;便利店"
"建民食品店",39.948639,116.383939,"铁炉胡同甲9号","购物;便利店"
"兴业通食品店",39.948274,116.378371,"新街口北大街二条16号","购物;便利店"
"桃子生活馆",39.951293,116.393355,"北京市西城区鼓楼西大街","购物;便利店"
"旺旺食品店",39.949674,116.379079,"新街口北大街甲78","购物;便利店"
"悦之丰商店",39.934392,116.372487,"小茶叶胡同","购物;便利店"
"前半壁街食品店",39.943945,116.367219,"前半壁街己48","购物;便利店"
"流星马食品店",39.939744,116.383319,"护仓胡同甲14","购物;便利店"
"平价商店",39.952976,116.398306,"大石桥胡同","购物;便利店"
"北京蓉国胜食品店",39.946595,116.384396,"四环胡同16号","购物;便利店"
"文辰食品店",39.944483,116.388944,"大新开胡同20号26号","购物;便利店"
"年丰商店",39.930673,116.369016,"北京市西城区宫门口西岔14号","购物;便利店"
"庆林商店",39.948559,116.383631,"新街口东街18号","购物;便利店"
"龙宇嘉食品店",39.939904,116.386243,"德胜门内大街甲315号","购物;便利店"
"旭阳生商店",39.934157,116.373081,"北京市西城区大茶叶胡同","购物;便利店"
"立新春明食品店",39.946166,116.383241,"簸箩仓胡同甲33","购物;便利店"
"成意百货商店",39.932767,116.370467,"北京市西城区赵登禹路安平巷11号附近","购物;便利店"
"双博食品店",39.930322,116.381592,"西四东大街47号","购物;便利店"
"东门南食品部",39.931989,116.397567,"北京市西城区文津街1号(故宫北)北海公园内","购物;便利店"
"北京德继禹商贸中心",39.944514,116.385701,"北京市西城区德胜门内大街甲225号","购物;超市"
"晋商博物馆商店",39.941,116.397636,"什刹海荷花市场","旅游景点;博物馆"
"东阿阿胶专卖店(新街口店)",39.941901,116.379553,"北京市西城区新街口南大街130号(护国寺)","购物"
"义和洪百货经营部",39.933683,116.381241,"大红罗厂南巷与大红罗厂街交叉口北50米","购物"
"德宝友诚百货店",39.941269,116.383654,"护国寺街47号","购物"
"佳佳超市",39.931369,116.382216,"北京市西城区","购物"
"北海公园食品工艺品",39.932212,116.394191,"北京市西城区","旅游景点;公园"
"北京郭永亮食品店",39.953909,116.387543,"鼓楼西大街198号","购物"
"烟酒百货超市(哈哈镜西四店)",39.933803,116.37872,"西四北三条18号","购物"
"雪珍便民店",39.932612,116.388547,"草岚子胡同丁1","购物"
"福春居工艺精品店",39.941703,116.392861,"羊角灯胡同23-3号楼附近","购物"
"德山经营部",39.936968,116.371535,"翠华街和富国街的交叉口附近","购物"
"端木森百货店",39.943684,116.382854,"棉花胡同甲70号","购物"
"宏源丰嘉商贸",39.93267,116.368238,"北京市西城区西廊下胡同","购物"
"商海综合经销部",39.953055,116.37196,"北京市西城区德胜门西大街甲5号","购物"
"强子食品店",39.94213,116.392053,"柳荫街26号","购物"
"华美百福食品店",39.931011,116.365292,"宫门口二条福玲饭馆旁","购物"
"北京四正伟业食品店",39.964297,116.379102,"新康街甲3号","购物"
"便民食品店",39.960759,116.375385,"新德街37号","购物"
"便利食品店",39.932322,116.373118,"西四北二条75号","购物"
"汇明食品店",39.943973,116.379086,"新街口南大街69","购物"
"元惠晨食品店",39.944372,116.382584,"什刹海街道","购物"
"北京永辉发达食品店",39.961466,116.398076,"六铺炕北小街1-2号","购物"
"博利恒远文具快印商店",39.931262,116.386336,"西什库大街31-32号(近西什库教堂)","购物"
"711便利店(马甸东路店)",39.977359,116.3847,"北京市海淀区马甸东路19号金澳国际写字楼1层133号房","购物;便利店"
"全时便利店(志新桥北店)",39.994343,116.375559,"志新村小区32号楼一层101","购物;便利店"
"素斋阁便利店",39.969723,116.376613,"北京市海淀区新街口外大街15号院1号楼底商","购物;便利店"
"全时便利店(黄寺大街店)",39.970197,116.392483,"北京市西城区黄寺大街23号-2号楼1层-2-1","购物;便利店"
"全时便利店(安华桥西店)",39.975209,116.39678,"西城区北三环中路甲3号北京大森林酒店一层A3(近建设银行)","购物;便利店"
"罗森便利店(马甸德胜饭店店)",39.974084,116.39095,"北三环中路14号德胜饭店1楼大堂(近味多美)","购物;便利店"
"快客便利店(海泰大厦)",39.994721,116.372922,"北四环中路229号海泰大厦1层","购物;便利店"
"全时便利店(峻峰华亭店)",39.989324,116.393648,"北辰西路69号峻峰华亭A座1楼","购物;便利店"
"好邻居便利店(花园东路)",39.989091,116.375813,"北京市海淀区花园北路35号(志新桥南路西)","购物;便利店"
"迪亚天天(塔院店)",39.98517,116.367645,"塔院朗秋园甲8号1层底商（创银商务中心北20米处）","购物;便利店"
"北京邮电大学-学苑超市",39.969409,116.364047,"北京市海淀区西土城路10号北京邮电大学","购物;便利店"
"好邻居便利店(中轴店)",39.979205,116.398646,"裕中东里2号楼","购物;便利店"
"永旺商店",39.980366,116.380312,"马甸桥西牡丹园月季园小区1号楼对面NO-336","购物;便利店"
"快客便利店(花园路店)",39.979549,116.372428,"西城区德胜门外安德路122号楼超市发","购物;便利店"
"Happy+乐加健德门站D口地铁便利店",39.982189,116.387354,"北京市海淀区地铁10号线健德门站西南口站前广场","购物;便利店"
"快客便利店(新街口外大街)",39.967725,116.377585,"西城区新街口外大街8号德威治大药房内(近中国农业银行新外支行师范大学东门对面)","购物;便利店"
"好邻居便利店(花园路店)",39.986685,116.372463,"花园路塔院对面(花园北路和花园路交叉口东南角)","购物;便利店"
"玉辉新德便利店(德胜店)",39.966244,116.386351,"北京市西城区德胜门外大街乙12号","购物;便利店"
"全时便利店(辽宁饭店店)",39.97146,116.386064,"北京市西城区德胜门外大街华夏银行(德外支行)北邻","购物;便利店"
"四喜通自选商店",39.996935,116.387941,"北京市朝阳区安翔里42号楼一层中部","购物;便利店"
"好邻居便利店(马甸南路)",39.975502,116.382462,"北太平庄邮信宿舍9门","购物;便利店"
"好友小屋",39.980385,116.365426,"健安西路12号附近","购物;便利店"
"国食名品有机健康食品连锁专营店(黄寺店)",39.969001,116.389626,"黄寺大街26号1号楼德胜置业大厦大厅东侧103室","购物;便利店"
"好邻居便利店(马甸桥店)",39.974726,116.376206,"北太平庄邮信宿舍9门","购物;便利店"
"Happy+乐加牡丹园站-C口地铁便利店",39.982511,116.377572,"北京市海淀区地铁10号线牡丹园站东南口站前广场","购物;便利店"
"Hi-24  好邻居连锁便利",39.969967,116.377357,"新街口外大街6","购物;便利店"
"健德桥食品店",39.983241,116.386978,"北土城西路103号","购物;便利店"
"社区便利店",39.992107,116.392592,"北辰西路华严北里63号楼1408室","购物;便利店"
"交科综合商店",39.97134,116.363832,"北京市海淀区西土城路8号院","购物;便利店"
"科兴便民店",39.990066,116.38686,"华严北里15楼","购物;便利店"
"北京吉兵来商店",39.972706,116.371279,"北三环中路38号","购物;便利店"
"强安加油站便利店",39.981745,116.387255,"祁家豁子甲2号","购物;便利店"
"牡丹嘉园食品店",39.986529,116.376932,"花园东路16号(小关西后街)","购物;便利店"
"中国烟酒茶商贸",39.969196,116.395551,"黄寺大街28号","购物;便利店"
"裕新商店",39.976089,116.393454,"裕中西里16号","购物;便利店"
"北广社区春长便民店",39.973459,116.396427,"北三环中路6号少年儿童出版社附近","购物;便利店"
"鹏德利便利店",39.989238,116.393965,"北辰西路69-10号","购物;便利店"
"新力百货商店",39.97916,116.392464,"北京市朝阳区裕民路","购物;便利店"
"好邻居便利店(北太平庄西店)",39.97863,116.376205,"北太平庄路25号临1","购物;便利店"
"迎云天食品店",39.974099,116.372436,"北三环中路67-17号","购物;便利店"
"隆鑫食品",39.976229,116.371994,"北太平庄花园路15号（维也纳酒店南30米）","购物;便利店"
"裕民兴商贸",39.979112,116.391477,"朝阳区裕民路4-20号（近裕民中路）","购物;便利店"
"伟平商店",39.989253,116.386689,"北京市朝阳区京藏高速辅路","购物;便利店"
"北小关副食蔬菜商店",39.986581,116.379063,"小关西后街世纪华联超市旁","购物;便利店"
"荣和旺小卖店",39.989125,116.392904,"中轴东路和民族园西路的交叉口附近","购物;便利店"
"北京旺泰佳佳食品店",39.973701,116.382198,"马甸南村10-4号","购物;便利店"
"烟酒便利店",39.987592,116.373658,"北京市海淀区","购物;便利店"
"平价综合商店",39.979216,116.393148,"裕民路四号院平房","购物;便利店"
"培林食品店",39.968132,116.377535,"新街口外大街8-3号","购物;便利店"
"点利佳平价商店",39.986747,116.380422,"小关西后街珍妮芬对面","购物;便利店"
"全时便利店(丰宝恒大厦店)",39.985639,116.397321,"民族园路2号3幢1层1006室","购物;便利店"
"集中美便利店",39.972183,116.395132,"北京市西城区双旗杆胡同","购物;便利店"
"恒祥商店",39.968481,116.376817,"北京市海淀区新街口外大街19-9附近","购物;便利店"
"便利店",39.969714,116.376402,"北京市西城区新街口外大街2号有研大厦1层","购物;便利店"
"郝鑫晓利食品店",39.972408,116.382368,"北三环中路20-1号","购物;便利店"
"鸿浩岩便利店",39.971556,116.382609,"北三环中路20-4号","购物;便利店"
"京一综合食品店",39.968319,116.381865,"新风街3号附近","购物;便利店"
"元土城遗址公园-小卖铺",39.981792,116.368525,"北京市海淀区北土城西路元土城遗址公园内","购物;便利店"
"鑫盛商店",39.986543,116.377507,"小关西后街附近","购物;便利店"
"庆凡百真便利店",39.975506,116.392547,"北京市西城区","购物;便利店"
"瑞鑫福食品店",39.975027,116.384929,"北三环中路31号","购物;便利店"
"五辉新德便利店",39.96458,116.387443,"五路通街(人定湖公园西门西侧)","购物;便利店"
"易捷便利店(昌平路)",39.984541,116.38807,"华严里临乙1号","购物;便利店"
"金三元便民店(亚运村街道第四店)",39.997849,116.387528,"北京市朝阳区","购物;便利店"
"Happy+乐加健德门站A口地铁便利店",39.983693,116.387402,"北京市海淀区地铁10号线健德门站西北口站前广场","购物;便利店"
"永泰商贸中心",39.985846,116.379368,"花园路街道牡丹园乙28号院三号楼(菜鸟驿站)","购物;商铺"
"贞贞祥和食品店",39.973335,116.372274,"北三环中路36-9号","购物;商铺"
"金质生活裕中西里店",39.977823,116.390911,"北京市西城区","购物"
"物华美超市",39.991616,116.386465,"华严北里小区10号楼","购物"
"志伟百货",39.987784,116.368849,"花园北路49号院4","购物"
"烟酒百货超市",39.984496,116.385797,"牡丹园东街万盛商务会馆旁","购物"
"嘿客(北京华严北里店)",39.988766,116.388841,"民族园西路华严北里小区9号院39-1","购物"
"昊福茗苑",39.966953,116.377717,"新街口外大街10-4附近","购物"
"顺新明食品店",39.966985,116.377994,"北京市西城区新明胡同","购物"
"711便利店(国奥村店)",40.015895,116.38795,"北京市朝阳区林翠东路2号院","购物;便利店"
"好邻居便利店(北沙滩店)",40.007851,116.390485,"大屯路风林绿洲小区6号楼底商D单元S-F06-01D号","购物;便利店"
"便利店",40.00666,116.393641,"北辰西路8号院2北辰世纪中心A座1层","购物;便利店"
"好邻居便利店(科荟路店)",40.015881,116.376968,"科荟路51号美伦堡9号楼底商","购物;便利店"
"快客便利店(no.8134)",40.000909,116.374441,"志新西路10号二里庄小区","购物;便利店"
"世奥便民商店",40.010421,116.376673,"四环到五环之间德胜门外北沙滩一号院","购物;便利店"
"好邻居便利店(清华东路三店)",40.007298,116.366128,"清华东路11号2号幢一层西侧","购物;便利店"
"北京益智欣荣便利店",40.003248,116.384039,"科学园南里西街附近","购物;便利店"
"祥缘顺和二里庄便民店",40.000777,116.37445,"志新西路10号二里庄小区","购物;便利店"
"易捷便利店(志新西路1号院西)",40.006579,116.367142,"清华东路11号附近","购物;便利店"
"豆蔻年华便利店(北辰店)",40.006661,116.393641,"北辰世纪中心A座一层北门108室(京东商城左侧)","购物;便利店"
"龙之凤食品店",40.002013,116.373683,"中国石油安全环保技术研究院附近","购物;便利店"
"易捷便利店(北沙滩四号院西)",40.011117,116.374437,"昌平路附近","购物;便利店"
"多美多石油加油站便利店",39.99967,116.380563,"成府路4号","购物;便利店"
"慧婷食品商店",40.005524,116.378761,"昌平路附近","购物;便利店"
"晓晓便利店",40.003095,116.37707,"宏宇宾馆附近","购物;便利店"
"奥林匹克森林公园南园-商品部",40.025406,116.396349,"北京市朝阳区科荟路33号奥林匹克森林公园南园内","购物;便利店"
"奥林匹克森林公园北园-商品部",40.032315,116.393283,"北京市朝阳区鸟巢北侧奥林匹克森林公园北园附近","购物;便利店"
"鹏翔飞商贸",40.00768,116.367891,"清华东路17中国农业大学东校区","购物;便利店"
"奥林匹克森林公园南园-商品部",40.022109,116.396629,"北京市朝阳区科荟路33号奥林匹克森林公园南园内","购物;便利店"
"奥林匹克森林公园小卖部",40.033238,116.383607,"北京市朝阳区安立路奥林匹克森林公园北园内","购物;便利店"
"奥林匹克森林公园-商品部",40.025401,116.396355,"北京市朝阳区科荟路33号奥林匹克森林公园南园内","购物;便利店"
"综合商店(学院路20号院西)",40.002578,116.367329,"科大北门(学院路20号院西)","购物;便利店"
"北京北纬五十六度商贸中心",40.007175,116.373236,"清华东路10号(北沙滩桥北)","购物;便利店"
"奥林匹克森林公园北园-商品部",40.030187,116.398206,"北京市朝阳区安立路奥林匹克森林公园北园内","购物;便利店"
"奥林匹克森林公园北园-西商品部",40.031474,116.391013,"北京市朝阳区安立路奥林匹克森林公园北园内","购物;便利店"
"鹏程万里店",40.009383,116.364079,"中国农业大学学院2号楼附近","购物;便利店"
"奥林匹克森林公园南园-西商品部",40.019752,116.384111,"北京市朝阳区科荟路33号奥林匹克森林公园南园内","购物;便利店"
"大众菜市",40.020679,116.368615,"昌平路","购物"
"奥宜佳食品店",40.023441,116.375449,"林翠西里41号楼02底商","购物"
"永惠佳文体(农大店)",40.007985,116.368117,"清华东路17号中国农业大学东校区","购物"
"有家小店",40.001533,116.374338,"二里庄小区石油附小东校对面","购物"
"加油站便利店",39.848703,116.423889,"石榴庄西街甲2号","购物;便利店"
"平价商店(南苑路辅路)",39.855439,116.407377,"南苑路(童星幼儿园北)","购物;便利店"
"中国石油便利店",39.848937,116.423987,"南顶路4号附近","购物;便利店"
"英荣批发",39.850782,116.411078,"大红门海慧寺羽绒批发一条街","购物;便利店"
"昆仑好客",39.842272,116.409989,"大红门西前街176号","购物;便利店"
"求兴批发",39.84428,116.41272,"大红门西后街7号附近","购物;便利店"
"骄慧霞便利店",39.847092,116.415074,"北京市丰台区大红门路51号","购物;便利店"
"博龙吉便利店",39.857313,116.426679,"东铁匠营179号附近","购物;便利店"
"欣荣商店",39.85816,116.409983,"北京市丰台区木樨园长途汽车站对过外后村32号","购物;便利店"
"富红商店",39.840077,116.406867,"丰台区南苑路79号","购物;便利店"
"惠福隆社区便利店",39.845125,116.426252,"北京市丰台区","购物;便利店"
"曲翼兴商店",39.845133,116.40682,"北京市丰台区","购物;便利店"
"联生亿家",39.84675,116.406171,"丰台区建欣路","购物"
"光彩超市",39.848401,116.426643,"光彩农副产品批发市场北006","购物"
"祥和美瑞生活超市",39.848552,116.402701,"建欣苑二里8号楼1层底商","购物"
"博航瑞丰食品店",39.848691,116.418669,"北京市丰台区","购物"
"全时便利店(体育馆路店)",39.889822,116.432488,"体育馆路甲4-1号","购物;便利店"
"全时便利店(福海国际店)",39.860428,116.404665,"北京市丰台区南苑路5号一层1019号与二层2081室","购物;便利店"
"好邻居便利店(刘家窑路店)",39.868107,116.424005,"刘家窑路刘家窑南里甲一号","购物;便利店"
"东方之道宾馆便利店",39.886246,116.426557,"北京市东城区天坛东路13号16","购物;便利店"
"龙潭双力发百货店",39.885013,116.4305,"双玉中街37号院1","购物;便利店"
"全时便利店(天雅国际店)",39.86238,116.403636,"北京市丰台区果园8号楼1层1086号","购物;便利店"
"通宏祥商店",39.886183,116.430284,"天坛东路30号附近","购物;便利店"
"快客便利店(北京京坛医院东南)",39.870852,116.420045,"安乐林路10-23","购物;便利店"
"快客便利店(永定门西滨河路)",39.877134,116.401194,"永定门西滨河路8号院1","购物;便利店"
"快客便利店(安乐林店)",39.871512,116.409887,"安乐林路甲50号","购物;便利店"
"丽丽便利店",39.862023,116.427978,"南榴乡路西口顺三条","购物;便利店"
"快客便利店(定安路店)",39.864259,116.420824,"南三环中路15号院6楼附近","购物;便利店"
"天桥育才食品店",39.886342,116.399505,"东经路13号附近","购物;便利店"
"快客便利店(no.8377)",39.871218,116.416092,"安乐林路16号院1号楼","购物;便利店"
"河振威便利店",39.890143,116.401436,"北纬路45号(飞宇牛肉拉面)","购物;便利店"
"易捷便利店(沙子口店)",39.869795,116.407048,"永定门外大街130号第一人民医院附近(百荣世贸斜对面)","购物;便利店"
"天雅便利店",39.892248,116.427561,"北京市东城区","购物;便利店"
"亚发百货店",39.862477,116.400487,"海户路附近","购物;便利店"
"蒲黄榆社区-服务部",39.876455,116.422055,"蒲黄榆三里附近","购物;便利店"
"Happy+乐加刘家窑站D口地铁便利店",39.863001,116.42753,"北京市丰台区地铁5号线刘家窑站西南口站前广场","购物;便利店"
"易捷便利店(芳群路店)",39.871475,116.431294,"丰台区方庄芳群园一区1号楼中国石化内","购物;便利店"
"永铁苑百货商店",39.875227,116.399619,"永定门外永铁苑小区附近","购物;便利店"
"Happy+乐加蒲黄榆站A口地铁便利店",39.872541,116.4278,"北京市丰台区地铁5号线蒲黄榆站西北口站前广场","购物;便利店"
"易捷便利店(永定门东滨河路)",39.878057,116.416546,"永定门东滨河路11号","购物;便利店"
"迪亚天天（木樨园店）",39.859946,116.402316,"永定门外果园43号珠江骏景2号楼101号","购物;便利店"
"中国石油营业厅便利店",39.862677,116.426406,"南三环东路28","购物;便利店"
"国珍食品店",39.87479,116.415615,"桃杨路7号附近","购物;便利店"
"金润天祥食品店",39.87962,116.420018,"永定门东街东里小区","购物;便利店"
"西城区天桥树红食品店",39.889024,116.399762,"东经路48号","购物;便利店"
"润丰百货",39.860856,116.430024,"北京市丰台区横七条","购物;便利店"
"乾德食品店",39.885308,116.408017,"天坛南里复康里路口附近","购物;便利店"
"天桥鑫明食品店",39.885247,116.402422,"永定门内大街1号附近","购物;便利店"
"法华烟店",39.893721,116.429951,"法华寺街87号","购物;便利店"
"一元起百货",39.8938,116.399419,"永安路东北特产超市旁","购物;便利店"
"地铁便利",39.863061,116.429343,"北京市丰台区南三环东路","购物;便利店"
"Happy+乐加刘家窑站A口地铁便利店",39.864154,116.427311,"北京市丰台区地铁5号线刘家窑站西北口站前广场","购物;便利店"
"开鑫小卖部",39.891563,116.427449,"红桥市场","购物;便利店"
"水果飞翔超市",39.8935,116.43018,"体育馆西路2号","购物;便利店"
"日喜月新商店",39.861643,116.4267,"方庄刘家窑桥同仁路同仁园2号楼小区门口","购物;便利店"
"Happy+乐加蒲黄榆站D口地铁便利店",39.871075,116.427871,"北京市丰台区地铁5号线蒲黄榆站西南口站前广场","购物;便利店"
"北京朋徕有信便民商店",39.872867,116.415332,"琉璃井路23","购物;便利店"
"永外亮丽商店",39.874982,116.409246,"永定门外民主北街93号","购物;便利店"
"天天便民食品店",39.864142,116.415709,"南三环中路2附近","购物;便利店"
"众联百货部",39.879635,116.419577,"永定门东街东里临时2-1","购物;便利店"
"金万百荣商店",39.879629,116.419875,"景泰路与永定门东街交叉口北50米","购物;便利店"
"天太平食品店",39.866242,116.41734,"定安里34号","购物;便利店"
"金祥瑞食品店",39.892842,116.429765,"体育馆西路二号院4号楼","购物;便利店"
"圜丘门商品部",39.882938,116.40718,"永定门内大街附近","购物;便利店"
"郭翔便民店",39.87239,116.430543,"北京市丰台区","购物;便利店"
"永琴食杂店",39.860517,116.416064,"马公庄6号楼","购物;便利店"
"桂兰烟酒超市",39.864609,116.428919,"蒲黄榆路50号附近","购物;便利店"
"友谊食品店(东经路)",39.892172,116.399551,"永安路95号","购物;便利店"
"社区便民店",39.864169,116.424238,"北京市丰台区","购物;便利店"
"天坛公园-小卖部",39.889773,116.425056,"北京市东城区天坛东路甲1号天坛公园内","购物;便利店"
"客来多多便利店",39.872352,116.40897,"琉璃井路92","购物;便利店"
"平价商店(南三环中路辅路)",39.863885,116.411787,"定安南路(北京市房地产管理培训学校南)","购物;便利店"
"鑫通食品店",39.892838,116.402051,"小喇叭胡同9","购物;便利店"
"洪源永祥商店",39.864879,116.428021,"蒲黄榆路50号附近","购物;便利店"
"便民商店",39.867163,116.421678,"南三环中路辅路(蒲黄榆路)","购物;便利店"
"双益食品店",39.883052,116.432322,"东城区东四块玉南街25号35号","购物;便利店"
"小卖部",39.870506,116.407017,"北京市东城区","购物;便利店"
"富华食品店",39.872658,116.410026,"革新南路22附近","购物;便利店"
"Happy+乐加天坛东门站C口地铁便利店",39.887234,116.427818,"北京市崇文区地铁5号线天坛东门站东南口站前广场","购物;便利店"
"百盛超市",39.865853,116.404747,"永定门外大街101号百荣世贸商城","购物"
"东四块玉菜店",39.888545,116.430357,"北京市东城区","购物"
"新兴综合批发商店",39.860391,116.408774,"南木樨园81号","购物"
"昊晟酒水饮料批发配送",39.869868,116.409746,"沙子口路44号附近","购物"
"迪兴天天超市",39.871359,116.421134,"安乐林路全新大药房旁","购物"
"七田阳光方庄物美大卖场店",39.872376,116.429584,"蒲芳路芳古园一区商住楼8号楼(近玉蜓桥)","购物"
"食品超市(永定门外大街辅路店)",39.872878,116.406895,"琉璃井路83号(近永定门外大街辅路)","购物"
"湖北日杂百货店",39.865542,116.417258,"北京市东城区定安南路","购物"
"体育馆路街道长青园社区便民中心店",39.881834,116.433188,"北京市东城区","购物"
"日用百货",39.868384,116.410917,"北京市东城区沙子口路","购物"
"永康辉肉类超市",39.870034,116.400316,"西罗园北路甲1附近","购物"
"西二门食品店",39.887342,116.411551,"北京市东城区天坛东里2号天坛公园","购物"
"久久便利(法华南里店)",39.893339,116.43294,"法华南里10","购物"
"刘文玖杂货店",39.893505,116.426503,"天坛路与法华寺街交叉口东北50米","购物"
"如平食品超市",39.861799,116.428962,"丰台区北铁4号临1号","购物"
"晶晶食品店",39.893485,116.426733,"法华寺街","购物"
"兴昌顺食品店",39.893831,116.432215,"法华寺街31号","购物"
"烟酒食品店",39.87498,116.418644,"永定门东滨河路(杨家园社区西北)","购物"
"711便利店(珠市口店)",39.898362,116.406288,"珠市口东大街19号1层西5号","购物;便利店"
"711便利店(民生金融中心店)",39.913309,116.425982,"北京市东城区建国门内大街28号民生金融中心C座地下一层L38单元","购物;便利店"
"711便利店(灯市口大街店)",39.925034,116.419555,"北京市东城区灯市口大街57-2号一层1-15号房","购物;便利店"
"711便利店(朝阳门南小街店)",39.922063,116.433403,"朝阳门南小街16-3号(金宝街路口向北路东、紫禁城中医北侧)","购物;便利店"
"全家爱超市",39.903209,116.43272,"西花市大街26号","购物;便利店"
"快客便利店(王府井店)",39.921127,116.415231,"王府井西街1-3","购物;便利店"
"力夏达百货店",39.918727,116.425313,"东城区外交部街52-1号","购物;便利店"
"尚诚优品24小时便利店",39.916633,116.422955,"北京市东城区东单三条8-2号国话大厦1层","购物;便利店"
"711便利店(灯市东口店)",39.925378,116.423854,"东城区东四南大街140号,快客旁边(蒙娜丽莎婚纱摄影)","购物;便利店"
"德昌厚食品店",39.918383,116.424722,"东单北大街84号","购物;便利店"
"全时便利店(东四南大街三友店)",39.928879,116.423782,"北京市东城区东四南大街17号1层05号","购物;便利店"
"顺民业兴便利店",39.923315,116.426395,"干面胡同69-2号","购物;便利店"
"全时便利店(灯市口店)",39.924788,116.42092,"东城区灯市口大街72号29幢10门平房(近浦发银行)","购物;便利店"
"好邻居便利店(金宝街2店)",39.92186,116.429071,"北京市东城区金宝街临时3号","购物;便利店"
"全时便利店(国瑞公寓C座西北)",39.903167,116.428187,"西花市大街124号","购物;便利店"
"好邻居便利店(都市馨园店)",39.901754,116.421611,"兴隆都市馨园地上一层A101室国大药房旁","购物;便利店"
"宏都商场",39.908802,116.406426,"北京市东城区","购物;便利店"
"好邻居便利店(东安门大街分店)",39.921856,116.414772,"东安门大街51号1号楼1层","购物;便利店"
"711便利店(西花市大街北侧店)",39.90369,116.423222,"北京市东城区东兴隆街新怡家园甲3号楼一层南端商务区","购物;便利店"
"全时便利店(新景家园店)",39.899704,116.428208,"北京市东城区崇外大街五号新景家园西区9号楼9单元底商磁器口地铁站F1口出口","购物;便利店"
"全时便利店(东兴隆街店)",39.903595,116.419785,"东兴隆街威尼斯堡红酒庄东侧","购物;便利店"
"正义佳佳便利店",39.907578,116.41292,"前门东大街7号","购物;便利店"
"全时便利店(国瑞城店)",39.905392,116.429241,"国瑞北路60号","购物;便利店"
"快客便利店(东四店)",39.925834,116.423849,"东四南大街甲109号","购物;便利店"
"北京朝选便利店",39.916067,116.425385,"东城区东单北大街(地铁东单站旁)","购物;便利店"
"孟臣食品店",39.922001,116.409148,"北池子大街91-1号","购物;便利店"
"快客便利店(NO.8341)",39.923231,116.432812,"东城区朝阳门南小街与干面胡同交叉口西北侧10米","购物;便利店"
"文斌百货",39.908504,116.420008,"东城区东交民巷12号","购物;便利店"
"都乐意平价超市",39.920843,116.416846,"菜厂胡同附近","购物;便利店"
"胜铭食品店",39.922903,116.409455,"北池子大街88号","购物;便利店"
"快客便利店(北京站)",39.910019,116.433689,"毛家湾胡同甲13号北京站2层","购物;便利店"
"北京雨佳明商店",39.911618,116.429131,"东单苏州街胡同","购物;便利店"
"十八楼便利店",39.906451,116.430876,"北京市东城区崇文门东大街18-2","购物;便利店"
"便利店",39.913772,116.431182,"北京市东城区","购物;便利店"
"红树湾",39.91587,116.417601,"王府井大街301号新燕莎金街购物广场F1层","购物;便利店"
"奥士凯奥华便利店",39.909262,116.418271,"台基厂大街18-2","购物;便利店"
"易捷便利店(治国胡同)",39.910134,116.4293,"治国胡同与北京站西街交叉口西南60米","购物;便利店"
"海山便利店",39.916774,116.424902,"东单北大街乙112-1","购物;便利店"
"邻里之家商店",39.927428,116.431902,"演乐胡同15号附近","购物;便利店"
"利新食品店",39.917728,116.413041,"南河沿大街甲41-2号","购物;便利店"
"Happy乐加地铁便利BENJOY店",39.89897,116.424561,"北京市崇文区地铁5号线磁器口站西南口站前广场","购物;便利店"
"Happy+乐加崇文门站B口地铁便利",39.907663,116.425887,"东城区崇文门内大街79号","购物;便利店"
"快客便利店(北极阁路)",39.918328,116.425568,"西总布胡同55-1","购物;便利店"
"快客便利店(no.8338)",39.928783,116.417541,"北京市东城区王府井大街12号","购物;便利店"
"全时便利店(东打磨厂店)",39.905352,116.421808,"东打磨厂街30号","购物;便利店"
"海含食品店",39.92768,116.413501,"东城区东皇城根南街(近阿杰理发店)","购物;便利店"
"李田食品店诚信经营店",39.906648,116.419954,"崇文门西大街6-8号","购物;便利店"
"安壮洛瑟(乐天银泰百货北京店)",39.922269,116.417987,"王府井大街88号F5层","购物;便利店"
"健康生活(乐天银泰百货北京店)",39.922905,116.418021,"王府井大街88号F6层","购物;便利店"
"北京市东城区思必达食品店",39.91245,116.426595,"南八宝胡同23号附近","购物;便利店"
"易捷便利店(崇文门东大街)",39.906387,116.427531,"崇文门东大街甲22号","购物;便利店"
"馨然乐乐居商店",39.917205,116.413058,"南河沿大街81-1号","购物;便利店"
"代购24h授权体验店",39.896655,116.398934,"北京市西城区","购物;便利店"
"华瑞小卖部",39.902281,116.426548,"手帕胡同52号","购物;便利店"
"一家店都市馨园NO.2",39.902927,116.420645,"东兴隆街都市馨园2号楼B40号","购物;便利店"
"快客便利店(同福夹道店)",39.925338,116.423047,"东城区东华门(近同福夹道)","购物;便利店"
"近邻食品店",39.922557,116.428165,"东石槽胡同45-1号","购物;便利店"
"琚驰食品店",39.909021,116.415201,"东交民巷21附近","购物;便利店"
"竹源食品店",39.917913,116.409287,"南池子大街73附近","购物;便利店"
"平价便民店(北京肖巧现食品店)",39.900491,116.403986,"粮食店街41附近","购物;便利店"
"轩乐综合商店",39.926277,116.411532,"骑河楼街骑河楼北巷路口附近","购物;便利店"
"快客便利店(北极阁三条)",39.91672,116.424877,"东单北大街乙112号","购物;便利店"
"捷捷食品店",39.916495,116.424674,"北极阁三条40-3","购物;便利店"
"发顺苏发食品店",39.916311,116.428792,"北京市东城区北极阁二条20-1","购物;便利店"
"365lk生活库(国瑞城店)",39.905,116.430333,"北京市东城区","购物;便利店"
"华青乐食品店",39.918125,116.42479,"东城区西总布胡同88-1","购物;便利店"
"快客便利店(米市店)",39.923007,116.423933,"东四南大街243号","购物;便利店"
"治明食品店",39.9226,116.422884,"东城区西堂子胡同9号","购物;便利店"
"天安门广场-便利店",39.90713,116.403281,"北京市东城区景山前街4号天安门广场内","购物;便利店"
"霞公府商店",39.91785,116.413548,"西城区南河沿大街","购物;便利店"
"世纪金旺食品店",39.897601,116.407739,"珠市口东大街(近世纪天鼎1层)","购物;便利店"
"游客购物商店",39.927361,116.402954,"北京市东城区","购物;便利店"
"高兴源百货店",39.920242,116.432719,"东城区东堂子胡同2-2号","购物;便利店"
"北京市天坛公园商店(F园御膳饭庄)",39.894722,116.416388,"北京市东城区天坛路87号","购物;便利店"
"光明小卖部",39.894725,116.401212,"留学路84号","购物;便利店"
"快客便利店(东华门店)",39.921748,116.412042,"北京市东城区东长安街１号晨曦百货（北方佳苑饭店写字间南）1层","购物;便利店"
"惠佳缘商店",39.909687,116.433381,"毛家湾胡同甲13号北京站1层","购物;便利店"
"金志京商店",39.925971,116.425057,"本司胡同56号附近","购物;便利店"
"憩赏商务服务中心(会馆)",39.911739,116.431183,"北京站西街1-11","购物;便利店"
"便利店",39.919981,116.433031,"北京市东城区朝阳门南小街341-2","购物;便利店"
"故宫文化服务中心-商品部",39.925621,116.403219,"北京市东城区景山前街4号故宫博物院内","购物;便利店"
"欢乐家便利店",39.917956,116.427938,"东城区新开路胡同51-2","购物;便利店"
"天地食品店",39.894526,116.409013,"山涧口街精忠街路口附近","购物;便利店"
"鑫业磊商店",39.918268,116.432876,"东城区西总布胡同7-1号","购物;便利店"
"益民综合商店",39.918337,116.429357,"北京市东城区","购物;便利店"
"朝礼风食品店",39.928071,116.42953,"礼士胡同26号","购物;便利店"
"副民欣食品店",39.924644,116.429862,"北京市东城区史家胡同","购物;便利店"
"新秀乐食品店",39.927396,116.429458,"北京市东城区演乐胡同37号","购物;便利店"
"维兴源食品店",39.925255,116.42623,"东城区内务部街44号","购物;便利店"
"金陆川便利店",39.927987,116.429737,"东城区礼士胡同26号","购物;便利店"
"双瑞祥食品店",39.92474,116.409386,"北池子大街52-1号","购物;便利店"
"建国益新食品店",39.920248,116.432773,"东城区东堂子胡同2-1号","购物;便利店"
"峰岚敏百货店",39.926355,116.413567,"北京市东城区东黄城根南街48号","购物;便利店"
"莉馨食品店",39.928091,116.428586,"东城区礼士胡同44号","购物;便利店"
"益海商店",39.924664,116.432063,"史家胡同3号1室","购物;便利店"
"便利店",39.897624,116.407773,"前门东路与珠市口东大街交叉路口南","购物;便利店"
"龙麒食品店",39.92515,116.42137,"灯市口大街29号附近","购物;便利店"
"美华食品店",39.926279,116.413594,"东城区河沿大街(近峰岚敏百货)","购物;便利店"
"EnglandCasualtrip(乐天银泰百货北京店)",39.922273,116.418185,"王府井大街88号F5层","购物;便利店"
"天天便利超市",39.895477,116.401218,"留学路50号、鹞儿胡同42号","购物;超市"
"北京明惠润通食品店",39.910165,116.418221,"台基厂大街10附近","购物;商铺"
"北京双仁堂",39.900459,116.403612,"北京市西城区施家胡同5号","医疗;药店"
"乐天银泰百货-食品馆",39.922012,116.417938,"王府井大街88号乐天银泰百货地下1层","购物"
"7号店",39.925044,116.419761,"灯市口大街57号二十五中西侧(近东区邮票公司)","购物"
"便民店",39.921958,116.430188,"北总布胡同10号","购物"
"啤酒屋超市",39.913028,116.43084,"北京市东城区","购物"
"二条杂货铺",39.903211,116.401767,"廊房二条77号","购物"
"奥士凯社区便民服务中心",39.911617,116.426675,"北京市东城区","购物"
"博金满园超市",39.899126,116.401183,"云居胡同与煤市街交汇处","购物"
"烟酒茶行",39.924747,116.426454,"史家胡同51号","购物"
"SUPER-PHARM素柏(崇文门店)",39.902401,116.425752,"崇文门外大街40号搜秀城一层东南侧","购物"
"燕之光文化用品中心",39.926822,116.420323,"北京市东城区灯市口北巷15号1","购物"
"东单鑫阗食品店",39.911124,116.424334,"东城区崇文门内大街9号","购物"
"蒙牛",39.91002,116.43369,"毛家湾胡同甲13号北京站2层","购物"
"天润万家邻里服务中心(金鱼池店)",39.896671,116.414235,"金鱼池中街6-5号(近西晓市街)","购物"
"速8酒店商品部",39.89913,116.40409,"北京市西城区","购物"
"康美人生(乐天银泰百货北京店)",39.922016,116.417937,"王府井大街88号乐天银泰百货B1楼(近王府井教堂)","购物"
"三元奶站超市",39.89707,116.414432,"西晓市街36附近","购物"
"名烟名酒超市",39.920486,116.424709,"东城区东堂子胡同","购物"
"双百超市",39.923308,116.419812,"甘雨胡同53-2","购物"
"食品店",39.927021,116.424859,"内务部街1号77号","购物"
"迪兴天天骑河楼店",39.925239,116.412758,"东城区北河沿大街思味道万州烤鱼东北侧","购物"
"隆盛食品店",39.919096,116.424689,"北京市东城区","购物"
"佳顺兮超市",39.898739,116.400943,"煤市街河间驴肉火烧旁","购物"
"711便利店(地安门东大街店)",39.940021,116.405285,"北京市东城区地安门东大街111号一层东南侧房","购物;便利店"
"711便利店(洲际大厦店)",39.95771,116.40539,"安德路9号洲际大厦B座1层","购物;便利店"
"711便利店(东四北大街店)",39.93752,116.423843,"北京市东城区东四北大街254号楼1层北起第二间房","购物;便利店"
"711便利店(东直门内大街西口北侧店)",39.947875,116.42347,"北京市东城区东直门内大街277号一层20-C号房屋","购物;便利店"
"711便利店(东城店)",39.932969,116.416991,"北京市东城区","购物;便利店"
"全时便利店(东四十四条店)",39.9432,116.423628,"东四北大街84号北屋(近东四十四条西口)","购物;便利店"
"711便利店(东直门北小街西侧店)",39.954679,116.430676,"东城区北小街青龙胡同1号歌华大厦1层(小街桥)","购物;便利店"
"711便利店(和平里中街店)",39.963662,116.427063,"和平里中街19号2号楼一层自东向西第二间房(近巴夯兔)","购物;便利店"
"北京市西城区凯迪百货商店",39.940602,116.402488,"地安门外大街甲141号","购物;便利店"
"好邻居便利店(地安门外大街店)",39.945795,116.402255,"地安门外大街乙19号(吉野家旁)","购物;便利店"
"全时便利店(雍和大厦店)",39.954538,116.427788,"北京市东城区安定门东大街28号立骏（雍和）大厦1号（东）楼一层105房屋","购物;便利店"
"好邻居便利店(宽街店)",39.939546,116.412087,"东城区宽街","购物;便利店"
"快客便利店(no.8353)",39.957679,116.413623,"东城区安定门外西河沿14号楼底商","购物;便利店"
"快客便利店(no.8350)",39.956622,116.422359,"东城区安外东河沿海友酒店东南20米处","购物;便利店"
"好邻居便利店(旧鼓楼店)",39.952557,116.400133,"小石桥胡同3号院5号楼","购物;便利店"
"山南综合商店",39.934164,116.406,"景山东街3-1","购物;便利店"
"好邻居便利店(东直南小店)",39.940964,116.43254,"东直门南大街20-1号","购物;便利店"
"快客便利店(雍和宫店)",39.948789,116.423038,"北京市东城区雍和宫大街179号","购物;便利店"
"711便利店(北新桥路口南侧店)",39.945522,116.423495,"东四北大街30号","购物;便利店"
"惠民便利店",39.951464,116.406137,"宝钞胡同甲38附近","购物;便利店"
"快客便利店(景山西街店)",39.932544,116.399908,"西城区景山西街17号","购物;便利店"
"惠隆便利店",39.945206,116.431905,"东城区东直门内南小街21号","购物;便利店"
"好邻居便利店(安定门内大街店)",39.954591,116.414871,"安定门内大街107号","购物;便利店"
"好邻居便利店(东四北店)",39.941018,116.423759,"东四北大街146号","购物;便利店"
"快客便利店(no.8312)",39.961469,116.431475,"和平里东街6区20号搂南侧","购物;便利店"
"奥士凯便利店",39.962172,116.400066,"旧鼓楼外大街2号","购物;便利店"
"九曲岩便利店",39.936307,116.43187,"东四六条3号","购物;便利店"
"快客便利店(no.8346)",39.942159,116.42365,"东四北大街108号","购物;便利店"
"好邻居便利店(沙滩店)",39.930723,116.410645,"沙滩北街五四大街甲31号","购物;便利店"
"好邻居便利店(美术馆东街店)",39.932639,116.41699,"美术馆东街9号附近","购物;便利店"
"景陟海便利店",39.932073,116.399729,"陟山门街3号","购物;便利店"
"快客便利店(方家胡同)",39.950449,116.415003,"安定门内大街163号","购物;便利店"
"好邻居便利店(什刹海店)",39.940207,116.402813,"地安门西大街甲47号","购物;便利店"
"快客便利店(朝内大街店)",39.93076,116.432216,"朝阳门内大街133-2号","购物;便利店"
"星凯福来食品店",39.950721,116.428953,"后永康胡同6号附近","购物;便利店"
"好邻居便利店(安定门5分店)",39.953181,116.414875,"北京市东城区","购物;便利店"
"Happy+乐加和平里北街站C口便利店",39.964188,116.425426,"和平里西街67号附近","购物;便利店"
"快客便利店(东四街道社会服务管理综合指挥分中心南)",39.933122,116.42401,"东四北大街458号","购物;便利店"
"东直门医院-小卖部",39.943166,116.433604,"东城区海运仓5号东直门医院内","购物;便利店"
"便利店",39.929713,116.400454,"北京市西城区","购物;便利店"
"北京丰华四季综合商店",39.94469,116.427559,"北新桥","购物;便利店"
"快客便利店(宽街店)",39.937296,116.415531,"东城区美术馆后街36-3号","购物;便利店"
"好邻居便利店(和平里分店)",39.960595,116.432045,"北京市东城区和平里七区甲4号楼","购物;便利店"
"快客便利店(鼓楼一店)",39.947239,116.403644,"鼓楼东大街297","购物;便利店"
"奥士凯便利店(东直门北小街店)",39.952017,116.431902,"北京市东城区","购物;便利店"
"好缘来小百货",39.950876,116.430891,"北京市东城区后永康胡同","购物;便利店"
"快客便利店(和平里二店)",39.961485,116.426789,"北京市东城区和平里三区5号楼4门1层","购物;便利店"
"寸木综合商店",39.949116,116.409579,"北京市东城区北锣鼓巷","购物;便利店"
"北京东昌欣海商店",39.946943,116.424775,"东直门内大街262号附近","购物;便利店"
"快客便利店(东四店)",39.945916,116.423546,"东城区东四北大街22号(近北新桥地铁站)","购物;便利店"
"杰克拉精选店",39.952777,116.418242,"箭厂胡同40号","购物;便利店"
"好邻居便利店(东直门内大街店)",39.946937,116.427472,"北京市东城区东直门内大街216-1号旁","购物;便利店"
"草厂便利店",39.947642,116.404168,"东城区草厂胡同甲3附近","购物;便利店"
"快捷方式便利店",39.957064,116.4175,"安外东河沿乙7","购物;便利店"
"云里飞",39.940489,116.40091,"白米斜街19号附近","购物;便利店"
"六条百货店",39.936359,116.427931,"东四六条51-2","购物;便利店"
"综合商店",39.932903,116.409961,"沙滩北街7号","购物;便利店"
"平价商店",39.930817,116.43335,"北京市东城区朝阳门内大街97号","购物;便利店"
"新驰和食品店",39.95164,116.421944,"国子监街18号","购物;便利店"
"盛祥博爱综合商店",39.938648,116.418513,"南剪子巷46附近","购物;便利店"
"嘉洋宇",39.947038,116.404882,"北京市东城区鼓楼东大街244号","购物;便利店"
"快客便利店(安定门外大街店)",39.954219,116.42558,"东城区和平里(近安定门外大街)","购物;便利店"
"家平商店",39.947427,116.413973,"鼓楼东大街13-2号","购物;便利店"
"德玉便利店",39.933329,116.425648,"北京市东城区东四四条74-1号","购物;便利店"
"永昌顺兴便民商店",39.942852,116.405143,"帽儿胡同乙41号","购物;便利店"
"富连海商店",39.947357,116.413046,"鼓楼东大街29号","购物;便利店"
"香梅怡制衣店",39.932338,116.409956,"沙滩北街13-6","购物;便利店"
"云峰旺达食品店",39.95641,116.421914,"安定门外东河沿1-5","购物;便利店"
"芳妍娜便利店",39.929751,116.428857,"前拐棒胡同后炒面胡同路口附近","购物;便利店"
"永艳利食品店",39.94535,116.400798,"北京市西城区烟袋斜街48号","购物;便利店"
"易捷便利店(医专家属楼东)",39.93505,116.403822,"碾子胡同71号","购物;便利店"
"昆仑好客",39.955795,116.417731,"北京市东城区安定门东大街甲53号附近","购物;便利店"
"光华鼎力学优商店",39.943158,116.421721,"细管胡同16-1号","购物;便利店"
"兴宏云霞百货店",39.948314,116.423063,"雍和宫大街199","购物;便利店"
"北京军健俊鹏商店",39.963219,116.400163,"旧鼓楼外大街2号","购物;便利店"
"半步便民店",39.938205,116.418216,"南剪子巷41号","购物;便利店"
"洁鑫佳雨",39.942799,116.406453,"帽儿胡同25号附近","购物;便利店"
"三和元商店",39.963793,116.425805,"东城区和平里一区2号","购物;便利店"
"景山公园-小卖部",39.929796,116.40301,"北京市西城区景山西街44号(故宫后门对面)景山公园内","购物;便利店"
"奥士凯和平里购物中心便民商店",39.962269,116.400102,"六铺炕11号","购物;便利店"
"景山贵英综合商店",39.934018,116.406035,"景山东街3号","购物;便利店"
"平安静界",39.938047,116.404934,"慈慧胡同附近","购物;便利店"
"鸿昌鑫成商贸中心",39.940062,116.425173,"东四十条127-3附近","购物;便利店"
"雪莲阁食品店",39.951645,116.406152,"宝钞胡同23号","购物;便利店"
"马秀花食品店",39.951647,116.415112,"安定门国子监街102号","购物;便利店"
"龙晓丽综合商店",39.940011,116.404383,"地安门东大街117-4号","购物;便利店"
"兴林商店",39.937231,116.408132,"地安门东板桥大街34号","购物;便利店"
"星河多彩食品店",39.949632,116.400051,"小黑虎胡同1号(旧鼓楼大街)","购物;便利店"
"景山御园",39.93194,116.405625,"北京市西城区景山西街44号东门","购物;便利店"
"老伍食品店",39.947071,116.409884,"北京市东城区鼓楼东大街104号","购物;便利店"
"豆腐池食品店",39.950238,116.404861,"豆腐池胡同16号42号","购物;便利店"
"小玄飞天食品店",39.934075,116.417129,"大佛寺东街35-1号","购物;便利店"
"奥士凯便利店(东四二店)",39.934745,116.423949,"东四北大街376-2号","购物;便利店"
"泉适食品店",39.945154,116.425174,"板桥胡同乙3附近","购物;便利店"
"洪记食品店",39.953211,116.43176,"东城区东直门北小街1-1号","购物;便利店"
"安社锣北食品店",39.95375,116.40936,"北锣鼓巷14号","购物;便利店"
"福海涛食品店",39.951827,116.411599,"车辇店胡同25号附近","购物;便利店"
"军港老兵商店",39.941422,116.412879,"西城区板厂胡同5号31号","购物;便利店"
"士心食品店",39.93938,116.400092,"地安门西大街16号","购物;便利店"
"北欣楠楠食品店",39.943315,116.423675,"东四北大街84-1附近","购物;便利店"
"天兴顺蔬菜水果便利店",39.937702,116.424411,"北京市东城区","购物;便利店"
"小胖哥食品店",39.948114,116.427967,"北新桥头条1号","购物;便利店"
"平价便利店",39.962125,116.404106,"北京市东城区","购物;便利店"
"帅福康商店",39.951878,116.41209,"车辇店胡同26号附近","购物;便利店"
"京芳食品店",39.938485,116.416649,"山老胡同13-1","购物;便利店"
"美佳韵商店",39.937638,116.431659,"北京市东城区东四七条","购物;便利店"
"香饵食品店",39.94548,116.417879,"香饵胡同110-1","购物;便利店"
"宝岗源商店",39.951838,116.40735,"安定门内净土胡同甲11号","购物;便利店"
"景山公园-商店",39.931131,116.403559,"北京市西城区景山西街44号(故宫后门对面)景山公园内","购物;便利店"
"凯香饵商店",39.945418,116.419872,"香饵胡同96-3号","购物;便利店"
"北欣天龙食品店",39.942632,116.432062,"东直门南小街海运仓胡同路口附近","购物;便利店"
"奥士凯社区便民服务中心",39.954486,116.404411,"北京市东城区","购物;便利店"
"颐康元地铁便利",39.931229,116.424048,"东四北大街553附近","购物;便利店"
"锦衣绘Z商店",39.952252,116.430257,"北京市东城区炮局胡同17号甲","购物;便利店"
"金荣红食品店",39.947316,116.415494,"东城区交道口东大街121号","购物;便利店"
"丽景商店",39.933499,116.413998,"亮果厂10-1","购物;便利店"
"志诚轩食品店",39.958207,116.411236,"西营房胡同15号","购物;便利店"
"雪琪多丽食品店",39.946635,116.427808,"东直门内大街新太仓胡同6号","购物;便利店"
"赛宇商店",39.947466,116.406324,"宝钞胡同86号100号","购物;便利店"
"大流通食品店",39.948999,116.415076,"东城区安定门内大街272号","购物;便利店"
"健捷小卖部",39.960165,116.412084,"安外大街上龙西里23号楼","购物;便利店"
"鸿斌便利店",39.930548,116.404235,"北京市西城区景山前街","购物;便利店"
"春绿兴隆商店",39.936334,116.429307,"东四六条21梅龙火锅店附近","购物;便利店"
"为民商店",39.941871,116.410064,"北京市东城区东棉花胡同38号附近","购物;便利店"
"北京伟亚盈商店",39.961464,116.426817,"北京市东城区和平里三区5号","购物;便利店"
"北京市早餐规范便利店",39.954872,116.415076,"北京市东城区","购物;便利店"
"幸福新家食品店",39.954114,116.411192,"花园北巷花园东巷路口附近","购物;便利店"
"西城区京辉食品店",39.963249,116.39928,"安德里北街甲2-2附近","购物;便利店"
"渴望放心商店",39.958545,116.407775,"安德路47号","购物;便利店"
"德胜华通副食品商店",39.963238,116.399643,"安德里北街甲4号","购物;便利店"
"瑞雷食品店",39.939276,116.412963,"东黄城根北街8-3号","购物;便利店"
"北京求生存食品店",39.937827,116.424662,"东四七条83号1","购物;便利店"
"北京路彤扬综合商店",39.934902,116.417344,"育群胡同36号","购物;便利店"
"明苑商店",39.933361,116.413194,"东黄城根北街26号","购物;便利店"
"佳音食品店",39.934077,116.418957,"钱粮胡同48-1","购物;便利店"
"鹤乡秀丽食品店",39.936415,116.428953,"东四六条40-1","购物;便利店"
"宏和辉便民店",39.934186,116.420003,"钱粮胡同19-1","购物;便利店"
"成信谊和商贸中心",39.937617,116.428174,"东城区东四七条42-2号","购物;便利店"
"瑞雪祥和食品店",39.932372,116.419657,"人民市场西巷33号附近","购物;便利店"
"便民店",39.954148,116.414261,"安定门内大街36号","购物;便利店"
"林瑞食品店",39.953112,116.403219,"国祥胡同17号","购物;便利店"
"德福春百货店",39.934009,116.41562,"美术馆后街68-1号","购物;便利店"
"烟酒茶食品(东棉花胡同)",39.941949,116.413762,"东棉花胡同10号42号","购物;便利店"
"北京益善兴便民食品店",39.934513,116.417055,"大佛寺东街甲23","购物;便利店"
"景社阳春食品店",39.935571,116.413107,"东黄城根北街甲18-1","购物;便利店"
"德天赐福烟酒饮料食品",39.941622,116.402434,"地安门外大街115号","购物;便利店"
"崇盛永久食品店",39.942266,116.402415,"地安门外大街85号","购物;便利店"
"景乔春商店",39.951305,116.414536,"安定门内大街141号","购物;便利店"
"兴鑫腾达商店",39.947845,116.413352,"鼓楼东大街35号附近","购物;便利店"
"冬民众信商店(No.京0236店)",39.959415,116.433689,"北京市东城区民旺北胡同","购物;便利店"
"吉祥食品店",39.94657,116.431865,"北京市东城区东直门南小街3-1","购物;便利店"
"石雀食品店",39.946458,116.427607,"东城区新太仓胡同6号","购物;便利店"
"苓妍综合商店",39.952116,116.423207,"北京市东城区雍和宫大街22号","购物;便利店"
"爱博轩便利店",39.948068,116.409566,"北京市东城区北锣鼓巷","购物;便利店"
"华荣便利超市",39.931167,116.429603,"朝阳门内大街211附近","购物;便利店"
"华佰家便利店",39.936253,116.425245,"东城区东四六条68-2号","购物;便利店"
"北京鑫居乐食品商店",39.936027,116.4312,"育芳胡同2-1附近","购物;便利店"
"景社旅途便民店",39.935598,116.417035,"北京东城区大佛寺东街11号","购物;便利店"
"日星辰食品店",39.937642,116.42903,"东城区东四七条36-1号","购物;便利店"
"东社杰杰食品店",39.93626,116.425428,"东四六条66-1","购物;便利店"
"淑敏食品店",39.93628,116.428969,"东四六条21梅龙火锅店附近","购物;便利店"
"奥士凯同日升粮行(安德路店)",39.958016,116.407492,"安德路47号院","购物;集市"
"南南商店",39.946261,116.409696,"北京市东城区南锣鼓巷15-1-2号","购物;商铺"
"奥士凯同日升粮行(北新桥店)",39.949276,116.423289,"雍和宫大街56号","购物"
"桔色成人旗舰店",39.945231,116.414825,"中国北京市北京市东城区北兵马司胡同29号","购物"
"红丹百货商店",39.939873,116.416678,"北京市东城区张自忠路25-3号","购物"
"计生用品二手店",39.96318,116.398844,"安德里北街甲4-1号","购物"
"外贸毛巾店",39.940008,116.428824,"东四十条93-1号","购物"
"圆井食品店",39.932894,116.399869,"景山西街甲13号","购物"
"日用百货",39.947333,116.411616,"鼓楼东大街221号(宝钞胡同)","购物"
"北京好妯娌日杂店",39.942268,116.418545,"北京市东城区北剪子巷","购物"
"Chez Gérard",39.952898,116.418269,"箭厂胡同40号","购物"
"鑫鑫",39.931521,116.422799,"东四五条149号","美食;中餐厅"
"瑞来祥超市NO.京0342",39.942152,116.42202,"北京市东城区","购物"
"晨晨食品店",39.953767,116.406084,"宝钞胡同12号","购物"
"北京宇宁泰祥商贸中心(小街桥店）",39.954214,116.43128,"歌华大厦东南侧","购物"
"北京峪桃花成人保健用品中心",39.957699,116.410254,"安外西河沿17号楼3门602室","购物"
"平价百货店",39.952008,116.431866,"东城区东直门内北小街炮局胡同(串门儿)","购物"
"草园批发",39.944705,116.429189,"北京市东城区","购物"
"景芝旺食品店",39.934049,116.423098,"钱粮胡同4号附近","购物"
"全和祥食品店",39.950427,116.406232,"北京市东城区宝钞胡同","购物"
"711便利店(安华里外馆斜街店)",39.968625,116.411581,"安定路","购物;便利店"
"711便利店(对外经贸大学西侧店)",39.985551,116.430261,"北京市朝阳区惠新东街10号对外经贸大学西门附近","购物;便利店"
"711便利店(惠新东街东侧)",39.989957,116.431413,"北京市朝阳区惠新东街8号院2号楼一层大堂东侧","购物;便利店"
"711便利店(小黄庄路店)",39.971439,116.42416,"和平西街小黄庄路1-6号","购物;便利店"
"711便利店(安华西里店)",39.97455,116.407398,"北京市朝阳区安华西里一区甲1号","购物;便利店"
"711便利店(安贞路店)",39.975898,116.408843,"北京市朝阳区安贞华联商厦左侧","购物;便利店"
"711便利店(安贞桥东北侧店)",39.975689,116.417931,"北京市朝阳区胜古南里甲34号地上第一层西起第二间","购物;便利店"
"全时便利店",39.974897,116.418459,"东城北三环东路36号环球贸易中心","购物;便利店"
"好邻居便利店(安定路二分店)",39.978833,116.415505,"安定路20号院5号楼102","购物;便利店"
"好的便利店（奥体中心店)",39.991408,116.407081,"奥体中心西门平台小卖部","购物;便利店"
"快客便利店(通联大厦西北)",39.984531,116.424365,"朝阳区惠新里241-2号","购物;便利店"
"奥体便利店",39.994215,116.407572,"安定路1号-12附近","购物;便利店"
"迪亚天天(安贞西里店)",39.978908,116.401465,"北辰店安贞西里二区21号楼1层21-2室","购物;便利店"
"旺客隆惠新西里便利店",39.988098,116.427262,"惠新西街惠新西里(一区)附近","购物;便利店"
"京客隆(樱花东街便利店)",39.977222,116.431047,"樱花园东街11","购物;便利店"
"Happy+乐加和平西桥站B口地铁便利店",39.975136,116.425356,"北京市朝阳区地铁5号线和平西桥站东北口站前广场","购物;便利店"
"奥士凯便利店(汇丰店)",39.974464,116.430674,"朝阳区和平街十一区9号","购物;便利店"
"快客便利店(安贞店)",39.978314,116.413438,"安贞西里四区16-7","购物;便利店"
"佳怡乐食品店",39.973935,116.407169,"安华西里1区朝阳区少儿图书馆附近","购物;便利店"
"金星食品店",39.967983,116.430045,"东城区和平里七区14号","购物;便利店"
"哈哈镜便利店",39.969771,116.405114,"黄寺大街外馆西街2号住宅楼6门102号（联合大学西边）","购物;便利店"
"化工大院-便利店",39.966005,116.42305,"兴化东里14号化工大院社区","购物;便利店"
"好邻居便利店(和平西街店)",39.975061,116.429234,"朝阳区和平街11区甲16楼一层","购物;便利店"
"好邻居便利店(兴化店)",39.965878,116.420385,"兴化西里2号楼南侧平房","购物;便利店"
"哈哈镜24小时便利店",39.969178,116.425164,"朝阳区和平西街和平里社区八区1-2(青年沟路口)","购物;便利店"
"安华小区-便民服务部",39.973237,116.401727,"北京市朝阳区安华西里一区30号附近","购物;便利店"
"好邻居便利店(安定门外大街分店)",39.965,116.4209,"北京市东城区","购物;便利店"
"汇鑫益民社区便利店",39.978753,116.405222,"北京市朝阳区","购物;便利店"
"Happy+乐加惠新西街南口站C口便利店",39.982931,116.42492,"北京市朝阳区地铁5号线惠新西街南口站前广场","购物;便利店"
"快客便利店(福建大厦北)",39.976455,116.405086,"安贞西里4区16号楼","购物;便利店"
"好邻居便利店(北苑路店)",39.980487,116.406425,"北苑路172号(安苑里小区东北)","购物;便利店"
"金润广便利店",39.969181,116.401758,"鼓楼外大街42号万网大厦斜对面","购物;便利店"
"地利通物业管理中心便利店",39.971525,116.414591,"安定门外大街10-3附近","购物;便利店"
"Happy+乐加北土城站D1口地铁便利店",39.983094,116.399421,"北京市朝阳区地铁10号线北土城站D1口站前广场","购物;便利店"
"金三元便民店(小关街道第六店)",39.995422,116.427814,"北京市朝阳区安慧东里","购物;便利店"
"海晏堂(华堂商场亚运村店)",39.994395,116.426961,"北四环东路108号千鹤家园B1层","购物;便利店"
"同城便利店",39.965026,116.411653,"青年湖北里单号","购物;便利店"
"小关东街永丰商店",39.983989,116.419984,"小关东里10-11北京工正装饰工程有限公司附近","购物;便利店"
"惠新里商店",39.98771,116.43066,"朝阳区对外经贸大学西门斜对面,近新辣道","购物;便利店"
"昆仑好客",39.965506,116.411614,"青年湖街3号","购物;便利店"
"旺盛胜龙综合商店",39.977522,116.423465,"北三环东路17号胜古庄社区","购物;便利店"
"金三元便民店(和平街街道第一店)",39.983503,116.427212,"北京市朝阳区北土城东路辅路","购物;便利店"
"金三元便民店",39.981958,116.413504,"安定路33号13-14层","购物;便利店"
"Happy+乐加安贞门站C口地铁便利店",39.98283,116.413502,"北京市朝阳区地铁10号线安贞门站东南口站前广场","购物;便利店"
"和平宾馆商店",39.969555,116.412202,"北京市朝阳区安定门外外馆斜街1号","购物;便利店"
"兴旺食品店",39.987464,116.428031,"朝阳区惠新西里一区5号(惠新西里一区东南)","购物;便利店"
"易捷便利店(富友店)",39.967759,116.412146,"北京市东城区安定门外大街11号","购物;便利店"
"惠新粮油食品店",39.98833,116.427257,"惠新北街附近","购物;便利店"
"小小超市",39.976772,116.424764,"樱花园西街18附近","购物;便利店"
"路友天桥商店",39.975546,116.40959,"安贞里三区16号","购物;便利店"
"奥士凯兴化西里便利店",39.966101,116.41751,"兴华社区","购物;便利店"
"房地置业大厦小卖部",39.996582,116.430059,"小营路25号房地置业大厦","购物;便利店"
"明光惠东便利店",39.997081,116.428452,"北京市朝阳区安慧东里","购物;便利店"
"3G便利店",39.9864,116.423019,"小关北里204楼底商","购物;便利店"
"盛杰旺平食品店",39.993881,116.422505,"惠新西街3号附近","购物;便利店"
"福达综合商店",39.969754,116.40329,"北京市朝阳区黄寺大街3号","购物;便利店"
"社区残疾人便民服务商店",39.988344,116.430581,"北京市朝阳区惠新里2号","购物;便利店"
"新欣小卖部",39.981036,116.411366,"北京市朝阳区健安东路","购物;便利店"
"惠然之顾社区综合服务店",39.980487,116.404691,"北京市安贞里第二小学附近","购物;便利店"
"樱花华福食品店",39.981565,116.425583,"朝阳区樱花园30号","购物;便利店"
"乐加地铁便利店",39.983603,116.411707,"北京市朝阳区北土城东路辅路","购物;便利店"
"双叶园便民店",39.974302,116.429993,"北三环东路16号附近","购物;便利店"
"保秀商店",39.978388,116.423215,"北京光电技术研究所宿舍附近","购物;便利店"
"LIQUAR(华堂商场亚运村店)",39.994437,116.427131,"北四环东路108号千鹤家园B1层","购物;便利店"
"鑫旺商店",39.970776,116.412417,"安华里四区2号楼门口","购物;便利店"
"晨佳通隆食品店",39.979792,116.424634,"北京市朝阳区樱花商务办公区附近","购物;便利店"
"胜古南里便利店",39.978219,116.422846,"北京市朝阳区","购物;便利店"
"乐乐食品店",39.971296,116.430787,"和平里东街附近","购物;便利店"
"方兴阁食品店",39.966869,116.426233,"东城区和平里七区22号","购物;便利店"
"金三元便民店(小关街道第三店)",39.99024,116.41725,"北苑路182号190号","购物;便利店"
"真优美惠百货商店",39.974469,116.431697,"朝阳区和平街12区9号楼底商(近北三环东路辅路)","购物;商铺"
"北京二商食品店",39.9656,116.401902,"安德里北街21号(近总政大院)","购物"
"智昊食品",39.998721,116.413077,"北京市朝阳区安立路8号北辰购物中心亚运村店1层","购物;便利店"
"HAPPY+乐加(北土城站东南口店)",39.983068,116.401965,"北三环","购物"
"三唐春辉超市樱花西街店",39.98144,116.423236,"健安东路胜古北里2号楼底商","购物"
"全都有韩国生活用品专门店",39.968919,116.424241,"和平西街21号天丰利商场4楼(近和平西桥)","购物"
"乐活城(北辰店)",39.997339,116.413298,"北京市朝阳区北辰东路8号北辰大厦B048号","购物"
"奇斌综合便民店",39.979781,116.418957,"北京市朝阳区","美食;小吃快餐店"
"九区便民超市(No.48325店)",39.966637,116.41944,"东城区兴化西里九区1号","购物"
"谊源自强烟酒便利店",39.97449,116.41787,"北京市朝阳区小黄庄北街2号","购物"
"北京梅竹沁商店",39.966448,116.43033,"北京市东城区和平里七区15号楼","购物"
"烟酒专营",39.983038,116.42698,"北京市朝阳区","购物"
"俊英盈盛便民店",39.972472,116.412426,"安贞街道安华里三区5号楼","购物"
"北京和丰永利食品店",39.969863,116.426935,"和平里西街和平街八区14号","购物"
"711便利店(安慧北里逸园店)",40.007778,116.419191,"北京市朝阳区安慧北里逸园17号楼1层入口门南侧第一跨房","购物;便利店"
"711便利店(小营路阳明广场店)",40.001135,116.430965,"小营路10号3号楼1层","购物;便利店"
"好邻居便利店(慧忠里店)",40.007866,116.413809,"慧忠里洛克时代亚奥国际广场D座一层1019号","购物;便利店"
"新奥便利",40.004626,116.399428,"北京市朝阳区国家体育场北路","购物;便利店"
"好邻居便利店(北苑路育慧北里店)",40.002066,116.427917,"北苑路甲166","购物;便利店"
"全时便利店",40.013533,116.422613,"朝阳北苑路大屯里109号楼","购物;便利店"
"全时便利店(银座9号大厦店)",40.000689,116.430451,"小营路9号3号楼102(亚运豪庭)","购物;便利店"
"好邻居便利店(秀园店)",40.005628,116.419425,"安慧北里秀园16号楼东一段竹荪餐厅分租东侧(海亚大厦西)","购物;便利店"
"711便利店(安慧东里店)",39.999736,116.427843,"北京市朝阳区安慧东里2号院3号楼106房","购物;便利店"
"逸园便利店",40.007333,116.420619,"安慧北里逸园8号楼","购物;便利店"
"易捷便利店(北苑路店)",39.999943,116.42291,"大屯路北苑路","购物;便利店"
"易捷便利店(安外大屯)",40.009409,116.424487,"北苑大屯乙228号","购物;便利店"
"盛辉食品店",40.00222,116.419135,"安慧北里11号楼","购物;便利店"
"大屯加油站-便利店",40.008442,116.427522,"安外大屯228号","购物;便利店"
"豆蔻年华便利店",40.004197,116.425793,"北苑路（近大屯路欧陆经典）170号凯旋城4号楼1层103(大屯路欧陆经典)","购物;便利店"
"便利店",40.0108,116.411925,"朝阳区慧忠里103楼1楼底商（近洛克时代中心）","购物;便利店"
"1号便利店",40.011829,116.416239,"润枫德尚6号楼","购物;便利店"
"Happy+乐加大屯路东站B1口便利店",40.01096,116.424159,"北京市朝阳区地铁5号线大屯路东站东北口站前广场","购物;便利店"
"华汇进兰便利店",40.011949,116.407926,"北京市朝阳区慧忠北里217","购物;便利店"
"奥林匹克森林公园南园-南商品部",40.017217,116.403118,"北京市朝阳区科荟路33号奥林匹克森林公园南园内","购物;便利店"
"华天伦便利店",40.005356,116.408161,"慧中里卧龙小区22楼对面(亚运村)","购物;便利店"
"吉利石油北苑加油站-便利店",40.030306,116.423522,"北京市朝阳区北苑路","购物;便利店"
"绿动元便利店",40.00531,116.413596,"慧忠里122号观巢一层(安立路与慧忠北路交叉口西北角)","购物;便利店"
"安慧里一区-静安伟业百货商店",40.000521,116.420771,"慧忠路1号","购物;便利店"
"奥林匹克森林公园北园-商品部",40.032907,116.405275,"北京市朝阳区安立路奥林匹克森林公园北园内","购物;便利店"
"北京奥林匹克公园服务站",40.011141,116.40283,"湖景东路和大屯北路的交叉口附近","购物;便利店"
"奥林匹克森林公园北园-东二商品部",40.033149,116.407252,"北京市朝阳区安立路奥林匹克森林公园北园内","购物;便利店"
"财会来商店",40.01336,116.412759,"北京市朝阳区慧忠北里116","购物;便利店"
"奥林匹克森林公园北园-商品部",40.031496,116.404746,"北京市朝阳区安立路奥林匹克森林公园北园内","购物;便利店"
"易捷便利店(慧忠路北一路)",40.00271,116.415074,"北苑路168号","购物;便利店"
"质好佳商店",40.002,116.410135,"慧忠里小区415楼","购物;便利店"
"好食多进口食品超市",40.029963,116.420016,"景龙国际9号底商","购物"
"思联百货销售部",40.004,116.421364,"安慧北里秀园12号楼","购物"
"盛和利达商贸",40.000879,116.420119,"安慧里一区6","购物"
"嘿客(博世祥园店)",40.008264,116.407403,"北辰东路6号博世祥园底商6-2","购物"
"尚好心情",40.001136,116.421033,"北京市朝阳区安慧里一区1-5号附近","购物"
"全时便利店(宋家庄扑满山店)",39.851447,116.433993,"北京市丰台区宋庄路71号院9幢01层101内112","购物;便利店"
"快客便利店(成寿寺店)",39.855663,116.452104,"成寿寺路31号2号楼1号底商","购物;便利店"
"康美商店",39.828237,116.468461,"朝阳区小红门乡三台山村187号","购物;便利店"
"易捷便利店(成寿寺路)",39.855439,116.452882,"成寿寺路关家坑村205号","购物;便利店"
"中国石油便利店",39.846416,116.453051,"朝阳区成寿寺路甲68号404室","购物;便利店"
"易捷便利店(横一条店)",39.858483,116.440295,"丰台区横一条30号","购物;便利店"
"中国石油便利店",39.824978,116.461659,"北京市大兴区小红门路","购物;便利店"
"星宇便利店(No.1100581店)",39.857662,116.433816,"丰台区顺六条11号","购物;便利店"
"逸格便利店",39.853872,116.453128,"成寿寺路都市风电动车旁","购物;便利店"
"便民超市",39.851321,116.448494,"成仪路2号","购物;便利店"
"同心便利店",39.840647,116.453985,"成寿寺路233号附近","购物;便利店"
"靓点便利店",39.847888,116.449488,"北京市丰台区","购物;便利店"
"红寺超强便利店",39.841784,116.442859,"北京市朝阳区","购物;便利店"
"双杨开泰小卖部",39.842845,116.466733,"北京市朝阳区龙爪树六十九号城兴城汽配城C区1号","购物;便利店"
"北京来宝百货店",39.833477,116.464596,"小红门社区卫生服务站附近","购物;便利店"
"福贵来食品店",39.856474,116.435082,"宋庄路43号附近","购物;便利店"
"宏瑞丰日用百货",39.857255,116.438307,"北京市丰台区顺六条","购物;便利店"
"德福缘超市",39.857847,116.443575,"德福缘小区3号楼108室","购物"
"京明商品部",39.840636,116.443165,"北京市朝阳区南顶路","购物"
"皮皮日用品中心(丰台店)",39.853783,116.440781,"宋家庄东铁营苇子坑109号3G木兰2-429号","购物"
"锦江之星天坛公园店-商品部",39.89312,116.43492,"法华南里1号楼","购物;便利店"
"711便利店(光明桥东南侧店)",39.889559,116.457749,"北京市朝阳区劲松五区519楼一层北侧","购物;便利店"
"711便利店(紫芳园店)",39.867988,116.446422,"北京市丰台区紫芳园四区3号楼1-10号房1层","购物;便利店"
"全时便利店(十里河店)",39.871767,116.46642,"东三环南路102号强强酒店1楼106C室","购物;便利店"
"好邻居便利店(农光南里分店)",39.884769,116.468292,"朝阳区潘家园路潘家园桥(近松榆北路;近东三环南路辅路)","购物;便利店"
"快客便利店(no.8212)",39.890513,116.460484,"劲松二区222号楼","购物;便利店"
"全时便利店(鑫源国际店)",39.863003,116.451025,"鑫源国际1号楼","购物;便利店"
"迪亚天天劲松店",39.886027,116.454656,"劲松七区709","购物;便利店"
"快客便利店(南三环东路辅路店)",39.865306,116.442684,"方庄芳星园三区20号楼一层底商","购物;便利店"
"方庄社区便民商店",39.869477,116.437075,"北京市丰台区","购物;便利店"
"全时便利店(金城中心店)",39.865177,116.438244,"南三环东路19号金城中心","购物;便利店"
"罗森(海文大厦)",39.887706,116.466955,"劲松南路1号海文大厦1层108室","购物;便利店"
"24小时便利店",39.887569,116.453222,"劲松八区","购物;便利店"
"勤家便利店(潘家园店)",39.881765,116.45371,"朝阳区潘家园南里27号楼漪龙台大厦","购物;便利店"
"快客便利店(no.8367)",39.889901,116.447207,"东城区夕照寺街32号","购物;便利店"
"迪亚天天便利店(芳城园店)",39.875128,116.44321,"北京市丰台区芳城园一区4号楼4-44号","购物;便利店"
"淑萍红食品店",39.88688,116.440606,"左安门内大街9号附近","购物;便利店"
"易捷便利店(南三环东路)",39.865198,116.45354,"南三环东路13号","购物;便利店"
"易捷便利店(东三环南路辅路)",39.873988,116.468038,"东三环南路88号1中石化加油站内(十里河桥北)","购物;便利店"
"环线便利潘家园店",39.885597,116.466954,"东三环南路13号乐游饭店底商","购物;便利店"
"华威路加油站-便利店",39.887826,116.465785,"劲松华威北里东","购物;便利店"
"小百货商店",39.860299,116.434694,"北京市丰台区","购物;便利店"
"兰兰便利店",39.892052,116.468687,"东三环南路56号","购物;便利店"
"快客便利店",39.881176,116.468422,"北京市朝阳区松榆北路2号","购物;便利店"
"吉利石油朝阳加油站-便利店",39.877817,116.462924,"北京市朝阳区华威路","购物;便利店"
"易捷便利店(左安门内大街)",39.881995,116.446226,"北京市左安门内大街甲2号","购物;便利店"
"便利店",39.863978,116.433802,"丰台区东铁匠营","购物;便利店"
"三环食品商店",39.866396,116.457774,"南三环东路辅路南三环东路方庄东路入口路口附近","购物;便利店"
"上好佳",39.865986,116.450432,"紫芳园六区2号楼1单元","购物;便利店"
"快客(夕照寺街店)",39.889931,116.447354,"夕照寺中街绿景苑3号楼底商","购物;便利店"
"鹏程大肉",39.871579,116.435261,"北京市丰台区蒲芳路２４号北京方庄购物中心1层","购物;便利店"
"晨阳惠友商店",39.890947,116.462243,"劲松二区208号院1-3号","购物;便利店"
"昆仑好客便利店",39.872205,116.463978,"十里河左安东路","购物;便利店"
"小卖部",39.893555,116.465408,"北京市朝阳区","购物;便利店"
"老刘鸡场直销鲜鸡蛋",39.860105,116.435006,"宋庄路顺四条","购物;便利店"
"易捷便利店(南三环东路辅路)",39.864234,116.450184,"丰台区南三环东路辅路四方景园一区东北侧50米","购物;便利店"
"琳楠便利店",39.881532,116.445432,"左内大街左安溪园小区2号楼底商","购物;便利店"
"北京城园秀珍商店",39.876094,116.441998,"芳城园一区10号楼东侧首层10-111","购物;便利店"
"金良兴顺便利店",39.883473,116.461706,"北京市朝阳区潘家园东里28咐近","购物;便利店"
"社区便民店",39.891829,116.46398,"北京市朝阳区劲松一区122号","购物;便利店"
"幸福村副食商店",39.888804,116.438224,"幸福东街1-1","购物;便利店"
"同升食品店",39.86156,116.43836,"顺三条6号","购物;便利店"
"煎饼超市",39.89318,116.46576,"北京市朝阳区","购物;便利店"
"北京全发食品店",39.87922,116.445653,"左安浦园小区6号楼底商","购物;便利店"
"美江华食品店",39.890582,116.459093,"劲松二区226号楼","购物;便利店"
"利得食品店",39.868209,116.444567,"北京市丰台区芳星园三区1号","购物;便利店"
"食杂商店",39.876007,116.449654,"十里河村7","购物;便利店"
"友缘幸福综合商店",39.89196,116.440135,"北京市东城区","购物;便利店"
"兴盛商店",39.859619,116.449943,"北京市丰台区成寿寺中路2号院2号","购物;便利店"
"社区便利店",39.885834,116.455505,"北京市朝阳区劲松七区707号","购物;便利店"
"文兴轩便民店",39.862987,116.437257,"北京市丰台区","购物;便利店"
"风馨佳便民食品店",39.875484,116.439937,"方庄芳城园一区12号(建设银行北邻)","购物;便利店"
"久德厚",39.860469,116.434049,"北京市丰台区顺四条","购物;便利店"
"新发地社区蔬菜水果便利店方庄店",39.875663,116.440201,"北京市丰台区二环","购物;便利店"
"勤家便利连锁超市华威老秦店",39.885164,116.462533,"潘家园东里23号","购物;超市"
"潘家园信托店",39.882569,116.457763,"潘家园东路9号附近","购物;商铺"
"京福世纪商贸十里河店",39.874787,116.46672,"东三环南路17号","购物"
"弘喜超市",39.875602,116.45939,"北京市朝阳区弘善家园315号楼1楼","购物"
"蒲三粮超市(芳星园店)",39.867562,116.442678,"北京市丰台区","购物"
"中酒连锁(方庄店)",39.865979,116.451027,"紫芳园六区2号楼1层5单元109","购物"
"利民商店",39.889015,116.453507,"劲松八区830","购物"
"方芳食品店",39.87255,116.444234,"芳城园三区13","购物"
"便民食品店",39.884383,116.459869,"北京市朝阳区","购物"
"光辉食品店",39.890528,116.446775,"光明楼42","购物"
"永康辉肉类超市(顺四条店)",39.860251,116.436194,"北京市丰台区","购物"
"友谊购物中心店",39.914836,116.449637,"北京市朝阳区建国门外大街17号","购物;便利店"
"711便利店(光华东里店)",39.916824,116.462716,"北京市朝阳区光华东里8号院1号楼-114内B1-10A","购物;便利店"
"罗森(环球金融中心店WFC)",39.924382,116.465329,"北京市朝阳区东三环中路1号环球金融中心负一层","购物;便利店"
"711便利店(昆泰国际店)",39.928619,116.44795,"朝阳区朝外门大街乙12号1号楼昆泰国际大厦底商(近神路街)","购物;便利店"
"711便利店(建外SOHO8号楼店)",39.91144,116.464844,"东三环中路39号建外SOHO10号楼","购物;便利店"
"711便利店(东大桥路口南侧店)",39.927712,116.454187,"朝阳区朝外大街38号1楼(东大桥路口西南侧)","购物;便利店"
"711便利店(建外日坛路店)",39.915292,116.447837,"朝阳区建国门外大街19号国际大厦C座一层南侧商铺(国际大厦、儿研所)","购物;便利店"
"711便利店(永安东里店)",39.911621,116.457209,"北京市朝阳区建国门外大街永安东里平房1号院A座101","购物;便利店"
"711便利店(建国路嘉华世纪店)",39.911585,116.447406,"北京市朝阳区建国路18号嘉华世纪1-102号商铺","购物;便利店"
"蟠桃宫便利店",39.906479,116.435882,"北京市东城区崇文门东大街8-2","购物;便利店"
"中国石油首汽加油站便利店",39.912492,116.452321,"灵通观13号楼临乙13号","购物;便利店"
"711便利店(金宝街东口店)",39.927753,116.438243,"北京市东城区南竹杆胡同6号楼一层东北角","购物;便利店"
"全时便利店(北京站东侧店)",39.910611,116.441032,"建国门南大街7号万豪酒店1楼(近北京火车站)","购物;便利店"
"711便利店(双井桥优士阁店)",39.898823,116.465735,"朝阳区广渠门外大街8号优士阁C座1楼3号(近双井桥)","购物;便利店"
"711便利店(崇文花市枣苑店)",39.903266,116.436784,"北京市东城区东花市东大街花市枣苑甲3号","购物;便利店"
"711便利店(中环世贸店)",39.913274,116.46308,"北京市朝阳区建国门外大街甲6号地下二层餐厅南侧","购物;便利店"
"全时便利店(永安里店)",39.912858,116.454307,"建国门外永安西里10号(近119中学)","购物;便利店"
"711便利店(东大桥路一号店)",39.925417,116.458343,"北京市朝阳门外大街甲6号万通中心D座2层","购物;便利店"
"711便利店(金汇路西侧店)",39.923207,116.458574,"朝阳区东大桥路10号世界城E座B1楼星美影城对面(近同一首歌KTV)","购物;便利店"
"711便利店(建华南路店)",39.912831,116.451332,"北京市朝阳区建华南路6号院1号楼102A(宜必思酒店东侧)","购物;便利店"
"好邻居便利店(建外大街店)",39.912254,116.446509,"永安里中街25号临丙25号","购物;便利店"
"好邻居便利店(朝阳门店)",39.923603,116.443178,"北京市朝阳区外交部南街8号京华豪园南座213-C号","购物;便利店"
"快客便利店(光华里)",39.918911,116.461733,"建国门外光华里1号","购物;便利店"
"全时便利店(银河SOHO店)",39.926042,116.4394,"北京东城区小牌坊胡同甲7号银河SOHO中心-1层5-166","购物;便利店"
"全时便利店(灯市口)",39.928461,116.438304,"北京市东城区东水井胡同11号北京INN4号楼1层","购物;便利店"
"快客便利店(no.8362)",39.894919,116.444146,"东城区夕照寺中街绿景苑3号楼底商","购物;便利店"
"全时便利店(长安驿店)",39.911951,116.450855,"北京市朝阳区建华南路6号院3号楼1层110室","购物;便利店"
"京捷便利店",39.929086,116.45556,"朝阳区东大桥路口西北角(蓝岛大厦对面)","购物;便利店"
"711便利店(美华世纪店)",39.910779,116.450274,"建华南路15号美华世纪大厦1楼1楼(近丽舍服务公寓)","购物;便利店"
"711便利店(金桐西路店)",39.921404,116.460815,"北京市朝阳区金桐西路11幢地下一层-111部分(远洋・光华国际AB,北京辉盛阁国际公寓下面)","购物;便利店"
"尚都便利店",39.92429,116.459576,"北京市朝阳区东大桥路８号ＳＯＨＯ尚都北塔1层","购物;便利店"
"快客便利店(永安西里店)",39.912864,116.453013,"永安西里9号北京铁路宾馆北侧","购物;便利店"
"711便利店(双井桥星光大道店)",39.90312,116.464784,"富力家园商业7-01中国银行对面","购物;便利店"
"好邻居便利店(建华南路店)",39.91141,116.450137,"建外大街建华南路丽舍公寓一层","购物;便利店"
"24H便利店",39.904095,116.465198,"北京市朝阳区","购物;便利店"
"优康便利店(泛利大厦店)",39.928466,116.446879,"（东二环朝阳门桥东南角外交部东侧泛利大厦地下一层大堂入口）东三环中路39号建外SOHO15幢1层SH-1519号","购物;便利店"
"全时便利店(嘉禾国信大厦店)",39.901207,116.44576,"白桥大街15号1层101-01","购物;便利店"
"福祥百货店",39.917031,116.461948,"秀水南街和秀水东街的交叉口附近","购物;便利店"
"711便利店(长安驿店)",39.912113,116.450664,"建华南路6号院1号楼地杰长安驿102A号底商(近宜必思)","购物;便利店"
"物美便利店(北京站东街)",39.911254,116.440971,"北京市东城区北京站东街","购物;便利店"
"冉冉烟酒超市",39.923188,116.464151,"朝阳门外大街6号新城・国际附近","购物;便利店"
"富贵客便利店",39.900934,116.440248,"东花市南里四区1号楼底商","购物;便利店"
"CEHR日杂店",39.923511,116.447423,"朝外市场街和日坛北路的交叉口附近","购物;便利店"
"多百客便利店",39.925714,116.461656,"朝阳区朝阳门外大街乙6号朝外SOHO-C座6层0632室(近万通大厦)","购物;便利店"
"快客便利店(东三环中路辅路店)",39.903641,116.468588,"朝阳区双井(近东三环中路辅路)","购物;便利店"
"VanGO 便利店",39.918926,116.440442,"北京市东城区建国门外北大街8号华润大厦1层","购物;便利店"
"豆蔻年华便利店(城建物美店)",39.897851,116.453782,"双井广渠家园9号冠城名敦道A9写字楼一层西侧(广渠门桥东南角)","购物;便利店"
"一山一蓝(朝阳门华联店)",39.928865,116.436739,"北京市东城区南竹竿胡同6号楼2层","购物;便利店"
"尤拉便利店",39.920237,116.447542,"北京市朝阳区","购物;便利店"
"三丰里便民店",39.926505,116.445256,"西城区三丰胡同17号","购物;便利店"
"久诚信商店",39.929188,116.455478,"北京朝阳区工体东路15号楼南","购物;便利店"
"民乐烟店",39.917648,116.462003,"建外光华里","购物;便利店"
"全时便利店(建外店)",39.912421,116.459805,"东三环中路39号院18建外SOHO西区18号楼1层","购物;便利店"
"易捷便利店(朝阳门外大街辅路)",39.927337,116.460043,"关东店路33号","购物;便利店"
"711便利店(光华路东口店)",39.91886,116.458276,"北京市朝阳区光华路22号光华路soho1层102a","购物;便利店"
"无难便利店",39.922455,116.464007,"朝阳区关东店6号楼底商(近地铁金台夕照站)","购物;便利店"
"快客便利店(建外SOHO店)",39.91127,116.465583,"东三环中路39号院建外SOHO5号0106B","购物;便利店"
"易捷便利店(日坛路)",39.917963,116.447151,"日坛路9号中石化加油站内","购物;便利店"
"多利速拿便利店",39.904125,116.465247,"朝阳区东三环南路天力街3号富力城小区B3座1楼","购物;便利店"
"心优品",39.922681,116.46119,"北京市朝阳门外大街乙6号朝外SOHOD座1层","购物;便利店"
"齐家园超市",39.915373,116.45779,"光华西里甲9-2","购物;便利店"
"金三元便民店",39.926651,116.45226,"芳草地西街23号附近","购物;便利店"
"安购便利店",39.927463,116.439874,"北京市东城区小牌坊胡同甲七号银河SOHOB1层","购物;便利店"
"和谐大卖场(北京站店)",39.911647,116.434526,"站前街18号","购物;便利店"
"北京市孟庆项超市",39.927712,116.466729,"向军南里二巷5-3","购物;便利店"
"天娇园便利店",39.903985,116.445563,"东城区白桥大街天娇园底墒(天骄园小区)","购物;便利店"
"德顺食品店",39.922892,116.445111,"朝外二条东巷雅宝里社区(南二门)附近(儿研所)","购物;便利店"
"光复商店",39.924151,116.452658,"日坛北路9附近","购物;便利店"
"兴茂平价商店",39.921957,116.443099,"雅宝路7附近","购物;便利店"
"新仓利商店",39.92324,116.435621,"北京市东城区禄米仓胡同71号2","购物;便利店"
"乐加地铁便利",39.92231,116.467411,"景华街附近","购物;便利店"
"一家店便利体验店(永安里丰谊店)",39.912552,116.457119,"永安东里11","购物;便利店"
"鸿露缘商店",39.911227,116.43726,"北京市东城区","购物;便利店"
"榕榕食品店",39.912481,116.439973,"东城区柳罐胡同2号","购物;便利店"
"纬晟食品店",39.897434,116.446909,"广渠南水关胡同","购物;便利店"
"玉柳商店",39.924651,116.452948,"芳草地西街10芳西街心花园附近","购物;便利店"
"艾沃家便利店",39.928025,116.43954,"北京市东城区朝阳门内大街2号朝阳门SOHO写字楼B1层","购物;便利店"
"随e购北京邻福隆商店NO.0057店",39.925937,116.454011,"朝阳区芳草地北巷与芳草地西巷交叉口","购物;便利店"
"Wownew(新城国际店)",39.922711,116.461199,"朝阳区朝阳门外大街6号新城国际公寓16号楼101号(近京广中心)","购物;便利店"
"快客便利店(朝外SOHO店)",39.912753,116.463394,"朝阳门外大街甲6万通中心地下1层1006","购物;便利店"
"永光商店",39.899898,116.459446,"北京市朝阳区","购物;便利店"
"惠美便利店",39.894969,116.44868,"东城区夕照寺中街秦馆面道西侧","购物;便利店"
"BOX OFFICE(北京富力广场购物中心)",39.899988,116.467195,"东三环中路65号F4层","购物;便利店"
"海洋商店",39.912324,116.458005,"建华南路附近","购物;便利店"
"金钰英商店",39.924651,116.452948,"芳草地西街甲6附近","购物;便利店"
"青山安农1号店",39.92293,116.462967,"朝阳门外大街6号院11号楼11-102","购物;便利店"
"7eleven(昆泰国际大厦二店)",39.928422,116.448032,"北京市朝阳区朝外大街乙12号昆泰国际大厦1层","购物;便利店"
"灵通观便民店",39.91212,116.452818,"永安里中街灵通观12号楼底商","购物;便利店"
"兴悦苑食品店",39.927813,116.45237,"三丰胡同附近","购物;便利店"
"北京百多客便利店",39.926128,116.461339,"朝阳门外大街乙6号朝外SOHOD座0632","购物;便利店"
"汇千美便利店",39.926266,116.458583,"东大桥关东店28号宫霄酒店一层","购物;便利店"
"快客便利店",39.918704,116.435967,"北京市东城区建国门内大街8北京中粮广场购物中心B3层","购物;便利店"
"外交部家委会便民食品店",39.91714,116.459847,"北京市朝阳区光华里18号楼","购物;便利店"
"比林商店",39.925628,116.445636,"三丰南巷附近","购物;便利店"
"云阿青食品店",39.89729,116.467297,"北京市朝阳区垂杨柳八棵杨5号","购物;便利店"
"Eleven(光华路SOHO)",39.918772,116.458311,"光华路22号F1层","购物;便利店"
"KINGCO(赛特购物中心)",39.913302,116.448332,"建国门外大街22号赛特购物中心B2","购物;便利店"
"玉华食品店",39.927878,116.452454,"芳草地西街朝外南街路口附近","购物;便利店"
"敬秀山商店",39.924151,116.452658,"朝外大街芳草地西街8号楼底商","购物;便利店"
"来福便利店",39.918745,116.456578,"朝阳区东大桥路45号(埃及大使馆东北)","购物;便利店"
"聚美德商店",39.901329,116.443477,"白桥西里本家・润园(南门)附近","购物;便利店"
"触购送货便利店",39.925411,116.461311,"朝阳门外大街乙6号朝外SOHO大厦B座3019号","购物;便利店"
"ONE SHOP便利店",39.911233,116.460175,"东三环中路39号建外SOHO西区17号楼1楼","购物;便利店"
"捷洁便利店",39.926187,116.445367,"三丰胡同（三丰17号东北侧）","购物;便利店"
"EASY JOY便利店",39.917739,116.447207,"北京市朝阳区日坛路9号","购物;便利店"
"芳草木兰商店",39.924151,116.452658,"日坛北路9附近","购物;便利店"
"恩三百货商店",39.924151,116.452658,"日坛北路9附近","购物;便利店"
"老马粮油调料便利店",39.895523,116.462226,"垂杨柳西里1","购物;便利店"
"金贝来食品店",39.923293,116.455615,"朝阳区日坛北路2号","购物;便利店"
"长胜春丽便利店",39.912257,116.452742,"朝阳区永安里中街25号","购物;便利店"
"家盛世纪",39.926115,116.445659,"朝外大街三丰里27号楼北侧","购物;便利店"
"华益商店",39.925308,116.445682,"小牌坊胡同37附近","购物;便利店"
"百味和缘",39.925567,116.461753,"北京市朝阳区门外大街乙6号朝外SOHOC座0156-2","购物;便利店"
"秋之苑食品百货店",39.899137,116.44187,"广渠门内大街12号旁","购物;便利店"
"快客便利店(建外二店)",39.912124,116.459534,"东三环中路39号院建外soho5号楼建外SOHO5号楼1层","购物;便利店"
"优康便利店(建外SOHO二店)",39.910471,116.459459,"东三环中路39号建外SOHO15幢1层SH-1519号(东三环国贸桥西南角建外SOHO西区15号楼一层入口)","购物;超市"
"婕妮王超市（友谊商店店）",39.91536,116.450128,"北京市建国门外大街17号F1层","购物"
"北京藤钺鑫食品店",39.927391,116.45212,"朝阳区芳草地西街15号","购物;商铺"
"Jenny Lou's(日坛店)",39.923204,116.45357,"日坛北路4号","购物"
"绿叶子(双井店)",39.902782,116.457468,"北京市朝阳区双井富力城D区18-06号","购物"
"Wonder+",39.925253,116.456427,"东大桥路9北京侨福芳草地购物中心地下2层25","美食;蛋糕甜品店"
"进口食品",39.904803,116.466554,"双花园南里三区19-2","购物"
"维迈进口食品日用品零售店(北京东城富贵园店)",39.900809,116.440301,"广渠门内大街富贵园购物中心东侧富贵园四区西门","购物"
"卖醉超市",39.923126,116.453458,"日坛北路4号","购物"
"北京礼品超市",39.910162,116.435761,"老钱局胡同10号附近","购物"
"BLT精品超市(双井富力广场店)",39.901134,116.467459,"东三环中路65号ViVa富力广场购物中心B1层","购物"
"盼盼超市(圆融商务北)",39.923215,116.463934,"朝阳门外大街6号新城・国际附近","购物"
"全时名敦道店",39.898613,116.454262,"广渠家园3","购物"
"燕巢",39.929119,116.448398,"朝阳门外大街10号昆泰大厦1楼","购物"
"水果配送",39.917254,116.462794,"光华东里社区","购物"
"东花市爱婷食品店",39.903778,116.441131,"东花市北里中区13号","购物"
"乐活天天",39.896451,116.462242,"垂杨柳中街(近华仁医院)","购物"
"粮膳坊",39.89855,116.43557,"广渠门内大街幸福家园小区5号楼101室","购物"
"LU生活无限(广渠门店)",39.899881,116.439444,"广渠门内大街东花市南里三区富贵园购物中心","购物"
"新发地果蔬便民超市(181菜篮子综合超市)",39.896532,116.456442,"广渠家园24号楼旁边(富力城D区)","购物"
"ume卖品部(北京富力广场购物中心)",39.901439,116.467348,"东三环中路65号北京富力广场购物中心F5层","购物"
"世元小店",39.925462,116.444143,"三丰里4号","购物"
"建国天顺食品店",39.918907,116.437138,"东城区小羊宜宾胡同1、9号","购物"
"磊金鑫超市",39.896769,116.43839,"培新街甲5号培新宾馆(西门)附近","购物"
"萨沙商店",39.921605,116.445731,"雅宝路3附近","购物"
"烟酒食品店",39.906604,116.454629,"北京市朝阳区","购物"
"天天胜达食品店",39.903251,116.439852,"东花市大街56-1","购物"
"麦得多便民店",39.901186,116.437318,"南小市口街口西50米","购物"
"711便利店(东直门内大街店)",39.947503,116.436675,"北京市东城区","购物;便利店"
"佳龙阳光酒店朝阳门店C座-便利店",39.930823,116.437065,"朝阳门内大街75号","购物;便利店"
"711便利店(工体北路西口店)",39.938547,116.443399,"工人体育场北路66号瑞士公寓2号楼商业109单元","购物;便利店"
"711便利店(春秀路店)",39.946339,116.449328,"北京市东城区春秀路17号楼以北","购物;便利店"
"全时便利店(三里屯店)",39.93813,116.461092,"工人体育场北路21号楼1层101内F1―32a","购物;便利店"
"711便利店(天元港店)",39.961381,116.466108,"朝阳区东三环北路丙2号天元港中心B座B1楼16号(近霄云路)","购物;便利店"
"711便利店(东四十条一号店)",39.93856,116.437084,"北京市东城区东四十条甲22号1幢一层A2号","购物;便利店"
"中油首汽六号站便利店",39.954416,116.460513,"新源南路14号院","购物;便利店"
"绿叶子超市(三里屯店)",39.948681,116.459286,"三里屯北小街1号","购物;便利店"
"711便利店(东土城路店)",39.95974,116.439165,"东土城路12号怡和阳光大厦A座","购物;便利店"
"711便利店(朝阳吉庆里店)",39.933944,116.447172,"北京市朝阳区朝阳门外大街吉庆里14号佳汇国际中心1层","购物;便利店"
"京客隆(春秀路店)",39.945126,116.451377,"北京市东直门外大街春秀路21号楼5号","购物;便利店"
"便利店",39.945429,116.461857,"朝阳区三里屯路北29号楼","购物;便利店"
"乐佳全美便利店",39.96002,116.468424,"东三环北路甲2号京信大厦1楼东大厅(近霄云路)","购物;便利店"
"711便利店(大新华航空大厦店)",39.963803,116.46413,"东三环北路2号大新华航空大厦旁","购物;便利店"
"711便利店(东三环白家庄路店)",39.934395,116.466171,"北京市朝阳区白家庄路1-6","购物;便利店"
"全时便利店(东大桥店)",39.930001,116.457519,"工体东路20号百富国际大厦裙房1C（春平广场边上）","购物;便利店"
"全时便利店(汇鑫写字楼店)",39.931394,116.467797,"向军北里6号楼一层102室","购物;便利店"
"全时便利店",39.944674,116.450898,"北京市朝阳区春秀路7号","购物;便利店"
"711便利店(东城新中街店)",39.941871,116.447823,"北京市东城区新中街18号阳光都市社区公建一层","购物;便利店"
"711便利店(新源里店)",39.9539,116.457164,"北京市朝阳区新源里16号世方豪庭二期1层1座0103号","购物;便利店"
"好邻居便利店(东营房店)",39.936327,116.446671,"东城区吉士口东路聚龙花园对面东营房八条3号楼","购物;便利店"
"阳光润明便利店",39.944509,116.446144,"新中街18号公建楼1层","购物;便利店"
"三木便利店",39.94275,116.455405,"朝阳区幸福二村巷首开幸福广场39-5号(近幸福村中路)","购物;便利店"
"柠檬树24小时便利店",39.953623,116.445814,"北京市东城区香河园街１号万国城ＭＯＭＡ商业中心1层","购物;便利店"
"快客便利店(新中街店)",39.944948,116.445437,"北京市东城区东中街29号东环广场B座1层","购物;便利店"
"超萍安便利店",39.950586,116.448225,"胡家园34号附近","购物;便利店"
"杨记商店",39.935194,116.434675,"南门仓胡同2-3","购物;便利店"
"好邻居便利店(工人体育场北路分店)",39.942084,116.450613,"工人体育场北路1号4号楼一层","购物;便利店"
"好邻居便利店(东土城店)",39.957514,116.438957,"东土城路13号院1号楼","购物;便利店"
"台北便利店",39.937909,116.467798,"朝阳区朝阳东三环白家庄(松子日本料理白家庄店斜对面)","购物;便利店"
"711便利店(中纺街南口店)",39.929835,116.462017,"朝阳区朝阳北路三里屯南路路口东北复星国际中心1F","购物;便利店"
"快客便利店(国华投资大厦店)",39.945028,116.438949,"东直门南大街3号北京电信通（国华投资大厦光纤宽带接入营业厅）B1层","购物;便利店"
"快客便利店(no.8318)",39.941475,116.450115,"工体北里5号楼","购物;便利店"
"快客便利店(东直门店)",39.94944,116.441199,"东城区东直门北大街12号楼(近东方银座)","购物;便利店"
"快客便利店(no.8217)",39.932902,116.461966,"朝阳区南三里屯路16号(华腾商务北)","购物;便利店"
"好邻居便利店(工体南路店)",39.93249,116.45747,"朝阳区工体南路东南角(朝阳医院西侧)","购物;便利店"
"全时便利店(复星国际中心店)",39.929745,116.462017,"北京市朝阳区朝阳北路237号楼复星国际中心1层102室","购物;便利店"
"金色内蒙古(东四十条店)",39.9399,116.436092,"东四十条甲25号(青蓝大厦对面)","购物;便利店"
"Happy+乐加团结湖站B口地铁便利店",39.940505,116.468678,"北京市朝阳区地铁10号线团结湖站东北口站前广场","购物;便利店"
"快客便利店",39.958357,116.462785,"三源里街16号","购物;便利店"
"丹彤便利(左家庄店)",39.961963,116.452353,"左家庄东里3号静安市场","购物;便利店"
"全时便利店(琨莎中心店)",39.954542,116.457325,"新源里16号院琨莎中心3座1层101号","购物;便利店"
"罗森便利店(富华大厦)",39.936388,116.442742,"东城区朝阳门北大街8号富华大厦d座一层1-a","购物;便利店"
"快客便利店(新源南路分店)",39.953008,116.457314,"朝阳区新源南路12号(近新东路)","购物;便利店"
"聚德缘意商店",39.92959,116.463261,"朝阳北路235号附近","购物;便利店"
"711便利店(新源南路店)",39.956099,116.467363,"北京市朝阳区新源南路1号-1至4层101内地下一层","购物;便利店"
"日日升便利店三里屯店",39.942038,116.463931,"东三里屯中14-2","购物;便利店"
"快客便利店(柳芳南里店)",39.960158,116.446109,"朝阳区左家庄西街柳芳南里甲1号楼底商","购物;便利店"
"优康便利店(嘉盛SOHO店)",39.935081,116.467295,"东三环北路甲19号楼一层105号（东三环长虹桥西南角嘉盛SOHO中心一层商场内电梯旁）","购物;便利店"
"新中铭新食品店",39.938573,116.444917,"东城区新中西街4楼4门101号","购物;便利店"
"帅佐便利店",39.938741,116.460777,"工人体育场北路甲8号三里屯SOHO2号楼1层","购物;便利店"
"福来百货商店",39.953603,116.441138,"东直门北大街4号","购物;便利店"
"711便利店(第五广场店)",39.93711,116.43898,"北京市东城区朝阳门北大街5号第五广场地上一层","购物;便利店"
"惠尔佳商店(东中街店)",39.941585,116.443273,"东中街42","购物;便利店"
"全时便利店(东直门桥南店)",39.943189,116.441292,"北京市东城区东直门南大街8号楼院1号楼1层1-5内102","购物;便利店"
"友联食品商店",39.950451,116.436329,"东直门内民安街16号楼底商(俄罗斯大使馆南门斜对面)","购物;便利店"
"快客便利店(南门仓胡同店)",39.935156,116.4347,"东城区南门仓胡同2-4号","购物;便利店"
"迪亚天天（柳芳店）",39.962003,116.44541,"柳芳北里10楼前临甲10号","购物;便利店"
"好佳便利店(工体西路店)",39.934251,116.449807,"北京极栈酒店东侧路南","购物;便利店"
"便利店",39.945077,116.442555,"北京市东城区","购物;便利店"
"快客便利店(no.8201)",39.960273,116.452893,"香河园中里10号楼","购物;便利店"
"聚汇堂便利店",39.963501,116.467808,"三元桥东霞光里66号院远洋新干线","购物;便利店"
"北京宇星冉便利店",39.943611,116.45912,"幸福三村北街1号北信租赁中心附近","购物;便利店"
"金三元便利店",39.934329,116.464083,"白家庄路2-6附近","购物;便利店"
"渤海平价商店",39.934572,116.464312,"白家庄路2号附近","购物;便利店"
"虹霖茂便利店",39.942001,116.439427,"东直门南大街9","购物;便利店"
"新东综合商店",39.940099,116.44976,"新中街5号附近","购物;便利店"
"快客便利店(吉庆里)",39.933053,116.44586,"朝外北街蓝筹名座底商一层15号","购物;便利店"
"正辉源食品店",39.941675,116.460265,"朝阳区一巷幸福三村","购物;便利店"
"Happy+乐加亮马桥站D口地铁便利店",39.954295,116.467909,"北京市朝阳区地铁10号线亮马桥站西南口站前广场","购物;便利店"
"绿源福食品店",39.939847,116.454157,"北京市朝阳区工体幸福一村西里3号","购物;便利店"
"珊迪休闲食品店",39.93846,116.460891,"三里屯soho2号商场2-128室(不是足疗店)","购物;便利店"
"广园平润商店",39.957144,116.43596,"砖角楼南里12号","购物;便利店"
"快客便利店(no.8223)",39.956171,116.45691,"新源里东9号","购物;便利店"
"港佳好邻居便利店(三元桥店)",39.962924,116.463666,"东三环北路南银大厦B1层","购物;便利店"
"康胜食品店",39.950943,116.459238,"三里屯北小街8","购物;便利店"
"王家园超市",39.936907,116.444019,"北京市东城区王家园胡同35号院","购物;便利店"
"易捷便利店(左家庄站)",39.961432,116.45615,"朝阳区香河园中里左家庄加油站内","购物;便利店"
"玉净商店",39.95606,116.462956,"北京市朝阳区","购物;便利店"
"伴儿 便利",39.938116,116.460134,"朝阳区工体北路8号三里屯SOHOB1楼(近“萌宠头牌”宠物店)","购物;便利店"
"智霖华食品店",39.950666,116.441334,"香河园路甲3附近","购物;便利店"
"新源街便利店",39.95745,116.458551,"新源里生态小区","购物;便利店"
"健怡商店",39.955134,116.463725,"新源南路甲3附近","购物;便利店"
"顺友便民店",39.961921,116.437004,"和平里砖角楼北里甲6号楼附近","购物;便利店"
"京水益群商店",39.953903,116.441538,"东直门北大街甲6号院3号楼1层","购物;便利店"
"麦可法隆(朝外大街店)",39.929635,116.451924,"朝阳门外大街百脑汇旗舰店B1楼(近东岳庙)","购物;便利店"
"真朋友商店",39.955559,116.458213,"北京市朝阳区新源里乙12号临14号附近","购物;便利店"
"佳佳食品店",39.94054,116.446599,"新中街（兴华洗衣店西侧）","购物;便利店"
"便利店",39.936972,116.443711,"王家园胡同35号","购物;便利店"
"缘源日用百货",39.958981,116.46469,"朝阳区东三环三元东桥牛王庙","购物;便利店"
"一号便利店",39.946457,116.451603,"北京市朝阳区","购物;便利店"
"顺达宏利便利店",39.96138,116.45257,"左家庄东里7号楼1幢平房","购物;便利店"
"北京红彤彤食品店",39.959397,116.435638,"民旺六巷1号","购物;便利店"
"益民食品商店",39.941638,116.463753,"朝阳区东三里屯中15-3号","购物;便利店"
"欣盛平价商店",39.935317,116.464357,"锦绣星空附近","购物;便利店"
"三水源食品店",39.958739,116.461752,"三元里街三元里南小街路口附近","购物;便利店"
"圣安福商店",39.959088,116.450703,"百灵大厦(南门)附近","购物;便利店"
"五十二周便利",39.938542,116.437115,"东四十条甲22号南新仓国际大厦1楼","购物;便利店"
"北京松山竹岭百货商店",39.957516,116.456556,"新源里华源招待所附近","购物;便利店"
"平价商店(左家庄东街店)",39.961899,116.456063,"朝阳区静安东里27号(近左家庄东街)","购物;便利店"
"三东开食品店",39.942058,116.464285,"东三里屯中十三楼西侧","购物;便利店"
"红明伟便民商店",39.9332,116.436752,"北京市东城区","购物;便利店"
"品味西班牙",39.941736,116.461735,"北京市朝阳区三里屯路19号三里屯village2号楼s2-11号(近工体北路)","购物;便利店"
"朝阳烟草供货",39.954586,116.464474,"新源南路甲3附近","购物;商铺"
"罗森便利店",39.929479,116.444692,"朝阳门外大街18号丰联广场一层西南角148号商铺","美食;蛋糕甜品店"
"blt Supermarket",39.955087,116.46646,"北京市朝阳区新源南路1号都汇天地购物中心B1层","购物"
"april gourmet超市",39.94209,116.442931,"北京市东城区东中街29号东环广场B座1层","购物"
"思维便民超市",39.940104,116.448893,"北京市东城区","购物"
"金三元便民店",39.941647,116.461877,"北京市朝阳区三里屯路","购物"
"沃牛进口超市",39.955826,116.445142,"香河园街1号院北区2","购物"
"康会山姆",39.939148,116.465434,"工体北路工体综合楼1层2段","购物"
"尤拉超市(北新桥店)",39.950485,116.435713,"民安街16","购物"
"Sanan Super",39.93017,116.436755,"朝阳门内大街8号朝阳首府2楼","购物"
"Bella's Grocery",39.938116,116.460134,"北京市朝阳区工人体育场北路８号三里屯ＳＯＨＯ商场３1层","购物"
"静安水产超市",39.96214,116.452594,"朝阳区左家庄中街","购物"
"家乐食品店",39.960961,116.459502,"北京市朝阳区三源里街3号楼","购物"
"中研百货",39.945574,116.435414,"北京市东城区东直门内南小街16号","购物"
"轩霖食品店",39.946719,116.445327,"北京市东城区","购物"
"日杂百货",39.958517,116.451296,"北京市朝阳区","购物"
"放心便民店",39.948402,116.438055,"东羊管胡同2号楼1","购物"
"711便利店(西坝河店)",39.974809,116.442928,"北京市朝阳区西坝河西里23号4号楼一层第陆商铺","购物;便利店"
"711便利店(城铁柳芳站东口店)",39.964682,116.439205,"北京市朝阳区地铁十三号线柳芳车站(和平里北街车站)北侧第一间","购物;便利店"
"711便利店(国门大厦店)",39.964651,116.455228,"北京市朝阳区左家庄1号国门大厦B座1层","购物;便利店"
"711便利店(凤凰商街店)",39.968911,116.46248,"朝阳区曙光西里甲5号院10号楼-17-1层(凤凰汇商街)(招商银行)","购物;便利店"
"全时便利店(世奥国际中心店)",39.994397,116.438246,"芍药居北里101号(近望和桥)","购物;便利店"
"爱家便利店",39.976684,116.449355,"朝阳区西坝河路北里","购物;便利店"
"好邻居便利店(外经贸店)",39.987175,116.437735,"朝阳区太阳宫芍药居2号院甲2号","购物;便利店"
"快客便利店(左家庄店)",39.966762,116.446002,"左家庄西街西坝河南里17号楼1层底商","购物;便利店"
"711便利店(三元桥东域大厦店)",39.966861,116.457745,"北京朝阳区曙光西里甲1号东域大厦B座02号房第一层","购物;便利店"
"康达健商店",39.98612,116.438001,"芍药居综合楼附近","购物;便利店"
"全时便利店(光熙家园店)",39.974669,116.438888,"光熙家园1号楼1层(地铁光熙门站)","购物;便利店"
"全时便利店(芍药居北里店)",39.989637,116.443188,"北京市朝阳区芍药居北里305号楼1层底商15-19轴","购物;便利店"
"好邻居便利店(芍药居店)",39.99425,116.443987,"太阳宫芍药居北里201号楼底商","购物;便利店"
"好邻居便利店(七圣路店)",39.97395,116.442097,"光熙门北里甲31号(西坝河七圣路北口民航出版社口)","购物;便利店"
"好邻居便利店(芍药居3分店)",39.983376,116.439835,"芍药居2号院甲1","购物;便利店"
"泽雪便利店",39.966709,116.467444,"北京市朝阳区霄云里南街","购物;便利店"
"爱有梅有(凤凰汇店)",39.968633,116.463844,"曙光西里甲5号院24号楼3楼L326室","购物;便利店"
"全时便利店",39.974644,116.439005,"西坝河南路28号附近","购物;便利店"
"快客便利店(青年沟店)",39.968835,116.435231,"和平街","购物;便利店"
"碧购便利店(金星园店)",39.973018,116.46226,"朝阳区太阳宫南街金星园4号楼1层(靠近中油昆仑大厦)","购物;便利店"
"吾家便利店",39.974089,116.464094,"太阳宫太阳星城金星园12号楼","购物;便利店"
"邻友居便利店",39.988981,116.444797,"文学馆路芍药居北区31号楼","购物;便利店"
"易捷便利店(太阳宫中路)",39.98374,116.459687,"朝阳区太阳宫中路35号(望京西路)","购物;便利店"
"中化道达尔加油站-便利店",39.987984,116.460842,"北四环东路辅路","购物;便利店"
"Happy+乐加芍药居站G口地铁便利店",39.981559,116.444881,"北京市朝阳区地铁10号线芍药居站东南口(G口)站前广场","购物;便利店"
"烟酒便利店惠民网No.3193",39.992178,116.446176,"北京市朝阳区","购物;便利店"
"芍药居超市",39.993234,116.441079,"北京市朝阳区芍药居北里117号楼","购物;便利店"
"Happy+乐加芍药居站F口地铁便利店",39.982936,116.445486,"北京市朝阳区地铁10号线芍药居站东北口(F口)站前广场","购物;便利店"
"Happy+乐加太阳宫站C口地铁便利店",39.977512,116.454806,"北京市朝阳区地铁10号线太阳宫站东南口站前广场","购物;便利店"
"金三元便民店(东土城路)",39.964857,116.438203,"东土城路4号附近","购物;便利店"
"昆仑好客(北四环东路辅路)",39.985382,116.464389,"朝阳区望京(近北四环东路辅路)","购物;便利店"
"龙江副食商店",39.97058,116.456589,"左家庄曙光里40号","购物;便利店"
"良友便利店",39.974322,116.445766,"朝阳区北三环东路7号长途保修厂院内国美电器西门","购物;便利店"
"小卖部",39.972837,116.442048,"北京市朝阳区","购物;便利店"
"地铁便利",39.977702,116.454547,"太阳宫芍药居地铁站g口","购物;便利店"
"奇利廉食品店",39.978661,116.437206,"樱花东路甲4号","购物;便利店"
"汇鑫便利店",39.964997,116.434084,"北京一七一中学西侧100米","购物;便利店"
"易捷便利店(亚运店)",39.994535,116.435995,"高原街乙2","购物;便利店"
"旺吉便利",39.987295,116.44376,"芍药居11号楼","购物;便利店"
"百盛联盟便利店",39.993314,116.434127,"高原街1-16","购物;便利店"
"南里社区便利店",39.967014,116.443114,"西坝河南里小区西门口","购物;便利店"
"商亭",39.968294,116.451644,"北京市朝阳区香河园","购物;便利店"
"晨泊永晟",39.971361,116.437839,"东城区青年沟路5号(光熙门地铁南)","购物;便利店"
"Happy+乐加地铁便利店",39.966809,116.463908,"北京市朝阳区","购物;便利店"
"太阳宫地区便民服务亭",39.98066,116.445618,"北京市朝阳区西坝河路","购物;便利店"
"刘在副食商店",39.969838,116.442249,"七圣路15号","购物;便利店"
"青青便利店",39.96729,116.457234,"曙光南环路曙光西里2号楼底商","购物;便利店"
"晓勤平价商店",39.998346,116.462578,"北京市社区卫生服务(南湖西里社区北)附近","购物;便利店"
"小小食品店",39.968108,116.433707,"和平街十四区甲19号楼","购物;便利店"
"北京军晓军店(No.0157号)",39.994499,116.465011,"朝阳区望京花家地西113号楼(花家地西里北门)","购物;便利店"
"秀娟便民店",39.968923,116.441422,"北京市朝阳区光熙门北里14号附近","购物;便利店"
"鸿运食品店(左家庄西街)",39.964567,116.446436,"北京电子科技职业学院(西门)附近","购物;便利店"
"鲜乐汇和平街店",39.972312,116.437694,"东城区和平街十五区底商(近青年沟路)","购物;集市"
"Emely Sweetie(太阳宫百盛店)",39.976102,116.440484,"七圣中街12号院1号楼百盛购物中心3楼(太阳宫桥东侧)","购物"
"美多多生活超市",39.969917,116.437919,"朝阳区朝阳区和平街十五区十二号楼一层","购物"
"左家庄街道社区服务",39.97322,116.454018,"西坝河东里2号院附近","购物"
"超凡商店",39.993873,116.44075,"北京市朝阳区芍药居北里104号","购物"
"利快国际生活馆",39.996065,116.43992,"北四环东路73号远洋未来广场","购物"
"皮皮日用品中心(西坝河店)",39.969849,116.452051,"西坝河东里77号楼1708室","购物"
"善礼便民店",39.973181,116.458948,"曙光里21号楼临1号","购物"
"利快国际生活馆(太阳宫凯德MALL店)",39.977276,116.454448,"北京市海淀区太阳宫中路太阳宫凯德ＭａｌｌB2层","购物"
"相约春天残疾人便民商店",39.989691,116.434021,"北京市朝阳区高原街","购物"
"711便利店(望京湖光中街西口店)",40.002055,116.464652,"北京市朝阳区南湖中园316号思源大厦首层F104","购物;便利店"
"全时便利店(望京店)",40.001275,116.457745,"北京市朝阳区南湖西路220号望承公园北门1号楼一层","购物;便利店"
"易捷便利店(S50北五环辅路店)",40.028396,116.443419,"来广营乡北苑村(近S50北五环辅路)","购物;便利店"
"银领水站商店",40.00435,116.463467,"望京","购物;便利店"
"利泰便利",39.999339,116.464428,"朝阳区望京西路首开知语城312号楼底商","购物;便利店"
"204便利店",40.005893,116.466673,"北京市朝阳区","购物;便利店"
"华汇利民商场",40.001385,116.436697,"北京市朝阳区育慧北路","购物;便利店"
"新新家园便利店",40.01606,116.441108,"辛店路1号","购物;便利店"
"好邻居便利店",40.021067,116.438158,"双拥路与拥军路交叉口东50米","购物;便利店"
"昆仑好客(来广营西路)",40.026474,116.457105,"来广营西路南侧","购物;便利店"
"昆仑好客(北苑东路)",40.033567,116.447658,"北苑东路8号中国Jeep兄弟连附近","购物;便利店"
"金三元便利店",40.032123,116.454806,"新北路甲6附近","购物;便利店"
"昆仑好客",40.029681,116.468236,"来广营乡来广营村","购物;便利店"
"平安便利店",40.005001,116.463633,"望京","购物;便利店"
"益鑫公司销售中心",40.004685,116.437704,"小营北路19号","购物;商铺"
"老四小卖店",39.857138,116.493552,"东四环南路与东四环南路入口交叉口东南200米","购物;便利店"
"兴发水果百货商店",39.845031,116.478946,"十八里店南桥88号","购物;便利店"
"惠客隆便利店",39.848865,116.470338,"北京市朝阳区吕家营村47号","购物;便利店"
"常乐商店烟酒冷饮",39.837041,116.468733,"牌坊村后街北京市朝阳区牌坊小学附近","购物;便利店"
"垂钓园便利店",39.841775,116.500737,"大羊坊路北京东方大学门口","购物;便利店"
"鑫胜联便利店",39.842856,116.472748,"十八里店南桥","购物;便利店"
"梅子便利店",39.843059,116.502724,"北京市朝阳区大羊坊路","购物;便利店"
"金圆超市",39.843516,116.472766,"北京市朝阳区吕家营村232号","购物"
"日用百货",39.849509,116.475223,"北京市朝阳区十八里店吕家营97号","购物"
"非常1+6",39.845698,116.483961,"东四环南路与南四环东路交叉口东南150米","购物"
"711便利店(山水文园店)",39.873507,116.489929,"北京市朝阳区弘燕山水文园4号楼商业07号","购物;便利店"
"711便利店(劲松桥东侧店)",39.890539,116.469532,"北京市朝阳区东三环南路58号院3-3","购物;便利店"
"711便利店(平乐园店)",39.889753,116.48255,"北京市朝阳区南磨房路16号院甲1-4","购物;便利店"
"全时便利店(华腾国际店)",39.89432,116.492817,"北京市朝阳区大郊亭中街2号院3号楼3-1A一层","购物;便利店"
"快客便利店(no.8214)",39.880034,116.474139,"松榆里27号楼甲一号","购物;便利店"
"711便利店(武圣北路店)",39.894166,116.475009,"北京市朝阳区武圣北路6号院(外交部和谐雅园住宅小区)2号楼一层西侧第一跨及第二跨一部分","购物;便利店"
"全时便利店(武圣路)",39.887136,116.474226,"农光里201号楼底商","购物;便利店"
"红红红食品便利店",39.884991,116.477547,"潘家园","购物;便利店"
"工业大学-旧图小卖部",39.883194,116.484223,"平乐园100号北京工业大学旧图4楼","购物;便利店"
"快捷便利",39.862201,116.469893,"十里河村津塘高速出口辅路","购物;便利店"
"7ELEVEN",39.889881,116.482604,"北京市朝阳区","购物;便利店"
"日月潭海外便利（十里河店）",39.873467,116.475864,"周庄山水文园1号楼底商06号","购物;便利店"
"快乐迪小卖部",39.875908,116.484649,"北京市朝阳区","购物;便利店"
"lawson",39.882751,116.502938,"紫南家园108号楼华翰商业中心一层108-1号","购物;便利店"
"小范酒水饮料批发",39.862585,116.473998,"北京市朝阳区","购物;便利店"
"柏拉图的书箱",39.874733,116.502959,"北京市朝阳区CCT当代艺术中心北京展区内华侨城・北京生活艺术馆附近","购物;便利店"
"北京烟酒(武圣路店)",39.880065,116.474607,"松榆里30号楼","购物;便利店"
"(服务区)易捷便利店",39.877847,116.494988,"服务区附近","购物;便利店"
"智慧商店",39.879495,116.476969,"北京市朝阳区","购物;便利店"
"众益食品店",39.881542,116.469846,"松榆西里32号楼","购物;便利店"
"松榆园商店",39.880041,116.481353,"南磨房中心小学附近","购物;便利店"
"北汽便民店",39.883971,116.477865,"朝阳区武圣东里5号","购物;便利店"
"友缘便民店",39.881308,116.476262,"松榆里社区(北一门)附近","购物;便利店"
"武圣东里便利店",39.882051,116.475191,"北京市朝阳区松榆北路13号","购物;便利店"
"壳牌便利店",39.860669,116.484016,"十八里店","购物;便利店"
"魔幻商亭",39.873865,116.501378,"北京市朝阳区东四环小武基北路北京欢乐谷亚特兰蒂斯内","购物;便利店"
"香巴拉",39.873912,116.497829,"北京市朝阳区东四环小武基北路北京欢乐谷香格里拉区内","购物;便利店"
"便利店",39.876815,116.485864,"北京市朝阳区","购物;便利店"
"易捷便利店(化工路店)",39.887273,116.499089,"化工路加油站内","购物;便利店"
"北京明华顺心商店",39.866902,116.468821,"东三环十里河桥东美联天地南侧","购物;便利店"
"丰收商亭",39.872251,116.498933,"北京市朝阳区东四环小武基北路北京欢乐谷蚂蚁王国内","购物;便利店"
"北京恒利金源商贸",39.86061,116.476528,"平谷区十里河酒水一条街1号楼7-8号(近大洋路市场)","购物;便利店"
"北门便利店",39.885375,116.488369,"北工大路北京工业大学北门斜对面","购物;便利店"
"麒麟食品店",39.885694,116.489672,"北工大路北50米","购物;便利店"
"夺宝奇兵的封地",39.875144,116.501319,"北京市朝阳区G1辅路附近","购物;便利店"
"北京工业大学食品店",39.88456,116.488454,"北工大路附近","购物;便利店"
"太阳神车商亭",39.874895,116.500046,"北京市朝阳区G1辅路","购物;便利店"
"社区便利店",39.894132,116.48862,"大郊亭中街附近","购物;便利店"
"傅占辉商店",39.888402,116.499679,"南磨房路附近","购物;便利店"
"虫虫商亭",39.872756,116.499327,"北京市朝阳区东四环小武基北路北京欢乐谷蚂蚁王国内","购物;便利店"
"北京健伟康益食品店",39.890715,116.48456,"西大望路27号友金大厦写字楼408室","购物;便利店"
"大草帽便利店",39.875096,116.502103,"北京市朝阳区东四环小武基北路北京欢乐谷失落玛雅内","购物;便利店"
"吉平小卖部",39.877528,116.479135,"北京市朝阳区松榆东里52号楼北","购物;便利店"
"金翅鸟商店",39.872533,116.496867,"北京市朝阳区东四环小武基北路北京欢乐谷香格里拉区内","购物;便利店"
"怒咕拉商亭",39.872926,116.497025,"北京市朝阳区东四环小武基北路北京欢乐谷香格里拉区内","购物;便利店"
"4D商亭",39.8722,116.500563,"北京市朝阳区东四环小武基北路北京欢乐谷蚂蚁王国内","购物;便利店"
"乐坊商店",39.87231,116.49946,"北京市朝阳区东四环小武基北路北京欢乐谷蚂蚁王国内","购物;便利店"
"双雄商亭",39.873457,116.497095,"北京市朝阳区东四环小武基北路北京欢乐谷香格里拉区内","购物;便利店"
"迷旋商亭",39.874203,116.49794,"北京市朝阳区东四环小武基北路北京欢乐谷香格里拉区内","购物;便利店"
"飞行岛商亭",39.873387,116.502074,"北京市朝阳区东四环小武基北路北京欢乐谷亚特兰蒂斯内","购物;便利店"
"欢乐风火轮便利店",39.872282,116.501755,"北京市朝阳区东四环小武基北路北京欢乐谷欢乐时光内","购物;便利店"
"其林便利店",39.861552,116.471948,"吕营大街附近","购物;便利店"
"丛林雨季便利店",39.874625,116.500989,"北京市朝阳区东四环小武基北路北京欢乐谷内","购物;便利店"
"大草帽商亭",39.875038,116.502104,"北京市朝阳区","购物;便利店"
"蚁宫商店",39.872291,116.500243,"北京市朝阳区东四环小武基北路北京欢乐谷内","购物;便利店"
"日用百货小卖部",39.883781,116.474215,"北京市朝阳区武圣西里16号楼北侧一层","购物;便利店"
"协力发便利店",39.892181,116.474125,"北京市朝阳区东三环南路54号院-9号楼","购物;便利店"
"太阳神车上商亭",39.874826,116.50017,"北京市朝阳区东四环小武基北路北京欢乐谷失落玛雅内","购物;便利店"
"纳西商店",39.874066,116.497562,"北京市朝阳区东四环小武基北路北京欢乐谷香格里拉区内","购物;便利店"
"藏族商店",39.874187,116.497612,"北京市朝阳区东四环小武基北路北京欢乐谷香格里拉区内","购物;便利店"
"大染房商店",39.87389,116.49753,"北京市朝阳区东四环小武基北路北京欢乐谷香格里拉区内","购物;便利店"
"中国烟草(共飞店)",39.881713,116.500801,"世纪东方嘉园204","购物;商铺"
"牛栏山专卖",39.860572,116.476606,"十八里店乡周庄村大洋路农副产品市场3区9号","购物"
"丹彤便利(松榆里店)",39.876664,116.476742,"朝阳区松榆南路38号美景东方底商","购物"
"毛巾袜子内衣超市",39.863716,116.50073,"十八里店乡小武基村六队白石桥北侧","购物"
"恒大冰泉平价超市",39.881557,116.469868,"松榆北路14附近","购物"
"天缘食品店",39.877682,116.478665,"北京市朝阳区","购物"
"诺曼博士商店",39.874865,116.500186,"北京市朝阳区东四环小武基北路北京欢乐谷失落玛雅内","购物"
"711便利店(建国路华贸店)",39.917807,116.488245,"西大望路甲6号华贸公寓15号楼104号","购物;便利店"
"711便利店(乐成中心店)",39.899897,116.468893,"北京市朝阳区东三环中路22号乐成中心B1层","购物;便利店"
"711便利店(广渠路店)",39.894689,116.469988,"北京市朝阳区广渠路66号院甲9号楼1层101","购物;便利店"
"711便利店(金台里东侧店)",39.923674,116.483787,"北京市朝阳区金台里甲19号楼一层F1-01室(保利万和电影院下面)","购物;便利店"
"711便利店(百子湾桥店)",39.906484,116.498738,"北京市朝阳区东四环中路78号楼1层A2-1","购物;便利店"
"罗森便利店(民生大厦店)",39.926482,116.470006,"朝阳区东三环北路38号4号楼一层L110号(泰康金融大厦)","购物;便利店"
"711便利店(摩码店)",39.929329,116.479278,"朝阳区朝阳北路199号摩码大厦1F101号(近中复电讯)","购物;便利店"
"洋河蓝优便利店",39.924391,116.48413,"金台路乙21号楼附近","购物;便利店"
"全时便利店(住邦2000店)",39.920746,116.500698,"八里庄西里98号（住邦2000，3号楼东北角一层底商）","购物;便利店"
"全时便利店(民生好世界店)",39.927348,116.469198,"东三环北路38号院4号楼负一层B14号商铺","购物;便利店"
"711便利店(建国路万达广场东区店)",39.915996,116.479739,"朝阳区建国路93号15号楼128号万达广场东(近味多美)","购物;便利店"
"全时便利店(金地名京店)",39.915528,116.502203,"北京市朝阳区八里庄西里98号（住邦2000中心3号楼东北角一层底商）","购物;便利店"
"全时便利店(东柏街天之骄子店)",39.901181,116.472742,"北京市朝阳区东柏街9号院3号楼1层0105号商铺","购物;便利店"
"民悦发超市",39.920927,116.491325,"慈云寺18号1层","购物;便利店"
"711便利店(四惠力源里北街店)",39.915417,116.502533,"北京市朝阳区力源里北街2号院4号楼一层116A铺","购物;便利店"
"711便利店(远洋未来汇店)",39.922315,116.497882,"慈云寺北里209号楼远洋未来汇购物中心1层AF1-02","购物;便利店"
"全时便利店(大望路店)",39.917091,116.47748,"建国路93号院11号楼","购物;便利店"
"711便利店(SOHO现代城店)",39.913002,116.48324,"北京市朝阳区建国路88号SOHO现代城1-2楼3501室","购物;便利店"
"711便利店(远洋国际中心店)",39.92032,116.497829,"北京市朝阳区八里庄东里1号a区1号楼07a号房","购物;便利店"
"兴旺便利店",39.895013,116.47048,"朝阳区广渠路66号院9号楼1楼(近汤姆狗宠物)","购物;便利店"
"711便利店(慈云寺北侧店)",39.92435,116.50212,"北京市朝阳区慈云寺北里210号楼1层103","购物;便利店"
"全时便利店(外企大厦店)",39.900714,116.483743,"西大望路甲15号6号楼1层商业(01)内101","购物;便利店"
"快客便利店(首城国际店)",39.898195,116.476142,"广渠路36号院5号楼125房","购物;便利店"
"全时便利店(大成国际)",39.905496,116.49821,"东四环中路78号楼1层1-C,2-C","购物;便利店"
"711便利店(建国路郎家园店)",39.912261,116.479161,"北京市朝阳建国路88号SOHO现代城1层","购物;便利店"
"好邻居便利店(团结湖店)",39.929267,116.473464,"朝阳北路220号(大中电器)","购物;便利店"
"711便利店(朝阳路八里庄西里店)",39.921546,116.500998,"北京市朝阳区八里庄西里100号住邦2000商务中心2号楼负116号商","购物;便利店"
"全时便利店(珠江帝景店)",39.894587,116.486069,"广渠路28号院205珠江帝景(B区南二门)附近","购物;便利店"
"好邻居便利店(百子湾5店)",39.906088,116.49057,"朝阳区百子湾路16号百子园4号楼一层C单元101室","购物;便利店"
"好邻居便利店(百子湾3店)",39.904906,116.492426,"朝阳区百子湾16号后现代城5号楼B座102室","购物;便利店"
"莉莉便利店",39.911442,116.484554,"西大望路12号院1号楼","购物;便利店"
"蓝堡便利店",39.916537,116.483534,"西大望路3号蓝堡国际公寓南区F座底商(近新光天地)","购物;便利店"
"易捷便利店(广渠路)",39.898519,116.476301,"广渠路甲38号院1","购物;便利店"
"祥龙食品店",39.919715,116.484731,"北京市朝阳区西大望路北5号","购物;便利店"
"快客便利店(苹果社区店)",39.904333,116.476076,"百子湾路32号苹果社区1号楼底商(近今日美术馆)","购物;便利店"
"711便利店(建国路万达广场西区店)",39.91713,116.477621,"北京市朝阳区建国路93号院12号楼112号1-A","购物;便利店"
"咪乐吧(红领巾桥店)",39.927426,116.501088,"八里庄路老水锥子花鸟鱼虫市场","购物;便利店"
"惠民网极客家丁超市NO.9891",39.899914,116.478536,"九龙山家园内","购物;便利店"
"双井东院-便利店",39.89971,116.470673,"北京市朝阳区双井桥东100米路-北","购物;便利店"
"依客便利店",39.907692,116.480314,"尚8国际广告园内","购物;便利店"
"淑中食品店",39.906156,116.481416,"百子湾路20号附近","购物;便利店"
"幸福彩虹.荣畅便利店",39.925768,116.472596,"北京市朝阳区呼家楼西里南街2号","购物;便利店"
"大郊亭便民店",39.897587,116.49419,"北京朝阳区东四环大郊亭桥美罗城百盛购物中心五层","购物;便利店"
"友桥商店",39.906512,116.473574,"百子湾路34号附近","购物;便利店"
"优康便利店",39.918478,116.479875,"光华路4号院2号楼2层205室(东三环国贸桥东北角万达广场北侧东方梅地亚中心B座二层电梯旁)","购物;便利店"
"元吉便利店",39.926011,116.4721,"呼家楼五巷6号临甲2号","购物;便利店"
"优选便利店",39.918135,116.476831,"北京市朝阳区光华路8号和乔大厦B座1层","购物;便利店"
"快客便利店(金海国际店)",39.899791,116.501386,"广渠路21号8号楼1层-03室","购物;便利店"
"Happy 乐加地铁便利店",39.914509,116.470582,"北京市朝阳区地铁10号线国贸站东南口G口站前广场","购物;便利店"
"英才商店",39.925268,116.485895,"金台路附近","购物;便利店"
"石五联加油站-便利店",39.904644,116.483855,"朝阳区西大望路18号","购物;便利店"
"IT数码便利店",39.896472,116.49474,"北京市朝阳区东四环中路189号大长今(美罗城店)停业B1层","购物;便利店"
"琪琪食品店",39.921818,116.475469,"针织路新街大院附近","购物;便利店"
"地铁便利店(国贸店)",39.915469,116.469352,"北京市朝阳区地铁国贸站F口","购物;便利店"
"华新商店",39.914555,116.482979,"朝阳区地铁1号线大望路站A口西侧","购物;便利店"
"快客便利店(no.8320)",39.921114,116.485842,"西大望路与朝阳路交叉口向东100米路南","购物;便利店"
"合子便利店",39.903904,116.494307,"北京市朝阳区百子园10号楼","购物;便利店"
"鸿鑫利贞国贸南航店",39.912045,116.469822,"建国路120号附近","购物;便利店"
"华泰商店",39.925861,116.472627,"北京市朝阳区","购物;便利店"
"全时便利店(现代城SOHO店)",39.91294,116.482507,"朝阳区建国路93号院万达广场11号楼1楼109室(近麦趣尔)","购物;便利店"
"Happy乐加地铁便利",39.921473,116.469064,"北京市朝阳区东三环中路地铁锦台夕照C口","购物;便利店"
"北京昱优缘便利店",39.918898,116.478146,"光华路8号和乔大厦B座1层103","购物;便利店"
"芳欣食品店",39.928237,116.469031,"朝阳区呼家楼北街(近朝阳剧场)","购物;便利店"
"友奥24小时便利店",39.90462,116.49172,"百子湾南一路后现代城13号楼110","购物;便利店"
"D3便利店",39.897511,116.475535,"广渠路36号首城国际B座1416号(近双井家乐福店)","购物;便利店"
"瑞丰便利店",39.899559,116.500113,"广渠路21号金海国际3号楼","购物;便利店"
"贵明欣欣商贸中心",39.922597,116.488246,"红庙北里94号","购物;便利店"
"延静里小卖部",39.928255,116.488872,"朝阳北路172号附近","购物;便利店"
"家和祥福便利超市",39.918288,116.500927,"八里庄路西北里8号院内八里庄集贸市场八里庄","购物;便利店"
"平价商店",39.896139,116.497017,"大郊亭北街(毛戈平形象设计艺术学校南)","购物;便利店"
"恒孚便利店",39.925727,116.502652,"北京市朝阳区八里庄路","购物;便利店"
"大陶世纪便利店",39.904885,116.494583,"百子湾路16号后现代城9号楼底商","购物;便利店"
"金海花园阳光便利店",39.899628,116.499348,"广渠路21号新金海国际家园2号楼101室","购物;便利店"
"平价便利店",39.905179,116.491401,"朝阳区百子湾路27号","购物;便利店"
"乐百佳盛便利店",39.903226,116.478347,"百子湾南二路苹果社区5号楼B座0101号","购物;便利店"
"英爱韩国百货",39.917451,116.501142,"八里庄西里75","购物;便利店"
"百环家园杨生便利店",39.895727,116.473601,"广渠路66号百环家园18号楼1楼(近双井桥)","购物;便利店"
"智食品店",39.926848,116.501008,"八里庄路313号","购物;便利店"
"福林超市",39.897571,116.494821,"东四环中路174号附近","购物;便利店"
"建良食品店",39.914546,116.482691,"光辉里5号楼","购物;便利店"
"可欣商店",39.924428,116.488627,"延静里西街附近","购物;便利店"
"早上鲜果便利店",39.904908,116.493639,"百子园8","购物;便利店"
"日夜为民食品店",39.929243,116.471526,"团结湖南里乐派重庆美食旁","购物;便利店"
"公寓超市",39.906805,116.483636,"百子湾路29-31附近","购物;便利店"
"金台晓便利店",39.927968,116.478781,"朝阳区金台北街4号","购物;便利店"
"２元店",39.921904,116.479153,"北京市朝阳区路辅路","购物"
"美天招商局大厦店",39.913093,116.469681,"建国路118号招商局大厦1楼(近京汇大厦)","购物"
"北京向前爱心食品便利店",39.903274,116.478461,"百子湾路32号院苹果社区5A0109室","生活服务;报刊亭"
"TESCO Corporation",39.917603,116.488498,"华贸中心0921","购物"
"味诱惑进口食品专营(团结湖店)",39.929324,116.473175,"团结湖南里甲3附近","购物"
"美天惠普大厦店",39.913217,116.471029,"建国路112号中国惠普大厦1层","购物"
"鸿鑫利贞",39.911932,116.469432,"东三环中路甲10号南航明珠商务酒店1楼(和合谷对面)","购物"
"昆仑好客",39.906782,116.490606,"百子湾路27号","购物"
"711便利店(团结湖北口店)",39.940107,116.473565,"北京市朝阳区农展馆南路13号瑞辰国际中心地上商业街F1-5号房","购物;便利店"
"711便利店(甜水园街南口店)",39.929434,116.485,"朝阳区甜水园东街10号院4-5号(近金台路)","购物;便利店"
"婕妮璐超市(朝阳公园店)",39.942159,116.481009,"北京市朝阳区朝阳公园南路1-17号","购物;便利店"
"中油首汽七号站-便利店",39.96314,116.488805,"亮马桥村甲3号","购物;便利店"
"快客便利店(麦子店西街店)",39.963944,116.471163,"朝阳区霄云路32号(近北京中航泊悦酒店)","购物;便利店"
"711便利店(枣营北里店)",39.95099,116.478115,"北京市朝阳区农展馆北路枣营北里15号宾都苑1层106a号房","购物;便利店"
"711便利店(麦子店街一号店)",39.953546,116.475245,"北京市朝阳区麦子店街36号1层1-3号103A房","购物;便利店"
"全时便利店(观湖国际店)",39.944616,116.501198,"东四环北路88号院甲6号商业楼观湖国际会所底商(观湖国际小区东门华中师大附中朝阳分校西门对面)","购物;便利店"
"罗森便利店(麦子店西街)",39.95361,116.473081,"朝阳区麦子店西街39号富驿时尚酒店一层","购物;便利店"
"711便利店(麦子店西路店)",39.963259,116.473447,"北京市朝阳区麦子店西路9号XF77-78","购物;便利店"
"快客便利店(姚家园路店)",39.934838,116.472006,"白家庄东里42-1号","购物;便利店"
"小货郎便利店(高斓大厦店)",39.959245,116.482889,"朝阳区亮马桥路32号高斓大厦1层126号","购物;便利店"
"绿叶子(枣营北里店)",39.950702,116.477458,"农展馆北路枣营北里15号宾都苑底商(近申嘉德国食品中心)","购物;便利店"
"易捷便利店(姚家园路)",39.939627,116.500457,"姚家园路100","购物;便利店"
"松林园便利店",39.929852,116.489437,"延静里西街与朝阳北路交叉口北150米","购物;便利店"
"好邻居便利店(麦子西街店)",39.950356,116.475902,"朝阳区枣营北里38号楼1楼104号","购物;便利店"
"好邻居便利店(甜水园东街2分店)",39.931747,116.491469,"道家园甲6-1","购物;便利店"
"好邻居便利店(甜水园东里分店)",39.933884,116.488133,"甜水园东里45号楼1层45-3","购物;便利店"
"康尔韵24小时便利店",39.952924,116.472572,"麦子店街临甲26号楼","购物;便利店"
"711便利店(麦子店街)",39.956959,116.475391,"北京市朝阳区亮马桥路46号一层103号房A","购物;便利店"
"Happy+乐加农业展览馆站A口便利店",39.947939,116.468903,"北京市朝阳区地铁10号线农业展览馆站西北口A口站前广场","购物;便利店"
"金三元便民店(团结湖街道第三店)",39.948347,116.477585,"麦子店街朝阳公园西路路口附近","购物;便利店"
"日日月月商店",39.952629,116.469097,"东三环甲10号麦子店西街","购物;便利店"
"凌志便利店",39.935273,116.484368,"朝阳区甜水园街附近","购物;便利店"
"易捷便利店(亮马桥路)",39.962128,116.490931,"北京市朝阳区亮马桥路10号","购物;便利店"
"乐活城(公园五号旗舰店)",39.931414,116.484316,"甜水西园万科公园5号22号楼102室","购物;便利店"
"全时便利店(博瑞店)",39.934196,116.469062,"东三环北路甲26号博瑞大厦高和萃里","购物;便利店"
"博明杰商店",39.939027,116.482395,"朝阳区六里屯北里15号","购物;便利店"
"易捷便利店(燕鑫店)",39.951663,116.481315,"北京市朝阳区麦子店正街甲80号","购物;便利店"
"小静食品店(团结湖店)",39.933548,116.47476,"团结湖东里北一条附近","购物;便利店"
"三得利便利店",39.935322,116.475592,"朝阳区团结湖东里5号楼天宇市场东门","购物;便利店"
"永红超市",39.952613,116.476256,"东三环北路8亮马河大厦1座办公楼附近","购物;便利店"
"乐活城有机健康生活馆",39.931555,116.484344,"北京市朝阳区甜水西园万科公园五号22号楼102","购物;便利店"
"金三元便民店(团结湖街道第六店)",39.935118,116.470636,"团结湖北头条26号36号","购物;便利店"
"红领巾公园小卖部",39.92984,116.500474,"后八里庄5号红领巾公园(南门)附近","购物;便利店"
"四路居商店",39.951316,116.498219,"正宗东北家常菜(姚家园北路)附近","购物;便利店"
"安家楼日用百货商店",39.962277,116.481947,"安家楼村路附近","购物;便利店"
"朝阳公园-1商品部",39.940819,116.488088,"北京市朝阳区农展南路1号朝阳公园内","购物;便利店"
"雪林食品店",39.946901,116.478749,"朝阳公园西路3号附近","购物;便利店"
"水站便利店",39.932888,116.492285,"甜水园东街附近","购物;便利店"
"新月商店",39.951499,116.50351,"辛庄162号","购物;便利店"
"甜水园食品店",39.933884,116.486976,"水碓子中街附近","购物;便利店"
"秋轩便利店",39.93405,116.479466,"朝阳区水碓子东路甲23号","购物;便利店"
"朝阳公园-14商品部",39.949342,116.485577,"北京市朝阳区农展南路1号朝阳公园内","购物;便利店"
"欢欢便利店",39.938631,116.472496,"求实职业学校团结湖校区二部对面","购物;便利店"
"朝阳公园-22商品部",39.946556,116.487569,"北京市朝阳区农展南路1号朝阳公园内","购物;便利店"
"朝阳公园-26商品部",39.953926,116.487542,"北京市朝阳区农展南路1号朝阳公园内","购物;便利店"
"朝阳公园-12商品部",39.943868,116.487569,"北京市朝阳区农展南路1号朝阳公园内","购物;便利店"
"小典食品店",39.938748,116.473843,"团结湖北口(迷你饮品店旁)","购物;便利店"
"双岭诚信便利店",39.934585,116.475964,"团结湖东里北二条附近","购物;便利店"
"鸿祥万通公司长虹桥店",39.934999,116.469534,"朝阳区白家庄东里26-1号","购物;便利店"
"南三条便民食品店",39.931824,116.478131,"团结湖中路南三条附近","购物;便利店"
"朝阳公园-20商品部",39.949918,116.483153,"北京市朝阳区农展南路1号朝阳公园内","购物;便利店"
"朝阳公园-24商品部",39.952073,116.487961,"北京市朝阳区农展南路1号朝阳公园内","购物;便利店"
"顺向阳食品店",39.94789,116.478641,"朝阳公园西里(北区)附近","购物;便利店"
"朝阳公园-17商品部",39.948388,116.490562,"北京市朝阳区农展南路1号朝阳公园内","购物;便利店"
"利民商店(马道口东街)",39.931375,116.487157,"怀柔区马道(马道口东街)","购物;便利店"
"朝阳公园-11商品部",39.942743,116.489257,"北京市朝阳区农展南路1号朝阳公园内","购物;便利店"
"朝阳公园-21商品部",39.946048,116.485997,"北京市朝阳区农展南路1号朝阳公园内","购物;便利店"
"朝阳公园-4商品部",39.94256,116.487816,"北京市朝阳区农展南路1号朝阳公园内","购物;便利店"
"朝阳公园-23商品部",39.943165,116.489943,"北京市朝阳区农展南路1号朝阳公园内","购物;便利店"
"朝阳公园-25商品部",39.956906,116.488631,"北京市朝阳区农展南路1号朝阳公园内","购物;便利店"
"朱记便利店",39.948613,116.477836,"朝阳区麦子店街8号","购物;便利店"
"平价商店",39.934622,116.502327,"石佛营路美味小馆旁(北京耀中国际学校东北)","购物;便利店"
"朝阳公园-7商品部",39.94602,116.48726,"北京市朝阳区农展南路1号朝阳公园内","购物;便利店"
"勇敢者游乐园-6商品部",39.944794,116.4865,"北京市朝阳区朝阳公园南路1号朝阳公园内","购物;便利店"
"朝阳公园-休闲水吧",39.946032,116.49382,"北京市朝阳区农展南路1号朝阳公园内","购物;便利店"
"THE OPEN(燕莎友谊商城亮马桥店)",39.954553,116.469519,"亮马桥路52号F4层","购物;便利店"
"鱼清",39.953648,116.473634,"麦子店西街39号","购物"
"绿叶子(公园大道店)",39.937698,116.492214,"朝阳区朝阳公园南路6号商业中心111号(近朝阳公园南门)","购物"
"采活(蓝色港湾店)",39.954203,116.479907,"北京市朝阳区朝阳公园路6号蓝色港湾1层","购物"
"烟酒食品店",39.95255,116.468777,"东三环北路10-2","购物"
"友宝昂莱科技",39.959977,116.480584,"朝阳区亮马桥路39号第一上海中心C座6楼","购物"
"心心便民店",39.933013,116.478317,"团结湖中路8号附近","购物"
"711便利店(望京花家地店)",39.991144,116.475018,"北京市朝阳区花家地北里1号楼1楼C2号房","购物;便利店"
"711便利店(霄云路店)",39.964622,116.471083,"北京市朝阳区霄云路霞光里30号院5号楼1楼","购物;便利店"
"711便利店(阜通东大街)",39.992162,116.481696,"阜通东大街金兴路6号(近久久丫、新疆美食村)","购物;便利店"
"快客便利店(芳园西路)",39.980978,116.488911,"朝阳区阳光金街临1号","购物;便利店"
"中油首汽八号站-便利店",39.967044,116.47507,"霄云路24号","购物;便利店"
"全时便利店(新港大厦店)",39.977675,116.496965,"将台乡酒仙桥路甲16号新港商城A1-5号","购物;便利店"
"中油首汽十六号站-便利店",39.9841,116.47928,"花家地南里甲2号","购物;便利店"
"711便利店(酒仙桥路十号店)",39.985065,116.499199,"北京市朝阳区酒仙桥路10号恒通商务园b15a(ubp员工餐厅旁)","购物;便利店"
"快客便利店",39.990123,116.497828,"酒仙桥路10号B20座B1层101室","购物;便利店"
"全时便利店(悠乐汇店)",39.996199,116.484659,"望京园602号楼1层153,155，156","购物;便利店"
"好邻居便利店(丽都店)",39.984999,116.486537,"将台路高家园小区311号","购物;便利店"
"好邻居便利店(酒仙桥路店)",39.971793,116.497754,"北京市朝阳区酒仙桥路26号院-2号","购物;便利店"
"全时便利店",39.992301,116.488419,"北京市朝阳区阜荣街15号院2号楼1层商业街18号","购物;便利店"
"快客便利店(大山子南店)",39.988054,116.492095,"万红西街大山子南里12号楼底商东侧","购物;便利店"
"罗森便利店(海航大厦店)",39.965168,116.47405,"朝阳区霄云路甲26号海航大厦1楼","购物;便利店"
"全时便利店(阳光878店)",39.982431,116.500698,"朝阳区酒仙桥中路24号院1号楼101室(近878，艺龙，360，798)","购物;便利店"
"全时便利店(酒仙桥北广店)",39.98251,116.503432,"酒仙桥中路18号18号楼一层","购物;便利店"
"全时便利店(金隅丽港城店)",39.99704,116.469304,"北京市朝阳区南湖南路15号院甲3号楼1层102号","购物;便利店"
"24小时便利店",39.981211,116.492483,"将台路第一家面馆旁","购物;便利店"
"好邻居便利店(酒仙桥3分店)",39.988942,116.497939,"酒仙桥路6号院2号楼","购物;便利店"
"永新商店",39.964713,116.482119,"安家楼村路附近","购物;便利店"
"全时便利店(花家地望花路店)",39.991409,116.475314,"北京市朝阳区花家地1号楼01层101内04","购物;便利店"
"好邻居便利店(花家地街店)",39.988728,116.480959,"北京市朝阳区花家地街13号四强写字楼B座","购物;便利店"
"微利超市",39.979184,116.494293,"将台路与酒仙桥路交叉口西150米","购物;便利店"
"快客便利店(将台路店)",39.975871,116.495883,"酒仙桥路乙21号一层6号(颐堤港对面)","购物;便利店"
"惠方微利便利店(惠方店)",39.976389,116.489067,"将台路芳园南里西区8号楼底商","购物;便利店"
"好邻居便利店",39.996446,116.499169,"酒仙桥北路恒通国际创业园内中国电影导演中心1层","购物;便利店"
"北京金福暄商店",39.986458,116.484468,"朝阳区花家地街3号","购物;便利店"
"漂亮杂货便利店",39.991283,116.50105,"北京市朝阳区酒仙桥路2号北京798艺术区D区内","购物;便利店"
"文韵便利店",39.992945,116.500253,"北京市朝阳区酒仙桥路2号北京798艺术区B区内","购物;便利店"
"便利购超市",39.996864,116.473916,"北京市朝阳区广顺北大街33号院-202号楼","购物;便利店"
"金三元便利店",39.990829,116.47665,"花家地街与望花路交叉口东南方向140米","购物;便利店"
"金三元便民店(花家地西里店)",39.991105,116.471383,"花家地南街附近","购物;便利店"
"北京798艺术区-小卖部",39.990216,116.498699,"北京市朝阳区酒仙桥路2号北京798艺术区内","购物;便利店"
"四得公园分部",39.978917,116.483748,"将台西路8号","购物;便利店"
"工美楼-小卖部",39.992317,116.498223,"北京市朝阳区酒仙桥路2号北京798艺术区A区工美楼内","购物;便利店"
"北京798艺术区E区-商店",39.988817,116.502382,"北京市朝阳区酒仙桥路2号北京798艺术区E区内","购物;便利店"
"依客便利店(望京店)",39.986908,116.483801,"北京市朝阳区","购物;便利店"
"可可便利店",39.970743,116.5023,"北京市朝阳区酒仙桥路34号","购物;便利店"
"金三元便民店(望京街道第一店)",39.994319,116.471435,"南湖南路15号附近","购物;便利店"
"宏志便利店",39.977155,116.492774,"芳园南街与将台西路交叉口东200米","购物;便利店"
"西点便利店",39.987036,116.483593,"北京市朝阳区","购物;便利店"
"晓晓便利店",39.977718,116.498062,"北京市朝阳区将台路","购物;便利店"
"玺嘉嘉便利店",39.969799,116.502607,"北京市朝阳区酒仙桥南路","购物;便利店"
"01商务楼-小卖部",39.992336,116.496785,"北京市朝阳区酒仙桥路2号北京798艺术区A区01商务楼内","购物;便利店"
"昆仑好客",39.977792,116.472846,"太阳宫","购物;便利店"
"易捷便利店(丽都水岸南区西南)",39.973722,116.491032,"芳园南街2号","购物;便利店"
"北京798艺术区E区-商店",39.988758,116.50336,"北京市朝阳区酒仙桥路2号北京798艺术区E区内","购物;便利店"
"北京市百利盛金便民商店",39.974021,116.492743,"酒仙桥路将台乡人民政府旁","购物;便利店"
"中国烟酒便利店",39.985558,116.473598,"朝阳区阜通东大街1号华诚市场外","购物;便利店"
"春光食品店",39.970628,116.501011,"酒仙桥路141附近","购物;便利店"
"北京798艺术区E区-商店",39.988551,116.500127,"北京市朝阳区酒仙桥路2号北京798艺术区E区内","购物;便利店"
"北京798艺术区D区-小卖部",39.990382,116.500091,"北京市朝阳区酒仙桥路2号北京798艺术区D区内","购物;便利店"
"易购便利店",39.988465,116.495897,"万红西街与酒仙桥路交叉口北200米","购物;便利店"
"兴博隆便利店",39.9924,116.481983,"朝阳区金兴路6-1号","购物;便利店"
"北京798艺术区D区-商店",39.991515,116.501681,"北京市朝阳区酒仙桥路2号北京798艺术区D区内","购物;便利店"
"高氏便利店",39.982823,116.502301,"酒仙桥中路20号附近","购物;便利店"
"永兴平价商店",39.977757,116.501359,"将台路8号(北京市朝阳区驼房营小学东南)","购物;便利店"
"毅利顺达便利店",39.977809,116.499493,"将台","购物;便利店"
"景荣便利店",39.970088,116.500667,"酒仙桥路酒仙桥中心小学南侧","购物;便利店"
"玺嘉嘉便民店",39.969975,116.502711,"酒仙桥南路14附近","购物;便利店"
"星科食品店",39.982699,116.500828,"酒仙桥中路5号附近","购物;便利店"
"建东食品店",39.979516,116.495052,"将台路与酒仙桥路交叉口旁","购物;便利店"
"育民食品店",39.9913,116.494162,"房山区酒仙桥路朝阳区机场高速出口机场高速","购物;便利店"
"燕雨便利店",39.970482,116.50098,"北京市朝阳区","购物;便利店"
"166便利店",39.974119,116.495909,"北京市朝阳区","购物;便利店"
"中国石油(首汽9号站)-便利店",39.969081,116.475849,"朝阳区霄云路24号","购物;便利店"
"601便利店",39.992862,116.473097,"来广营花家地北里(北门)附近","购物;便利店"
"利莹食品店",39.977311,116.502056,"将台乡小陈各庄165号","购物;便利店"
"建安综合商店",39.968495,116.498622,"红霞路13附近","购物;便利店"
"便利店",39.97256,116.4842,"东四环北路2号","购物;便利店"
"欧品屋(望京店)",39.992368,116.488836,"阜荣街C15号嘉美风尚14号","购物;超市"
"悠乐汇A1座",39.994905,116.483411,"北京市朝阳区广顺南大街","购物"
"婕妮超市(将台路店)",39.982287,116.489726,"将台路乙2号院-1-10号","购物"
"一家店便利店",39.976821,116.495308,"将台西路19号院飘HOME2号楼106室","购物"
"北京市慈善超市(酒仙桥街道店)",39.98515,116.486526,"高家园小区内","购物"
"哈哈镜鸭脖子(明基超市)",39.966995,116.494392,"东四环北路瞰都国际3号楼107","购物"
"韩国商品专卖店",39.999259,116.48,"北京市朝阳区阜荣街10号新一城购物中心B1层","购物"
"北京拉卡啦便利服务网点(北京建通鸿雁宾馆有限公司)",39.992482,116.495868,"酒仙桥路5号(近北京建通鸿雁宾馆有限公司)","购物"
"明漫便民店",39.990694,116.495313,"酒仙桥路友乐旅馆旁","购物"
"双伴新鲜屋",39.984435,116.490193,"高家园小区1区10楼","购物"
"瑞莱(凯德MALL・望京)",39.998703,116.475275,"广顺北大街33号凯德MALL・望京B1层","购物"
"平价超市学习用品",39.969992,116.496544,"红霞路9号(酒仙桥第二小学东北)","购物"
"时尚食品店",39.97444,116.494892,"酒仙桥路35号","购物"
"711便利店(望京西园四区北侧店)",40.004701,116.47908,"北京市朝阳区望京西园四区402号楼一层402-3-5","购物;便利店"
"好邻居便利店(广泽果岭店)",40.013119,116.485328,"朝阳区望京光泽路6号院13号楼","购物;便利店"
"好邻居便利店(望京西园店)",40.008673,116.47485,"望京西园222","购物;便利店"
"快客便利店(阜通西大街店)",40.001879,116.480241,"阜通西大街望京西园4区412号楼1层","购物;便利店"
"好邻居便利店(博雅店)",40.019532,116.476409,"北京市朝阳区利泽中一路1号院-2-3","购物;便利店"
"全时便利店(上京新航线店)",40.014577,116.47252,"北京市朝阳区利泽西园30号楼一层106","购物;便利店"
"服务区-便利店",40.01963,116.492054,"服务区附近","购物;便利店"
"711便利店(利星行店)",39.999834,116.489184,"望京街8号利星行广场B座1层(卡特彼勒大厦)","购物;便利店"
"便利店",40.026732,116.471043,"北京市朝阳区","购物;便利店"
"芯成便利店",40.01879,116.470724,"利泽西园114","购物;便利店"
"金三元便民店(望京街道NO.9)",40.000643,116.476642,"朝阳区广顺北大街33号","购物;便利店"
"鑫新超市",40.006304,116.481222,"望京西园321号","购物;便利店"
"爱鲜蜂哈哈玛特便利店",40.014521,116.470442,"利泽西街新航线小区315号楼1单元101底商","购物;便利店"
"易捷便利店(湖光中街店)",40.006973,116.478852,"朝阳区宏泰西街(博泰大厦西南)","购物;便利店"
"易捷便利店(屏翠东路)",40.019516,116.485244,"屏翠东路","购物;便利店"
"又来玛特",40.006194,116.47679,"望京便民市场A-37/A-38","购物;便利店"
"第一便利店",40.000894,116.493235,"酒仙桥路10号恒通商务园","购物;便利店"
"E汇便利店",40.001918,116.488088,"朝阳区望京街10号T1塔","购物;便利店"
"易捷便利店(湖光中街)",40.003102,116.47242,"湖光中街9号","购物;便利店"
"惠民网88烟酒便利店",40.001781,116.492404,"望京东园513","购物;便利店"
"昊睿福迪商贸公司便利店北纬40度店",40.026849,116.470925,"来广营西路7号院18号楼底商104号","购物;便利店"
"信诚商店",40.002154,116.47519,"北京市朝阳区广顺北大街望京新城四区422号楼底商","购物;便利店"
"神龙保康商贸中心便利店",40.018343,116.472432,"北京市朝阳区","购物;便利店"
"好兄弟便民店",40.018686,116.46972,"北京市朝阳区","购物;便利店"
"强强便利店",40.029079,116.502599,"崔各庄来广营东路北崔各庄地铁站200米青年公寓","购物;便利店"
"超群京北便利店",40.00876,116.482575,"朝阳区宏泰西街","购物;便利店"
"小厨之家",40.008286,116.474991,"望京广顺大街星源国际大厦D座3A408室","购物;超市"
"Q・Mart北京望京店",40.003406,116.48094,"北京市朝阳区望京街172号泰一格年糕火锅旁边","购物;超市"
"联沃生活馆",40.000286,116.492133,"望京国风北京610楼-1单元-101室(融科橄榄城，望京SOHO，微软大厦)","购物"
"佳味便民店",40.014039,116.482591,"朝阳区利泽中街128号","购物"
"果果园",40.016537,116.475027,"广顺北大街16号华彩商业中心2楼(近利泽中街)","购物"
"烟酒便利店发",40.001207,116.482614,"阜通西大街(望京西园四区西南)","购物"
"便民服务部",40.013871,116.480462,"望京花园东区","购物"
